name,type,address,postcode,telephone,website,area_name,area_code,lon,lat
Smile Dental Care Salford,Dentist,"390 Manchester Road East, Little Hulton, Salford",M38 9WH,01617903377,http://www.smile-dentalcare.co.uk,Salford,E08000006,-2.418753,53.529467
J. Sainsbury - Leigh,Dentist,"Atherleigh Way, Leigh",WN7 5SJ,01612070002,http://www.centrefordentistry.com,Wigan,E08000010,-2.527795,53.499416
Little Lever Dental Practice,Dentist,"100 High Street, Little Lever, Bolton",BL3 1LR,01204574908,,Bolton,E08000001,-2.368853,53.561055
Smy Life,Dentist,"Pall Mall, Manchester",M2 4DL,01618307300,,Manchester,E08000003,-2.243418,53.480445
Unidental,Dentist,"10 Vernon Street, Stockport",SK1 1TY,01614808040,,Stockport,E08000007,-2.156764,53.41233
ABL Health Limited,General Practice,"71 Redgate Way, Farnworth, Bolton",BL4 0JL,01204570999,http://www.ablhealth.co.uk,Bolton,E08000001,-2.429374,53.550328
Penny Meadow Dental Practice,Dentist,"53 Penny Meadow, Ashton Under Lyne",OL6 6HE,01613302419,http://www.pennymeadowdental.co.uk,Tameside,E08000008,-2.089079,53.489873
Ravat & Ray Dental Care (Bolton One),Dentist,"Bolton One, Moor Lane, Bolton",BL3 5BN,01204527769,http://www.ravatandray.com,Bolton,E08000001,-2.435246,53.573928
Mydentist - Manchester Road - Oldham,Dentist,"580 Manchester Road, Hollinwood, Oldham",OL9 7LS,01616811022,http://www.mydentist.co.uk,Oldham,E08000004,-2.143803,53.520731
Mydentist - Church Street - Westhoughton,Dentist,"60 Church Street, Westhoughton, Bolton",BL5 3RS,01942815769,http://www.mydentist.co.uk,Bolton,E08000001,-2.525015,53.550036
Mydentist - Crab Tree Lane - Manchester,Dentist,"17 Crab Tree Lane, Atherton, Manchester",M46 0AU,01942883103,http://www.mydentist.org.uk,Wigan,E08000010,-2.491323,53.52235
Mydentist - Parsonage Street - Bury,Dentist,"1-5 Parsonage Street, Bury",BL9 6BG,01617643993,http://www.mydentist.co.uk,Bury,E08000002,-2.28154,53.59657
Mydentist - Church Street - Eccles,Dentist,"107 Church Street, Eccles, Manchester",M30 0EJ,01617889815,http://www.mydentist.co.uk,Salford,E08000006,-2.338336,53.482659
Mydentist - Tonge Moor Road - Bolton,Dentist,"513 Tonge Moor Road, Bolton",BL2 3BG,01204596500,http://www.mydentist.co.uk,Bolton,E08000001,-2.411601,53.596123
Mydentist - St. Marys Place - Bury,Dentist,"2 St. Marys Place, Bury",BL9 0DZ,01617644151,http://www.idhgroup.co.uk,Bury,E08000002,-2.300288,53.591547
Queens Road Dental and Cosmetic Centre,Dentist,"337 Queens Road, Manchester",M8 0JL,01612051113,,Manchester,E08000003,-2.225528,53.50234
Huntley Mount Medical Centre,General Practice,"Huntley Mount Road, Bury",BL9 6JA,01617616677,http://www.huntleymountmc.com,Bury,E08000002,-2.27859,53.600201
Mydentist - Standishgate - Wigan,Dentist,"100 Standishgate, Wigan",WN1 1XP,01942242620,http://www.idhgroup.co.uk,Wigan,E08000010,-2.628308,53.550802
Samedaydoctor Manchester Clinic,General Practice,"28 Queen Street, Manchester",M2 5HX,01618277868,http://www.samedaydoctor.co.uk,Manchester,E08000003,-2.247283,53.479455
Mydentist - Advanced Oral Health Centre - Red Rose - Wigan,Dentist,"50 New Market Street, Wigan",WN1 1SJ,01942242632,http://www.mydentist.co.uk,Wigan,E08000010,-2.631877,53.550202
Mydentist - Moor Road - Orrell,Dentist,"7 Moor Road, Orrell, Wigan",WN5 8ND,01942215091,http://www.mydentist.co.uk,Wigan,E08000010,-2.704943,53.53925
Mydentist - Atherton Road - Hindley,Dentist,"51 Atherton Road, Hindley, Wigan",WN2 3EA,01942258888,http://www.mydentist.co.uk,Wigan,E08000010,-2.57969,53.532885
Manchester Orthopaedic Clinical Services,General Practice,"19 Ellesmere Road, Eccles, Manchester",M30 9JY,01617070110,,Salford,E08000006,-2.341577,53.490531
Mydentist - High Street - Cheadle,Dentist,"19a High Street, Cheadle",SK8 1AX,01614911936,http://www.idhgroup.co.uk,Stockport,E08000007,-2.214146,53.394733
360 Dental Care Limited,Dentist,"6 Southern Street, Manchester",M3 4NJ,01618341000,http://www.360dentalcare.co.uk,Manchester,E08000003,-2.2520539999999998,53.475591
Drake Dental Practice,Dentist,"113 Drake Street, Rochdale",OL16 1PZ,01706644717,,Rochdale,E08000005,-2.155723,53.612379
Skin Medical Manchester,General Practice,"20 St Ann's Square, Manchester",M2 7HG,01618397663,http://www.skinmedical.co.uk,Manchester,E08000003,-2.246198,53.48219
Levenshulme Dental Practice,Dentist,"773 Stockport Road, Levenshulme, Manchester",M19 3DL,01612251589,,Manchester,E08000003,-2.19101,53.446816
Doctorcall Manchester,General Practice,"2-4 Exchange Street, St Ann's Square, Manchester",M2 7HA,08442579507,http://www.doctorcall.co.uk,Manchester,E08000003,-2.245632,53.48284
Sk:n - Manchester Albert Square,General Practice,"1 Albert Square, Manchester",M2 3FU,03300377489,http://www.sknclinics.co.uk,Manchester,E08000003,-2.245526,53.480126
Rochdale Ophthalmology Clinical Assessment and Treatment Service,General Practice,"The Croft Shifa, Belfield Road, Rochdale",OL16 2UP,08450774124,http://www.careuk.com,Rochdale,E08000005,-2.14084,53.622824
Kings Dental Centre,Dentist,"Unit 3 Garratt Way, Manchester",M18 8HE,01612208180,,Manchester,E08000003,-2.176031,53.461982
Spring Lane Dental Practice Limited,Dentist,"27 Spring Lane, Radcliffe, Manchester",M26 2TQ,01617248500,,Bury,E08000002,-2.32699,53.563083
Ainsworth Village Dental Practice,Dentist,"11 Church Street, Ainsworth, Bolton",BL2 5RA,01204382828,,Bury,E08000002,-2.35782,53.588135
Harwood Dental Care,Dentist,"21 Longsight, Harwood, Bolton",BL2 3HS,01204304568,http://www.harwooddentalcare.co.uk,Bolton,E08000001,-2.393855,53.60509
Mydentist - Morris Street - Manchester,Dentist,"Constable House, Morris Street, Withington, Manchester",M20 3HN,01614454749,http://www.mydentist.co.uk,Manchester,E08000003,-2.230465,53.434376
St Andrews House Medical Centre,General Practice,"Stalybridge Resource Centre, 2 Waterloo Road, Stalybridge",SK15 2AU,01613383181,http://www.standrewshousemedicalcentre.co.uk,Tameside,E08000008,-2.059094,53.484668
Langley Dental Practice (Rochdale),Dentist,"Croft Shifa Health Centre, Belfield Road, Rochdale",OL16 2UP,01616433703,http://www.langleydentalpractice.com,Rochdale,E08000005,-2.14084,53.622824
Bupa Centre - Manchester,General Practice,"111 Piccadilly, Manchester",M1 2HY,01612543300,http://www.bupa.co.uk,Manchester,E08000003,-2.23279,53.479522
Hyde Dental Access Centre,Dentist,"46 Union Street, Hyde, Manchester",SK14 1NX,01613662420,,Tameside,E08000008,-2.075911,53.449973
Deeplish Dental Practice,Dentist,"1st Floor, Nye Bevan House, Maclure Road, Rochdale",OL11 1DN,01706261870,,Rochdale,E08000005,-2.154239,53.611617
Charlestown Dental Practice Limited,Dentist,"Charlestown Health Centre, Charlestown Road, Blackley, Manchester",M9 7ED,01617953065,,Manchester,E08000003,-2.186902,53.52264
Willowbank Surgery,General Practice,"1 Church Lane, Harpurhey, Manchester",M9 4WH,01612059240,,Manchester,E08000003,-2.208318,53.50993
M60 Dental Care,Dentist,"872 Hollins Road, Oldham",OL8 4SR,01616242167,http://www.M60dentalcare.co.uk,Oldham,E08000004,-2.138447,53.52018
Mydentist - Stevenson Square - Manchester,Dentist,"43-45 Lever Street, Manchester",M1 1FN,01612242532,http://www.mydentist.co.uk,Manchester,E08000003,-2.233154,53.483214
Links Associates Ashton Ltd,Dentist,"Dental Surgery, Pennymeadow, Ashton-under-Lyne",OL6 6HD,01613304124,,Tameside,E08000008,-2.089184,53.489361
Links Associates Salford Ltd,Dentist,"141 Leicester Road, Salford",M7 4HJ,01617207612,,Salford,E08000006,-2.250473,53.514101
Ashid Hussain and Asif Saleem,Dentist,"6-8 Market Place, Ramsbottom, Bury",BL0 9HT,01706488096,,Bury,E08000002,-2.317958,53.649008
Emergency Department University Hospital South Manchester,General Practice,"Wythenshawe Hospital, Southmoor Road, Wythenshawe, Manchester",M23 9LT,01619987070,,Manchester,E08000003,-2.293183,53.387922
372 Dental,Dentist,"372 Bury Road, Bolton",BL2 6DD,01204522581,http://www.372dental.co.uk,Bolton,E08000001,-2.402583,53.580433
BARDOC - Waters Meeting Health Centre,General Practice,"Navigation Park, Waters Meeting Road, Bolton",BL1 8TT,01617638940,http://www.bardoc.com,Bolton,E08000001,-2.431389,53.595818
MASTA Travel Clinic - Manchester,General Practice,"STA Manchester, Unit 6, Barton Arcade, 556 Deansgate, Manchester",M3 2BW,03301004131,http://www.masta-travel-health.com,Manchester,E08000003,-2.246756,53.482225
Stockport Orthodontics,Dentist,"74 Macclesfield Road, Hazel Grove, Stockport",SK7 6DT,01625800333,http://www.stockportorthodontics.co.uk,Stockport,E08000007,-2.114114,53.366826
Ramsbottom Dental Surgery,Dentist,"72 Bridge Street, Ramsbottom, Bury",BL0 9AG,01706827755,http://www.ramsbottomdentalsurgery.co.uk,Bury,E08000002,-2.317878,53.648478
Tottington Dental Surgery,Dentist,"5 Back Chapel Street, Tottington, Bury",BL8 4AH,01204886881,,Bury,E08000002,-2.341179,53.615193
SimplyOne Dental,Dentist,"94 Henrietta Street, Ashton-under-Lyne",OL6 8NX,01613084129,,Tameside,E08000008,-2.092735,53.493807
Bennison Dental Practice,Dentist,"Dental Surgery, 401-405 Halliwell Road, Bolton",BL1 8DE,01204491946,http://www.andrewbennison.co.uk,Bolton,E08000001,-2.444339,53.594271
Seven Brooks Medical Centre,General Practice,"21 Church Street, Atherton, Manchester",M46 9DE,01942483933,,Wigan,E08000010,-2.489022,53.524185
Laserase Bolton Limited,General Practice,"71 Redgate Way, Farnworth, Bolton",BL4 0JL,01204570900,http://www.laserase-bolton.co.uk,Bolton,E08000001,-2.429374,53.550328
Dickenson Road Medical Centre,General Practice,"357-359 Dickenson Road, Longsight, Manchester",M13 0WQ,01612246522,,Manchester,E08000003,-2.200961,53.455985
Smile Creator Dental Surgery,Dentist,"332-334 Norris Road, Sale",M33 2UG,01619699907,,Trafford,E08000009,-2.2994,53.414594
Brooklyn Court Dental Practice,Dentist,"390 Wilmslow Road, Withington, Manchester",M20 3NA,01614453647,,Manchester,E08000003,-2.224203,53.437041
Swan Dental Care,Dentist,"48 Higher Swan Lane, Bolton",BL3 3AT,01204657513,http://www.synergydental.org.uk,Bolton,E08000001,-2.441218,53.560145
530 Bolton Partnership,Dentist,"530 Chorley Old Road, Bolton",BL1 6AB,01204843196,,Bolton,E08000001,-2.461747,53.588938
Jarvis Medical Practice - GPCC,General Practice,"137 Glodwick Road, Oldham",OL4 1YN,01616229220,,Oldham,E08000004,-2.095095,53.537786
"Bupa - Chorley Old Road, Bolton",Dentist,"530 Chorley Old Road, Bolton",BL1 6AB,01204843196,,Bolton,E08000001,-2.461747,53.588938
Bosden Farm Dental Practice,Dentist,"8 Fulmar Drive, Stockport",SK2 5JL,01614568716,http://www.bosdenfarmdentalpractice.co.uk,Stockport,E08000007,-2.109698,53.391036
Ethos Dental Care,Dentist,"126 Wellington Road North, Stockport",SK4 2LL,01614775142,http://www.ethosdental.co.uk,Stockport,E08000007,-2.16936,53.416629
One Dental,Dentist,"1 Milnrow Road, Rochdale",OL16 1UG,01706352319,,Rochdale,E08000005,-2.150936,53.613938
The Dale Medical Practice,General Practice,"2nd Floor Nye Bevan House, Maclure Road, Rochdale",OL11 1DN,01706261900,,Rochdale,E08000005,-2.154239,53.611617
Mydentist - Heaton Moor Road - Stockport,Dentist,"162 Heaton Moor Road, Stockport",SK4 4HS,01614327400,http://www.idhdentiststockportheatonmoor.co.uk,Stockport,E08000007,-2.188975,53.419053
Little Lever Health Centre,General Practice,"Mytham Road, Little Lever, Bolton",BL3 1JF,01204462988,,Bolton,E08000001,-2.370624,53.559818
Nuffield Health Manchester Printworks Fitness and Wellbeing Centre,General Practice,"The Printworks, 27 Withy Grove, Manchester",M4 2BS,01614646947,http://www.nuffieldhealth.com,Manchester,E08000003,-2.240778,53.485169
Ethos Dental Care Limited,Dentist,"126 Wellington Road North, Stockport",SK4 2LL,01614775142,http://www.ethosdental.co.uk,Stockport,E08000007,-2.16936,53.416629
Poppies Dental Care,Dentist,"24 Urmston Lane, Stretford, Manchester",M32 9BP,01618651633,,Trafford,E08000009,-2.315487,53.445617
Revive Dental Care - Ancoats,Dentist,"Old Mill Street, Manchester",M4 6EE,01617469029,http://www.revivedentalcare.co.uk,Manchester,E08000003,-2.219472,53.4829
Revive Dental Care - Ashton,Dentist,"193 Old Street, Ashton Under Lyne",OL6 7SR,01617891557,http://www.revivedentalcare.co.uk,Tameside,E08000008,-2.099981,53.485827
Revive Dental Care - Stockport,Dentist,"Kingsgate, Wellington Road North, Stockport",SK4 1LW,01614265684,,Stockport,E08000007,-2.165957,53.412533
Revive Dental Care - Manchester city centre,Dentist,"2 Bexley Square, Salford",M3 6BZ,01618345166,,Salford,E08000006,-2.258807,53.483621
Revive Dental Care - Circle OOH,Dentist,"10 Davyhulme Circle, Urmston, Manchester",M41 0SS,01617469029,http://www.revivedentalcare.co.uk,Trafford,E08000009,-2.356522,53.457445
Limes Dental Centre,Dentist,"2 Simpson Grove, Boothstown, Worsley, Manchester",M28 1LY,01617037773,http://www.limesdental.com,Salford,E08000006,-2.419883,53.503352
Ultima Vitality,General Practice,"718A Wilmslow Road, Manchester",M20 2DW,01614347373,http://www.ultimavitality.co.uk,Manchester,E08000003,-2.231744,53.417567
St Andrew's Dental Care,Dentist,"375 Ainsworth Road, Radcliffe, Manchester",M26 4HF,01617234274,,Bury,E08000002,-2.338975,53.574291
Freshdental,Dentist,"48 Wigan Road, Deane, Bolton",BL3 5PZ,0120464028,http://www.freshdental.co.uk,Bolton,E08000001,-2.45326,53.570895
Walkden Dental Practice,Dentist,"10-12 Memorial Road, Walkden, Manchester",M28 3AQ,01617902314,http://www.walkdendentalpractice.co.uk,Salford,E08000006,-2.398022,53.522876
207 Dental Care,Dentist,"207 Deansgate, Manchester",M3 3NW,01618340606,http://www.207dentalcare.com,Manchester,E08000003,-2.249026,53.478751
Family Dental Practice,Dentist,"177a Princess Road, Moss Side, Manchester",M14 4RL,01612268432,,Manchester,E08000003,-2.244741,53.453818
Avalon Dental Care,Dentist,"283 Slade Lane, Levenshulme, Manchester",M19 2HR,01612244345,,Manchester,E08000003,-2.199921,53.43988
Poundswick Lane Dental Practice,Dentist,"18 Poundswick Lane, Wythenshawe, Manchester",M22 9TD,01614993141,,Manchester,E08000003,-2.260386,53.382146
Brownley Green Dental Practice,Dentist,"Brownley Green Health Centre, Benchill Court Road, Wythenshawe, Manchester",M22 4GA,01612092702,,Manchester,E08000003,-2.256686,53.391916
Bolton Road Dental Practice,Dentist,"265 Bolton Road, Radcliffe, Manchester",M26 3QP,01617247344,,Bury,E08000002,-2.343533,53.562632
Crescent Dental Care,Dentist,"2 Crescent Road, Hale, Altrincham",WA15 9NA,01619298111,http://www.crescentdentalcare-hale.co.uk,Trafford,E08000009,-2.343866,53.374573
Thornley House Medical Centre,General Practice,"Thornley Street, Hyde",SK14 1JY,01613671791,,Tameside,E08000008,-2.076116,53.446746
Ash Villa Dental Practice,Dentist,"2 Harboro Way, Sale",M33 6QX,01619736890,http://www.ashvilladental.com,Trafford,E08000009,-2.3339,53.420586
Serenity Dental Spa,Dentist,"264 Barlow Moor Road, Chorlton, Manchester",M21 8HA,01618607000,http://www.crystalcare.co.uk,Manchester,E08000003,-2.268652,53.43186
Mydentist - Borough Arcade - Hyde,Dentist,"1 Borough Arcade, Hyde",SK14 2AA,01204799799,http://www.mydentist.co.uk,Tameside,E08000008,-2.07995,53.451813
The Dental Care Centre,Dentist,"75 Market Street, Little Lever, Bolton",BL3 1HH,01204796795,http://www.gentlesmile.co.uk,Bolton,E08000001,-2.371957,53.562266
Monton Green Dental Practice,Dentist,"17 Monton Green, Eccles, Manchester",M30 9LE,01617888769,http://www.montongreendental.co.uk,Salford,E08000006,-2.354851,53.491822
Haughton Green Dental Practice,Dentist,"87 Haughton Green Road, Denton, Manchester",M34 7GR,01613206228,,Tameside,E08000008,-2.097754,53.441472
Cleggs Lane Dental Practice,Dentist,"34 Cleggs Lane, Little Hulton, Manchester",M38 9WT,01617906682,,Salford,E08000006,-2.422774,53.53179
Calm Dental Care,Dentist,"132c Flixton Road, Urmston, Manchester",M41 5BG,01617476841,http://www.calmdentalcare.co.uk,Trafford,E08000009,-2.362664,53.448267
Windsor Dental Practice,Dentist,"Belvedere Road, Salford",M6 5EQ,01617361397,http://www.windsordental.co.uk,Salford,E08000006,-2.279415,53.487107
Jeremy Cooper Dental Practice,Dentist,"11 Victoria Road, Salford",M6 8FZ,01617895917,http://www.drjeremycooperbdslondsalford.co.uk,Salford,E08000006,-2.326647,53.491149
Dr David End - Cheetham Street East Salford,Dentist,"263 Great Cheetham Street East, Salford",M7 4UF,01617921960,,Salford,E08000006,-2.254856,53.503162
The Dental Practice,Dentist,"569 Cheetham Hill Road, Manchester",M8 9JE,01617403000,,Manchester,E08000003,-2.244998,53.51147
Church Lane Dental Practice,Dentist,"187 Church Lane, Harpurhey, Manchester",M9 4LY,01612051654,,Manchester,E08000003,-2.202169,53.507406
Mike Brown Dental,Dentist,"163 Drake Street, Rochdale",OL11 1EF,01706647746,,Rochdale,E08000005,-2.159499,53.61194
Littleborough Dental Practice,Dentist,"115 Featherstall Road, Littleborough",OL15 8JZ,01706376523,,Rochdale,E08000005,-2.106461,53.641858
Foxland Dental Surgery,Dentist,"42 Foxland Road, Gatley, Cheadle",SK8 4QB,01614910022,http://www.foxlanddental.co.uk,Stockport,E08000007,-2.230364,53.38779
Excel Dental Centre,Dentist,"1a Cheadle Road, Cheadle, Stockport",SK7 3DQ,01614281104,http://www.exceldental.co.uk,Stockport,E08000007,-2.164256,53.376808
Lotus Orthodontics,Dentist,"12a Market Street, Altrincham",WA14 1QB,,http://www.lotusorthodontics.com,Trafford,E08000009,-2.351254,53.388420000000004
Wood & Woolfstein Dental Practice,Dentist,"452 Barlow Moor Road, Chorlton, Manchester",M21 0BQ,01618812110,,Manchester,E08000003,-2.277668,53.443454
Circle Dental,Dentist,"16a The Circle, Barton Road, Stretford, Manchester",M32 9TR,01617482605,http://www.circledental.com,Trafford,E08000009,-2.336501,53.456569
Shevington Dental Practice,Dentist,"16 Gathurst Lane, Shevington, Wigan",WN6 8HA,01257252697,,Wigan,E08000010,-2.694238,53.571105
Mr Akeel Rahmatalla - Winton,Dentist,"1 Vaughan Street, Winton, Eccles, Manchester",M30 8DH,01617893808,,Salford,E08000006,-2.368096,53.49128
Green and Green Dental Surgery,Dentist,"100 Warrington Road, Newtown, Wigan",WN5 9AL,01942323939,,Wigan,E08000010,-2.652389,53.537445
Bolton Street Dental Practice,Dentist,"64 Bolton Street, Ramsbottom, Bury",BL0 9HX,01706825960,http://www.boltonstreetdental.co.uk,Bury,E08000002,-2.318941,53.647019
A R Dental,Dentist,"1 Albert Road, Cheadle Hulme, Cheadle",SK8 5DB,01614851193,,Stockport,E08000007,-2.193014,53.377358
Harpers Dental Practice,Dentist,"32 Bradford Street, The Haulgh, Bolton",BL2 1JJ,01204521140,http://www.harpersdentalpractice.org.uk,Bolton,E08000001,-2.417273,53.576751
Bromley Cross Dental Practice,Dentist,"227-229 Darwen Road, Bromley Cross, Bolton",BL7 9BS,01204308488,,Bolton,E08000001,-2.420162,53.615328
Ash Dental Practice,Dentist,"228-230 Liverpool Road, Eccles, Manchester",M30 0PF,01617890082,http://www.ashdental.co.uk,Salford,E08000006,-2.352501,53.482931
Kearsley Dental Care,Dentist,"25 Bolton Road, Kearsley, Bolton",BL4 8DB,01204573573,,Bolton,E08000001,-2.388475,53.544353
Haslam Park Dental Practice,Dentist,"208 Wigan Road, Bolton",BL3 5QE,01204654141,,Bolton,E08000001,-2.460819,53.568942
Bolton Orthodontic Centre,Dentist,"464 Manchester Road, Bolton",BL3 2NU,01204382242,,Bolton,E08000001,-2.413781,53.564054
406 Dental,Dentist,"406 Bury Old Road, Prestwich, Manchester",M25 1PZ,,http://www.406dental.com,Bury,E08000002,-2.269477,53.535937
Hind Dental Practice,Dentist,"1 Mesnes Park Terrace, Wigan",WN1 1SU,01942243339,,Wigan,E08000010,-2.633572,53.55049
Wood and Associates Dental Care Limited,Dentist,"673 Manchester Road, Denton, Manchester",M34 2NA,01613368036,,Tameside,E08000008,-2.149568,53.4574
Firwood Dental Practice,Dentist,"918 Middleton Road, Chadderton, Oldham",OL9 9SB,01616244297,http://www.firwooddental.co.uk,Oldham,E08000004,-2.160668,53.549157
Royton Health and Wellbeing Centre,Dentist,"Park Street, Royton, Oldham",OL2 6QW,01613624005,,Oldham,E08000004,-2.121594,53.566109
Elmfield Dental Practice,Dentist,"194 Stockport Road, Marple, Stockport",SK6 6DL,01614499740,,Stockport,E08000007,-2.072611,53.396107
Wallace Thomas Hobson & Emmett - Glebe Street,Dentist,"Dental Surgery, Glebe Street, Ashton Under Lyne",OL6 6HD,01613302351,,Tameside,E08000008,-2.089184,53.489361
Rosehill Dental Practice,Dentist,"301 Stockport Road, Marple, Stockport",SK6 6ES,01614272255,http://www.rosehilldentalpractice.co.uk,Stockport,E08000007,-2.082657,53.396164
Kinshuck Family Dentistry Limited,Dentist,"341 Ormskirk Road, Pemberton, Wigan",WN5 9DL,01942214605,http://www.famdentistry.co.uk,Wigan,E08000010,-2.663036,53.537108
East Road Care Limited,Dentist,"73 East Road, Longsight, Manchester",M12 5QY,01612245875,,Manchester,E08000003,-2.193587,53.453849
Lowton Dental Centre,Dentist,"7a Stone Cross Lane, Lowton, Warrington",WA3 2SA,01942722224,,Wigan,E08000010,-2.581607,53.474612
Hindley Dental Practice,Dentist,"1-3 Ladies Lane, Hindley, Wigan",WN2 2QA,01942255315,,Wigan,E08000010,-2.576461,53.538446
Pritchards Dental Practice Limited,Dentist,"20 Union Street, Oldham",OL1 1BE,01616787287,http://www.pritcharddental.co.uk,Oldham,E08000004,-2.114549,53.539593000000004
Simkins Dental Care,Dentist,"7 Lostock Road, Davyhulme, Manchester",M41 0SU,01617483378,,Trafford,E08000009,-2.35454,53.458028
The Blackley Dental Practice,Dentist,"371 Victoria Avenue, Blackley, Manchester",M9 8WQ,01617954547,http://www.pipdentalcare.com,Manchester,E08000003,-2.231243,53.533391
Revive Dental Care,Dentist,"72 Rocky Lane, Monton, Eccles, Manchester",M30 9LY,01617891557,http://www.revivedentalcare.co.uk,Salford,E08000006,-2.350298,53.495172
Pinfold Dental Practice Limited,Dentist,"34 Hattersley Road East, Hattersley, Hyde",SK14 3QJ,01613681390,,Tameside,E08000008,-2.029306,53.44639
Horwich Dental Care Centre Limited,Dentist,"517 Chorley New Road, Horwich, Bolton",BL6 6JT,08445769984,http://www.horwichdentalcare.net,Bolton,E08000001,-2.534953,53.590017
H M Forest Bank Prison,Dentist,"Forestbank, Swinton, Manchester",M27 8FB,01619257000,,Salford,E08000006,-2.302093,53.514251
"Bupa - St Anns Square, Manchester",Dentist,"14 St Ann's Square, Manchester",M2 7HQ,01618342627,,Manchester,E08000003,-2.245837,53.482236
Hale Family Dental Centre,Dentist,"1a Cambridge Road, Hale, Altrincham",WA15 9SY,01619281380,http://www.halefamilydental.co.uk,Trafford,E08000009,-2.342935,53.376518
Bridgewater Dental Surgery,Dentist,"4 The Packet House & Boatsteps, Barton Road, Worsley, Manchester",M28 2PB,01617279119,http://www.bridgewaterdentalsurgery.com,Salford,E08000006,-2.381317,53.499895
The Cottage Dental Practice,Dentist,"38 Ack Lane West, Cheadle Hulme, Cheadle",SK8 7EL,01614858000,,Stockport,E08000007,-2.182803,53.365734
Gary Knowles Dental Practice,Dentist,"Partington Health Centre, Central Road, Partington, Manchester",M31 4FL,01617759053,,Trafford,E08000009,-2.425053,53.417437
Dash Dental Care,Dentist,"76 Church Road, Northenden, Manchester",M22 4NW,01619983630,,Manchester,E08000003,-2.256131,53.407162
Mr E H Burke Surgery,Dentist,"265 London Road, Hazel Grove, Stockport",SK7 4PL,01614832099,,Stockport,E08000007,-2.118386,53.378947
Church Road Dental and Cosmetic,Dentist,"32 Church Road, Cheadle Hulme, Cheshire, Cheadle",SK8 7JB,01614860743,,Stockport,E08000007,-2.185722,53.366619
Birch Dental Practice Limited,Dentist,"2 Hythe Close, Rusholme, Manchester",M14 5AT,01612248127,,Manchester,E08000003,-2.221393,53.452336
The Square Advanced Dental Care,Dentist,"2 Hollins House, 327 Hale Road, Hale Barns, Altrincham",WA15 8TS,07921040842,http://www.thesquaredental.com,Trafford,E08000009,-2.312745,53.369473
Northern Orthodontics,Dentist,"Ashton Primary Care Centre, 193 Old Street, Ashton Under Lyne",OL6 7SR,01613435245,,Tameside,E08000008,-2.099981,53.485827
Inglewood House Dental Practice,Dentist,"225 Bury New Road, Whitefield, Manchester",M45 8GW,01617664506,http://www.inglewood-house.co.uk,Bury,E08000002,-2.295923,53.550715
Ramsbottom Dental Care,Dentist,"9-11 Peel Brow, Ramsbottom, Bury",BL0 0AA,01706829201,,Bury,E08000002,-2.312381,53.647755
Wigan Dental Centre,Dentist,"44 Whelley, Whelley, Wigan",WN1 3PQ,01942826366,,Wigan,E08000010,-2.617943,53.551125999999996
Ashton Dental Practice,Dentist,"19 Wigan Road, Ashton-in-Makerfield, Wigan",WN4 9AR,01942271827,http://www.wecareforyoursmile.com,Wigan,E08000010,-2.637556,53.488211
The Dental Health Centre,Dentist,"1b School Lane, Didsbury, Manchester",M20 6RD,01614455459,http://www.didsburydentalhealth.com,Manchester,E08000003,-2.230962,53.417631
Mr John Booth - 4A Dental,Dentist,"4a Balderstone Road, Rochdale",OL11 2AJ,01706394470,,Rochdale,E08000005,-2.145694,53.596976
Horwich Dental Practice,Dentist,"19-21 Winter Hey Lane, Horwich, Bolton",BL6 7AD,,,Bolton,E08000001,-2.547054,53.599391
Grays Dental Care,Dentist,"62 Manchester Road, Altrincham",WA14 4PJ,01619281813,http://www.graysdental.co.uk,Trafford,E08000009,-2.35188,53.394981
Shaw Heath Family Dental Health Centre,Dentist,"212 Shaw Heath, Stockport",SK2 6QZ,01614298851,,Stockport,E08000007,-2.156921,53.397706
Mr C Carre BDS Dental Practice,Dentist,"Upper Unit 43, Stretford Mall, Manchester",M32 9BB,01618652431,,Trafford,E08000009,-2.310817,53.445206
KS Dental Sale Manchester,Dentist,"331 Washway Road, Sale",M33 4EE,01619732753,,Trafford,E08000009,-2.337966,53.413385
Langworthy Dental Practice,Dentist,"192 Langworthy Road, Salford",M6 5PP,01617362695,,Salford,E08000006,-2.294577,53.487206
Edgeley Dental Practice Limited,Dentist,"146 Grenville Street, Edgeley, Stockport",SK3 9ET,01614803083,,Stockport,E08000007,-2.170461,53.40238
Denuvo Dental,Dentist,"143 Lea Gate, Bolton",BL2 4BQ,01204593300,http://www.denuvodental.co.uk,Bolton,E08000001,-2.396245,53.605235
Oakley Dental,Dentist,"59 Bury Old Road, Prestwich, Manchester",M25 0FG,01617730111,http://www.oakleydental.co.uk,Bury,E08000002,-2.261372,53.520828
The Dental Practice - Wilbraham Road,Dentist,"135 Wilbraham Road, Fallowfield, Manchester",M14 7DS,01612247621,http://www.thedentalpracticefallowfield.com,Manchester,E08000003,-2.233932,53.443431
Boothstown Dental Practice,Dentist,"51 Leigh Road, Boothstown, Worsely, Manchester",M28 1HP,01617902830,,Salford,E08000006,-2.420855,53.502522
Collegiate Dental Practice,Dentist,"76 Brideoak Street, Cheetham Hill, Manchester",M8 0AB,01612051000,,Manchester,E08000003,-2.241421,53.505581
The Sandy Lane Dental Practice,Dentist,"7 Sandy Lane, Chorlton-Cum-Hardy, Manchester",M21 8TL,01618816560,,Manchester,E08000003,-2.273708,53.438763
Dental Practice - Manchester Road,Dentist,"63 Manchester Road, Altrincham",WA14 4RH,01619282886,,Trafford,E08000009,-2.352566,53.396022
Broom Lane Dental Care,Dentist,"52 Broom Lane, Levenshulme, Manchester",M19 2TG,01614324477,,Manchester,E08000003,-2.185469,53.439687
Burton Dental Care,Dentist,"125 Burton Road, West Didsbury, Manchester",M20 1JP,01614380446,,Manchester,E08000003,-2.239063,53.429426
Saddleworth Dental Clinic,Dentist,"36 Oldham Road, Uppermill, Oldham",OL3 6HY,01457872108,,Oldham,E08000004,-2.009333,53.544537
Whalley Range Dental Practice,Dentist,"132 Withington Road, Whalley Range, Manchester",M16 8FB,01612269647,,Manchester,E08000003,-2.258096,53.450914
Park House Dental Practice Bury,Dentist,"311 Walmersley Road, Bury",BL9 5EZ,01617051746,,Bury,E08000002,-2.292723,53.609677
S Patel & Associates,Dentist,"112 Walmersley Road, Bury",BL9 6DX,01617648822,,Bury,E08000002,-2.289512,53.599735
Absolute Dental - Prestwich,Dentist,"111 Bury Old Road, Prestwich, Manchester",M25 0EQ,01617739922,,Bury,E08000002,-2.26406,53.523788
DHS Dental Practice - Phoenix Centre,Dentist,"The Phoenix Centre, 1 Church Street, Heywood",OL10 1LR,01706764334,,Rochdale,E08000005,-2.218662,53.592207
Greenwood Dental Practice,Dentist,"16 Greenwood Street, Altrincham",WA14 1RZ,01612330610,http://www.greenwooddental.co.uk,Trafford,E08000009,-2.352158,53.38672
"Vallance, Segal & Shupac - Failsworth",Dentist,"149 Lord Lane, Failsworth, Manchester",M35 0QH,01616815400,,Oldham,E08000004,-2.156717,53.501309
"Vallance, Segal & Shupac - Whitefield",Dentist,"55 Bury Old Road, Whitefield, Manchester",M45 6TB,01617732361,,Bury,E08000002,-2.283141,53.539645
Transform (Manchester),General Practice,"5th Floor, Colwyn Chambers, 19 York Street, Manchester",M2 3BA,01612287030,http://www.transforminglives.co.uk,Manchester,E08000003,-2.239954,53.480659
The Dental Treatment Centre,Dentist,"436 Flixton Road, Flixton, Manchester",M41 6QT,01617482490,http://www.clickdentist.co.uk,Trafford,E08000009,-2.384388,53.44448
Standish Dental Practice,Dentist,"Rodenhurst, 59 Church Street, Standish, Wigan",WN6 0JJ,01257422114,,Wigan,E08000010,-2.662777,53.587166
Beacon Medical Centre,General Practice,"156 Victoria Avenue, Manchester",M9 0FN,01617402106,http://www.mysurgerywebsite.co.uk,Manchester,E08000003,-2.219211,53.534341
Ocean Dental,Dentist,"169 Mauldeth Road, Manchester",M14 6SG,01612247135,,Manchester,E08000003,-2.209976,53.433508
Regent Dental Centre,Dentist,"22 Regent Road, Altrincham",WA14 1RP,01619412143,http://www.regentdentalcentre.co.uk,Trafford,E08000009,-2.352258,53.386045
H Showman & Associates Dental Practice,Dentist,"353 Oldham Road, Failsworth, Manchester",M35 0AN,01616824751,,Oldham,E08000004,-2.161181,53.509662
Heaton Mersey Orthodontic Centre,Dentist,"458 Didsbury Road, Heaton Mersey, Stockport",SK4 3BS,01619479900,http://www.hmorthoc.co.uk,Stockport,E08000007,-2.205509,53.412338
S D Walmsley Dental Practice,Dentist,"253 Manchester Road, Droylsden, Manchester",M43 6HE,01613702869,,Tameside,E08000008,-2.157046,53.480015
MIDHS at Beacon Business Centre,Dentist,"14 Arundel Street, Mossley, Ashton Under Lyne",OL5 0LS,01457838995,http://www.midhs.co.uk,Tameside,E08000008,-2.047107,53.518372
"Bupa - St Anns Square, Manchester",Dentist,"14 St Ann's Square, Manchester",M2 7HQ,01618342627,,Manchester,E08000003,-2.245837,53.482236
"Bupa - Buxton Road, Stockport",Dentist,"73 Buxton Road, High Lane, Stockport",SK6 8DR,01663764924,,Stockport,E08000007,-2.075293,53.364978
"Bupa - Stockport Road, Timperley",Dentist,"415 Stockport Road, Timperley, Altrincham",WA15 7XR,01619808010,,Trafford,E08000009,-2.315515,53.398597
Malt House Specialist Dental Centre,Dentist,"Deva Centre, Trinity Way, Salford",M3 7BD,01618329400,,Salford,E08000006,-2.254112,53.484728
Royton Medical Centre,General Practice,"15 Market Street, Royton, Oldham",OL2 5QA,01616526336,,Oldham,E08000004,-2.12386,53.565731
The Bridge Dental Care,Dentist,"58 Town Street, Marple Bridge, Stockport",SK6 5AA,01614497080,,Stockport,E08000007,-2.053323,53.400594
Glen Maye Dental Practice,Dentist,"Sale Road, Northenden, Manchester",M23 0DF,01619985588,http://www.glenmayedental.co.uk,Manchester,E08000003,-2.271165,53.408153
Elli and Associates,Dentist,"Ashton Road Limited Company, 234 Ashton Road, Hathershaw, Oldham",OL8 1QN,01616285676,,Oldham,E08000004,-2.112559,53.529133
High Lane Partnership,Dentist,"73 Buxton Road, High Lane, Stockport",SK6 8DR,01454771570,,Stockport,E08000007,-2.075293,53.364978
214 Dental,Dentist,"214 Victoria Avenue, Manchester",M9 0RR,01617401189,,Manchester,E08000003,-2.224292,53.533802
Mydentist - King Street - Dukinfield,Dentist,"140 King Street, Dukinfield",SK16 4LG,01613301036,http://www.mydentist.co.uk,Tameside,E08000008,-2.092728,53.476936
GreenLane Dental Practice,Dentist,"96-98 Manchester Road, Leigh",WN7 2LD,01942260597,,Wigan,E08000010,-2.495535,53.494217
Church Street Dental Practice,Dentist,"52 Church Street, Orrell, Wigan",WN5 8TQ,01695625565,,Wigan,E08000010,-2.709831,53.531086
Malmin Dental Manchester,Dentist,"44-46 John Dalton Street, Manchester",M2 6LE,01612144800,http://www.malmin.co.uk,Manchester,E08000003,-2.24587,53.480186
North Road Dental Practice,Dentist,"6 North Road, Clayton, Manchester",M11 4WE,01612232145,,Manchester,E08000003,-2.178975,53.484855
Northenden House Orthodontics,Dentist,"Sale Road, Northenden, Manchester",M23 0DF,01619982622,http://www.manchesterorthodontics.co.uk,Manchester,E08000003,-2.271165,53.408153
61 Dental,Dentist,"61 Church Road, Gatley, Cheadle",SK8 4NG,01614282447,http://www.61dental.co.uk,Stockport,E08000007,-2.235845,53.39186
BramcoteDental Practice,Dentist,"3 Syddal Road, Bramhall, Stockport",SK7 1AB,01614394297,http://www.smiledoc.co.uk,Stockport,E08000007,-2.168202,53.35585
Mr Gehad Philobbos,Dentist,"756 Hollins Road, Oldham",OL8 4SA,01616823587,,Oldham,E08000004,-2.136126,53.520605
128 Dental Care,Dentist,"128 Mile End Lane, Stockport",SK2 6BY,01614832823,,Stockport,E08000007,-2.136339,53.394962
Ortho 2008 - Wigan,Dentist,"2-6 King Street, Wigan",WN1 1BS,01942821166,http://www.ortho2008.co.uk,Wigan,E08000010,-2.631644,53.544735
Dam Head Medical Centre,General Practice,"1020 Rochdale Road, Manchester",M9 7HD,01617209744,,Manchester,E08000003,-2.21232,53.526139
Mydentist - Gorton Road - Stockport,Dentist,"268 Gorton Road, Reddish, Stockport",SK5 6RN,01614329600,http://www.mydentist.co.uk,Stockport,E08000007,-2.157026,53.446056
Derby Street Dentist,Dentist,"288 Derby Street, Bolton",BL3 6LF,01204366954,,Bolton,E08000001,-2.442806,53.567653
G & L Askins - Lowton,Dentist,"71a Church Lane, Lowton, Warrington",WA3 2QZ,01942726494,,Wigan,E08000010,-2.575409,53.470858
"Bupa - Drake Street, Rochdale",Dentist,"121 Drake Street, Rochdale",OL16 1PZ,01706643203,http://www.rochdaledental.co.uk,Rochdale,E08000005,-2.155723,53.612379
"Bupa - Rochdale Road, Oldham",Dentist,"118 Rochdale Road, Royton, Oldham",OL2 6QF,01616242730,http://www.roytondental.co.uk,Oldham,E08000004,-2.123759,53.568066
"Bupa - Washway Road, Sale",Dentist,"23 Washway Road, Sale",M33 7AD,01619695513,http://www.haddonlodgedental.co.uk,Trafford,E08000009,-2.325507,53.424941
Oasis Dental Care - Stockport,Dentist,"99 Edgeley Road, Edgeley, Stockport",SK3 9NG,01614808828,http://www.stockportorthodontist.co.uk,Stockport,E08000007,-2.176511,53.399693
"Bupa - Bramhall Lane South, Bramhall",Dentist,"233 Bramhall Lane South, Bramhall, Stockport",SK7 3EP,01614392360,http://www.bramhallparkdental.co.uk,Stockport,E08000007,-2.162344,53.376037
"Bupa - Liverpool Road, Irlam",Dentist,"125 Liverpool Road, Irlam, Manchester",M44 6DP,01617752184,http://www.irlamdental.co.uk,Salford,E08000006,-2.417074,53.449107
"Bupa - Wilmslow Road, Withington",Dentist,"429 Wilmslow Road, Withington, Manchester",M20 4AF,01614453104,http://www.glynhousedental.co.uk,Manchester,E08000003,-2.226511,53.435104
THMG Manchester Clinic,General Practice,"The Chambers, Police Street, Manchester",M2 7LQ,02072919700,http://www.harleymedical.co.uk,Manchester,E08000003,-2.246709,53.481544
Silverwell Dental Surgery,Dentist,"18 Silverwell Street, Bolton",BL1 1PP,01204533341,http://www.silverwell.co.uk,Bolton,E08000001,-2.425228,53.578079
Hollinwood Medical Practice,General Practice,"1 Clive Street, Oldham",OL8 3TR,01616277900,http://www.hollinwoodpractice.org.uk/,Oldham,E08000004,-2.127652,53.522114
Kingsway Dental Care,Dentist,"7 Lane End Road, Burnage, Manchester",M19 1WA,01614328741,,Manchester,E08000003,-2.212276,53.420911
Heaton Mersey Orthodontic Centre Limited,Dentist,"458 Didsbury Road, Heaton Mersey, Stockport",SK4 3BS,01619479900,http://www.hmorthoc.co.uk,Stockport,E08000007,-2.205509,53.412338
Lees Dental Centre,Dentist,"74 High Street, Lees, Oldham",OL4 5AA,01616338227,,Oldham,E08000004,-2.072191,53.537856
The Ivy Dental Practice,Dentist,"161 Wellington Road South, Stockport",SK1 3UA,01614802913,http://www.theivydentalpractice.co.uk,Stockport,E08000007,-2.156308,53.40231
Dental Surgery,Dentist,"295 Broadstone Road, Heaton Chapel, Stockport",SK4 5HQ,01614314524,,Stockport,E08000007,-2.173609,53.429368
Mydentist - Marple Road - Offerton,Dentist,"1 Marple Road, Offerton, Stockport",SK2 5EH,01614833898,http://www.mydentist.co.uk,Stockport,E08000007,-2.12902,53.400967
Pemberton Dental Practice,Dentist,"655 Ormskirk Road, Pemberton, Wigan",WN5 8AG,01942223815,,Wigan,E08000010,-2.677634,53.535677
Firswood Dental Practice,Dentist,"90-92 Warwick Road South, Firswood, Manchester",M16 0HU,,,Trafford,E08000009,-2.281641,53.452335
The Railway Road Dental Surgery,Dentist,"26 Railway Road, Leigh",WN7 4AU,01942673201,,Wigan,E08000010,-2.522088,53.497331
Freedom Dental,Dentist,"105 Station Road, Cheadle Hulme",SK8 7BG,01614866821,,Stockport,E08000007,-2.183013,53.372807
Mayfield Dental Care,Dentist,"3 Mayfield Street, Atherton",M46 0BF,01942877130,,Wigan,E08000010,-2.49295,53.523414
Whiteson Hair Loss Consultancy Ltd,General Practice,"The Old Hall Clinic, 14 Old Hall Road, Gatley",SK8 4BE,07970859229,http://www.drwhitesonhairlossclinic.co.uk,Stockport,E08000007,-2.234427,53.393814
Sale Moor Dental Practice,Dentist,"15 Marsland Road, Sale",M33 3HP,01619629990,,Trafford,E08000009,-2.304805,53.41929
Lees Medical Practice,General Practice,"Lees Medical Practice, Athens Way, Lees, Oldham",OL4 3BP,01616521285,,Oldham,E08000004,-2.074881,53.540281
Didsbury Family Dental Care,Dentist,"121 School Lane, Didsbury, Manchester",M20 6HS,01614451010,,Manchester,E08000003,-2.221882,53.416255
Alan Freedmans Dental Practice,Dentist,"494 Great Cheetham Street East, Salford",M7 4TW,01617923783,,Salford,E08000006,-2.250986,53.506478
Star Clinic,General Practice,"Milton Hall, 244 Deansgate, Manchester",M3 4BQ,03717054565,http://www.andreamarando.com,Manchester,E08000003,-2.250049,53.477977
Green Lane Dental Practice,Dentist,"46 Green Lane, Ashton-on-Mersey, Sale",M33 5PP,01619733802,,Trafford,E08000009,-2.341857,53.429643
Ascroft Medical,Dentist,"3 Ascroft Court, Peter Street, Oldham",OL1 1HP,,http://www.ascroftmedical.co.uk,Oldham,E08000004,-2.11304,53.540644
Bredbury Dental Practice Limited,Dentist,"219 George Lane, Bredbury, Stockport",SK6 1DJ,01614305999,,Stockport,E08000007,-2.101442,53.416722
Castle Street Dental Practice,Dentist,"136 Castle Street, Edgeley, Stockport",SK3 9JH,01614805068,http://www.castle-dentist.com,Stockport,E08000007,-2.170802,53.401238
Whitefield Dental Practice,Dentist,"118 Radcliffe New Road, Whitefield, Manchester",M45 7WQ,01617666164,http://www.whitefielddentalpractice.co.uk,Bury,E08000002,-2.309206,53.555263
Mydentist - Bedford Street - Leigh,Dentist,"3-5 Bedford Street, Leigh",WN7 1BX,01942673691,http://www.mydentist.co.uk,Wigan,E08000010,-2.513273,53.496495
Mydentist - Beal Lane - Oldham,Dentist,"12 Beal Lane, Shaw, Oldham",OL2 8PB,,http://www.mydentist.co.uk,Oldham,E08000004,-2.092314,53.577345
Mydentist - Victoria Street - Denton,Dentist,"2 Victoria Street, Denton, Manchester",M34 3JQ,,http://www.mydentist.co.uk,Tameside,E08000008,-2.114112,53.455759
Aligned Orthodontics,Dentist,"56 Chorley Road, Swinton, Manchester",M27 5AD,01617939802,,Salford,E08000006,-2.335368,53.509685
Mydentist - Reddish Road - Stockport,Dentist,"345 Reddish Road, Stockport",SK5 7EN,,http://www.mydentist.co.uk,Stockport,E08000007,-2.15663,53.43279
Mydentist - Bolton Road - Salford,Dentist,"371 Bolton Road, Irlam O'th' Heights, Salford",M6 7NJ,01617366411,http://www.mydentist.co.uk,Salford,E08000006,-2.308735,53.500671
Mydentist - King Street - Leigh,Dentist,"14 King Street, Leigh",WN7 4LR,,http://www.mydentist.co.uk,Wigan,E08000010,-2.519316,53.496388
Cahill Dental Care Centre,Dentist,"38 Higher Bridge Street, Bolton",BL1 2HA,01204895774,,Bolton,E08000001,-2.428633,53.583066
Arundel Dental Practice,Dentist,"33 Bramhall Lane South, Bramhall, Stockport",SK7 2DN,01614392048,http://www.arundeldentalpractice.co.uk,Stockport,E08000007,-2.165195,53.35927
Apollonia House Dental & Health Care,Dentist,"167 Mossley Road, Grasscroft, Oldham",OL4 4HA,01457821800,http://www.apolloniahouse.com,Oldham,E08000004,-2.033274,53.533873
Claremont Dental Surgery - Wigan,Dentist,"Mesnes Street, Wigan",WN1 1SS,01942242334,,Wigan,E08000010,-2.633033,53.550798
Mydentist - Ripponden Road - Oldham,Dentist,"177-187 Littlemoor Lane, Watersheddings, Oldham",OL4 2SF,,http://www.mydentist.co.uk,Oldham,E08000004,-2.085195,53.552093
Mydentist - Lees Road - Oldham,Dentist,"341 Lees Road, Oldham",OL4 1LR,,http://www.mydentist.co.uk,Oldham,E08000004,-2.088612,53.540163
Oldham Health Services,General Practice,"Oldham Intergrated Care Centre, New Radcliffe Street, Oldham",OL1 1NL,01616213400,,Oldham,E08000004,-2.116945,53.543824
Butterfly Dental Care Limited - Altrincham,Dentist,"17 Barrington Road, Altrincham",WA14 1HP,01619412048,,Trafford,E08000009,-2.348577,53.391872
Dentist On The Rock,Dentist,"26 The Rock, Bury",BL9 0NT,01612224840,http://www.dentistontherock.com,Bury,E08000002,-2.296616,53.593596
ICE Hospital and Postgraduate Training Centre,Dentist,"24 Furness Quay, Salford Quays, Manchester",M50 3XZ,08000141882,http://www.icedentalimplants.com,Salford,E08000006,-2.282982,53.472968
Charisma Clinic Ltd,Dentist,"6 Chepstow Drive, Hazel Grove, Stockport",SK7 4RY,01614835433,,Stockport,E08000007,-2.103709,53.377064
Droylsden Road Dental Practice,Dentist,"117 Droylsden Road, Newton Heath, Manchester",M40 1NT,01616826991,,Manchester,E08000003,-2.175662,53.499916
Shevington Surgery,General Practice,"Houghton   Lane, Shavington, Wigan",WN6 8ET,01942483777,http://www.shavington-surgery.co.uk/index.aspx,Wigan,E08000010,-2.69942,53.574041
Seven Brooks Medical Centre,General Practice,"21 Church Street, Atherton, Wigan",M46 9DE,01942884026,http://www.sevenbrooksmedicalcentre.nhs.uk,Wigan,E08000010,-2.489022,53.524185
Pemberton Surgery,General Practice,"Sherwood Drive, Wigan",WN5 9QX,08444779459,http://www.pembertonsurgery.co.uk,Wigan,E08000010,-2.669697,53.538479
Dukinfield Dental Care,Dentist,"137 King Street, Dukinfield",SK16 4JZ,01613083763,,Tameside,E08000008,-2.093455,53.478589
Simply Smiles Manchester Limited,Dentist,"35 Holden Road, Higher Broughton, Salford",M7 4LR,01617926502,,Salford,E08000006,-2.265447,53.516433
Bryn Street Dental Clinic Limited,Dentist,"23 Bryn Street, Ashton-in-Makerfield, Wigan",WN4 9AX,01942727465,http://www.brynstreetdental.co.uk,Wigan,E08000010,-2.63928,53.487584
Mossley Dental Care,Dentist,"16 Lancaster Street, Mossley, Ashton Under Lyne",OL5 0PD,01457837361,http://www.mossleydental.co.uk,Tameside,E08000008,-2.046926,53.518265
Mydentist - Cross Street - Wigan,Dentist,"2 Cross Street, Hindley, Wigan",WN2 3AT,01942200600,http://www.mydentist.co.uk,Wigan,E08000010,-2.579601,53.53524
Dental Surgery,Dentist,"96 Union Street, Oldham",OL1 1DU,01616204343,,Oldham,E08000004,-2.10737,53.540975
Ellesmere Dental Practice,Dentist,"70 Ellesmere Road, Altrincham",WA14 1JD,01619291009,,Trafford,E08000009,-2.349202,53.394746
Endo 61 Limited - Gatley,Dentist,"61 Church Road, Gatley, Cheadle",SK8 4NG,01614957293,http://www.endo61.com,Stockport,E08000007,-2.235845,53.39186
Rokni Euro - Dental Practice,Dentist,"2A Copson Street, Withington, Manchester",M20 3HE,01614349129,,Manchester,E08000003,-2.229695,53.433705
Dental Surgery,Dentist,"555 Barlow Moor Road, Chorlton-cum-Hardy, Manchester",M21 8AN,01618811257,,Manchester,E08000003,-2.2761,53.440824
Market Street Dental Practice,Dentist,"28 Market Street, Wigan",WN1 1HX,01942243720,,Wigan,E08000010,-2.633606,53.547748
Platt Bridge Dental Practice,Dentist,"152 Walthew Lane, Platt Bridge, Wigan",WN2 5AW,01942865115,,Wigan,E08000010,-2.600357,53.522087
P V McCrory- The Dental Practice,Dentist,"58 Ainsworth Road, Radcliffe, Manchester",M26 4FA,01617259542,,Bury,E08000002,-2.334228,53.565786
NE Consultancy,General Practice,"223-225 Stockport Road, Guide Bridge, Ashton Under Lyne",OL7 0NT,01613378086,,Tameside,E08000008,-2.112615,53.476432
Dr David Ian Llewellyn - Parrswood Road,Dentist,"162 Parrswood Road, Withington, Manchester",M20 4RQ,01614459033,,Manchester,E08000003,-2.216574,53.428597
The Dental Surgery,Dentist,"28 Delaunays Road, Crumpsall, Manchester",M8 4QS,01617402956,,Manchester,E08000003,-2.235291,53.517512
Stalybridge Dental Care,Dentist,"42 Acres Lane, Stalybridge",SK15 2JU,01613382341,http://www.stalybridgedentalcare.co.uk,Tameside,E08000008,-2.051828,53.482372
Peter Watson Dental Practice,Dentist,"4th Floor St John Chambers, 2 St John Street, Manchester",M3 4DA,01618345691,,Manchester,E08000003,-2.250301,53.477706
Synergy Dental Clinic,Dentist,"10 Tenterden Street, Bury",BL9 0EG,01617644366,http://www.synergydental.org.uk,Bury,E08000002,-2.300951,53.591266
Ravat and Ray Dental Care (Rumworth) Ltd,Dentist,"Rumworth House, 512 Wigan Road, Bolton",BL3 4QW,01204850285,http://www.ravatandray.com,Bolton,E08000001,-2.469641,53.565232
Ravat & Ray Dental Care (Wigan) Ltd,Dentist,"Pemberton Health Centre, Sherwood Drive, Wigan",WN5 9QX,01942481929,http://www.ravatandray.com,Wigan,E08000010,-2.669697,53.538479
Ravat & Ray Dental Care (Chadderton) Ltd,Dentist,"Fields New Road Primary Care Centre, Fields New Road, Oldham",OL9 8NH,01616336193,http://www.ravatandray.com,Oldham,E08000004,-2.145068,53.533205
Grasmere Surgery,General Practice,"Leigh Health Centre, The Avenue, Leigh",WN7 1HR,01942483330,http://www.grasmere.surgery.co.uk,Wigan,E08000010,-2.511455,53.503236
W B Whittle,Dentist,"202/204 Tonge Moor Road, Bolton",BL2 2HN,01204521514,http://www.cosmeticdentistbolton.co.uk,Bolton,E08000001,-2.412144,53.589766
Bryn Dental Practice t/a Smiles R US Limited,Dentist,"8 Downall Green Road, Ashton-in-Makerfield, Wigan",WN4 0DH,01942275001,,Wigan,E08000010,-2.649133,53.501176
Oaklands Hospital,General Practice,"19 Lancaster Road, Salford",M6 8AQ,01617877700,http://www.pioneerhealthcare.co.uk,Salford,E08000006,-2.321064,53.492297
Mydentist - Platt Lane - Fallowfield,Dentist,"306 Platt Lane, Fallowfield, Manchester",M14 7BZ,01612242532,http://www.mydentist.co.uk,Manchester,E08000003,-2.237552,53.44719
Manchester Dental,Dentist,"154 Flixton Road, Urmston, Manchester",M41 5BG,01617482674,http://www.manchesterdental.co.uk,Trafford,E08000009,-2.362664,53.448267
Hyde Dental Practice Limited,Dentist,"203 Market Street, Hyde",SK14 1HF,01613682167,,Tameside,E08000008,-2.07562,53.44752
Mydentist - Park Road - Westhoughton,Dentist,"53 Park Road, Westhoughton, Bolton",BL5 3BX,01942812239,http://www.mydentist.co.uk,Bolton,E08000001,-2.518336,53.548105
Bardoc - Fairfield General Hospital,General Practice,"Rochdale Old Road, Bury",BL9 7TD,01617634242,http://www.bardoc.co.uk,Bury,E08000002,-2.25562,53.600439
Oakmount Dental Practice,Dentist,"628 Wilmslow Road, Manchester",M20 3QX,01614451211,http://www.oakdental.co.uk,Manchester,E08000003,-2.231705,53.424272
Glyn House Dental Partnership,Dentist,"429 Wilmslow Road, Withington, Manchester",M20 4AF,01614453104,,Manchester,E08000003,-2.226511,53.435104
Holly House Dental Practice,Dentist,"105 Hyde Road, Woodley, Stockport",SK6 1NB,01614948621,,Stockport,E08000007,-2.099991,53.426073
Corra Linn House Dental Practice,Dentist,"316b Buxton Road, Stockport",SK2 7DD,01614832816,,Stockport,E08000007,-2.136905,53.388526
Dr Pauline Gail Carmichael,Dentist,"7 Longsight Road, Holcombe Brook, Bury",BL0 9SL,01204886408,,Bury,E08000002,-2.333361,53.63205
Ravat & Ray Dental Care (Fitton Hill) Ltd,Dentist,"Ravat & Ray Dental Care, Tanhill Lane, Oldham",OL8 2QL,01616277065,http://www.ravatandray.com,Oldham,E08000004,-2.103488,53.520791
Concord Dental Practice,Dentist,"36 Concord Way, Dukinfield",SK16 4DB,01613305682,,Tameside,E08000008,-2.083416,53.476538
The Jalal Practice,General Practice,"Integrated Care Centre, New Radcliffe Street, Oldham",OL1 1NL,01616213443,,Oldham,E08000004,-2.116945,53.543824
Openshaw Dental Practice,Dentist,"1333 Ashton Old Road, Openshaw, Manchester",M11 1JT,01613702213,,Manchester,E08000003,-2.161494,53.472998
The St John Street Surgery,Dentist,"14 St John Street, Manchester",M3 4DZ,01618349468,,Manchester,E08000003,-2.251027,53.477823
"Bupa - Chorley New Road, Bolton",Dentist,"40 Chorley New Road, Bolton",BL1 4AP,01204521734,http://www.boltondental.co.uk,Bolton,E08000001,-2.44329,53.582159
"Bupa - Northenden Road, Sale Moor",Dentist,"116 Northenden Road, Sale",M33 3HD,01619736356,http://www.salemoordentist.co.uk,Trafford,E08000009,-2.306545,53.420551
Peel Hall Medical Practice,General Practice,"Forum Square, Civic Centre, Wythenshawe",M22 5RX,01613751000,,Manchester,E08000003,-2.265017,53.379925
Bryn Cross Surgery,General Practice,"246 Wigan Road, Ashton In Makerfield, Wigan",WN4 0AR,01942727270,,Wigan,E08000010,-2.64744,53.500897
Barlow Medical Centre,General Practice,"828 Wilmslow Road, Didsbury, Manchester",M20 2RN,,,Manchester,E08000003,-2.231434,53.413163
Ladybarn Group Practice,General Practice,"54 Briarfield Road, Withington, Manchester",M20 4SS,,,Manchester,E08000003,-2.213962,53.429923
DCO Dental Group - Sale,Dentist,"1 Hope Road, Sale",M33 3AB,01619627465,http://www.dcodental.co.uk,Trafford,E08000009,-2.319176,53.423511
DCO Dental Group - Timperley,Dentist,"The Lakes Medical Centre, 53C Mainwood Road, Timperley, Altrincham",WA15 7JW,01619806745,http://www.dcodental.co.uk,Trafford,E08000009,-2.312943,53.392375
Marjory Lees Dental Centre,Dentist,"283 Ashton Road, Oldham",OL8 1NN,01616331234,,Oldham,E08000004,-2.11212,53.529203
Ayres Road Dental Surgery,Dentist,"151 Ayres Road, Old Trafford, Manchester",M16 9WR,01618721695,,Trafford,E08000009,-2.271872,53.457679
Peel Green Dental,Dentist,"419 Liverpool Road, Eccles, Manchester",M30 7HD,,,Salford,E08000006,-2.364325,53.478769
Bury GP Federation - Extended Working Hours Fairfax Practice,General Practice,"Fairfax Road, Prestwich, Manchester",M25 1BT,01617621672,http://www.burygpfederation.com,Bury,E08000002,-2.28357,53.533828
Cheadle Village Dental Practice,Dentist,"89B High Street, Cheadle",SK8 1AA,01614282355,,Stockport,E08000007,-2.216788,53.393935
Bury GP Federation - Extended Working Hours Radcliffe Primary Care Centre,General Practice,"69 Church Street West, Radcliffe, Manchester",M26 2SP,01617621672,http://www.burygpfederation.com,Bury,E08000002,-2.323706,53.560143
Bury GP Federation - Extended Working Hours Moorgate Primary care Centre,General Practice,"22 Derby Way, Bury",BL9 0NJ,01617621672,http://www.burygpfederation.com,Bury,E08000002,-2.288591,53.59553
Dental Lounge,Dentist,"47 Brown Lane, Heald Green, Cheadle",SK8 3RL,01614371250,http://www.thedental-lounge.com,Stockport,E08000007,-2.233667,53.373141
Ellesmere Endodontic Centre,Dentist,"70 Ellesmere Road, Altrincham",WA14 1JD,01619269535,,Trafford,E08000009,-2.349202,53.394746
Shine Dental Practice Limited,Dentist,"61 Stamford Square, Ashton Under Lyne",OL6 6QR,01613301178,http://www.shinedental.co.uk,Tameside,E08000008,-2.077121,53.486367
Delahays Dental Practice,Dentist,"2 Delahays Drive, Hale, Altrincham",WA15 8DP,01619805019,,Trafford,E08000009,-2.323197,53.376312
Northenden Group Practice,General Practice,"Northenden Health Centre, 489 Palatine Road, Manchester",M22 4DH,01619983206,,Manchester,E08000003,-2.265032,53.406431
Chorlton Health Centre,General Practice,"Chorlton Health Centre, 1 Nicolas Road, Chorlton Cum Hardy, Manchester",M21 9NJ,01618814545,,Manchester,E08000003,-2.279717,53.443773
The Arch Medical Centre,General Practice,"Hulme Medical Centre, 175 Royce Road, Manchester",M15 5TJ,01612260606,,Manchester,E08000003,-2.249612,53.46774
West Point Medical Centre,General Practice,"167-169 Slade Lane, Manchester",M19 2AF,01612485100,,Manchester,E08000003,-2.197586,53.445978
Eccles Gateway,General Practice,"Eccles Gateway, 28 Barton Lane, Eccles",M30 0TU,01612124231,,Salford,E08000006,-2.339314,53.48253
Campaigne Limited,Dentist,"159-161 Stockport Road, Cheadle",SK8 2DP,,http://www.cthedentist.com,Stockport,E08000007,-2.205095,53.395403
The Medical Centre,General Practice,"The Etihad Campus, CFA - First Team Centre, 161 Clayton Lane, Manchester",M11 4TS,01614387106,http://www.mcfc.co.uk/the-club/etihad-campus-development,Manchester,E08000003,-2.186364,53.478993
Alkrington Dental,Dentist,"64 Mount Road, Middleton, Manchester",M24 1DZ,01616530777,http://www.alkringtondental.co.uk,Rochdale,E08000005,-2.19656,53.543225
DHI Manchester,General Practice,"Suite 3C & 3D, Floor 3, Blackfriars House, Parsonage,, Manchester",M3 2JA,01618393769,,Manchester,E08000003,-2.247865,53.483375
Moston Healthcare Limited (Formerly known as Mr Michael Fine - Moston Lane),Dentist,"334 Moston Lane, Moston, Manchester",M40 9JS,01616811033,,Manchester,E08000003,-2.194838,53.51369
Lartey Dental Clinic,Dentist,"563 Barlow Moor Road, Chorleton, Manchester",M21 8AE,01772252154,,Manchester,E08000003,-2.276661,53.441524
International House,General Practice,"Pepper Road, Hazel Grove, Stockport",SK7 5BW,01614760400,,Stockport,E08000007,-2.139563,53.378258
Hopwood Dental Practice,Dentist,"181 Manchester Road, Hopwood",OL10 2PP,01706369636,,Rochdale,E08000005,-2.2105070000000002,53.583281
Swinton Practice Limited,Dentist,"63 Chorley Road, Swinton, Manchester",M27 4AF,08448151368,,Salford,E08000006,-2.33372,53.509205
The Vallance Dental Centre,Dentist,"1st Floor, The Vallance Centre, Wadeson Road, Manchester",M13 9UJ,01612735998,,Manchester,E08000003,-2.224542,53.469786
HMP Manchester,Dentist,"Dental Department, 1 Southall Street, Manchester",M60 9AH,01612735998,,Manchester,E08000003,-2.245686,53.492188
Unsworth Smile Clinic,Dentist,"1st Floor, 57 Parr Lane, Unsworth, Bury",BL9 8JR,01617666661,,Bury,E08000002,-2.273074,53.560681
Sale Dental Care,Dentist,"77 Washway Road, Sale",M33 7TQ,01619697432,http://www.saledentalspa.co.uk,Trafford,E08000009,-2.329303,53.42158
Chadderton Dental Health Center - Oldham,Dentist,"Middleton Road, Chadderton, Oldham",OL9 0LH,01616267727,,Oldham,E08000004,-2.142182,53.545559
Dental Surgery Offerton Health Centre,Dentist,"10 Offerton Lane, Stockport",SK2 5AR,01614800327,,Stockport,E08000007,-2.136713,53.403467
10 St John Street,General Practice,"10 St John Street, Manchester",M3 4DY,02074862277,,Manchester,E08000003,-2.25092,53.477812
Jct20 Dental Clinic,Dentist,"1190 Rochdale Road, Blackley, Manchester",M9 6FR,01617405407,http://www.jct20dentalclinic.co.uk,Manchester,E08000003,-2.207465,53.532825
BL Medical Practice,General Practice,"Woodley Health Centre, Hyde Road, Stockport",SK6 1ND,01614269464,http://www.benslanemedicalpractice.co.uk,Stockport,E08000007,-2.0996610000000002,53.426289
Langley Dental Practice,Dentist,"215a Wood Street, Middleton, Manchester",M24 5RU,01616432428,http://www.langleydentalpractice.com,Rochdale,E08000005,-2.207706,53.554226
True Dentistry,Dentist,"177 Chorley New Road, Bolton",BL1 4QZ,01204373555,http://www.truedentistry.co.uk,Bolton,E08000001,-2.448472,53.580809
English Institute of Sport - Manchester,General Practice,"EIS, 299 Alan Turing Way, Manchester",M11 3BS,,http://www.eis2win.co.uk,Manchester,E08000003,-2.191764,53.477301
Chariwala Smile Limited,Dentist,"37 Victoria Road, Horwich, Bolton",BL6 5ND,07590928937,,Bolton,E08000001,-2.542583,53.595933
Chariwala Smile Limited,Dentist,"9 Marsden House, Marsden Road, Bolton",BL1 2JT,07590928937,,Bolton,E08000001,-2.43424,53.578947
Ravat and Ray Dental Care (Salford) Ltd,Dentist,"Ordsall Health Surgery, 118 Phoebe Street, Salford",M5 3PA,01618720606,http://www.ravatandray.com,Salford,E08000006,-2.275427,53.476322
Pracny & Strass,Dentist,"195 Finney Lane, Heald Green, Cheadle",SK8 3PX,01614374040,,Stockport,E08000007,-2.234085,53.369887
Cheadle Heath Dental Practice,Dentist,"242 Stockport Road, Cheadle Heath, Stockport",SK3 0LX,01614283024,,Stockport,E08000007,-2.192822,53.401322
Stephen Emmett's Dental Surgery,Dentist,"165 Chapman Street, Gorton, Manchester",M18 8LY,01612231888,,Manchester,E08000003,-2.169882,53.464456
The Dentists of Didsbury Limited,Dentist,"839 Wilmslow Road, Didsbury, Manchester",M20 5WD,01614454005,http://www.thedentistsofdidsbury.com,Manchester,E08000003,-2.221913,53.410619
Face & Eye,General Practice,"2 Gibwood Road, Manchester",M22 4BT,01619472720,http://www.faceandeye.co.uk,Manchester,E08000003,-2.266591,53.405584
Moston Dental Surgery,Dentist,"301 Moston Lane, Moston, Manchester",M40 9NL,01612034575,,Manchester,E08000003,-2.199381,53.514017
Ashton Medical Centre,General Practice,"120 Wigan Road, Ashton In Makerfield, Wigan",WN4 9SU,01942727325,http://www.ssphealth.com,Wigan,E08000010,-2.642855,53.494792
Lower Ince Surgery,General Practice,"Clare Houae, Phoenix Way, Ince, Wigan",WN3 4NW,01942481140,http://www.ssphealth.com,Wigan,E08000010,-2.614585,53.534922
Ince Surgery,General Practice,"Ince Community Centre, Manchester Road, Ince, Wigan",WN2 2DJ,01942483150,http://www.ssphealth.com,Wigan,E08000010,-2.604008,53.543362
Braithwaite Road Surgery,General Practice,"36 Braithwaite Road, Lowton, Warrington",WA3 2HY,01942718221,http://www.ssphealth.com,Wigan,E08000010,-2.574985,53.477412
Astley General Practice,General Practice,"391A Manchester Road, Astley, Tyldesley, Manchester",M29 7BY,01942876339,http://www.ssphealth.com,Wigan,E08000010,-2.458266,53.500415
3D Medical Centre,General Practice,"200-202 Deane Road, Bolton",BL3 5DP,01204463246,http://www.ssphealth.com,Bolton,E08000001,-2.444008,53.573058
The Heights General Practice,General Practice,"355 Bolton Road, Salford",M6 7NJ,01617365282,http://www.ssphealth.com,Salford,E08000006,-2.308735,53.500671
Bolton Medical Centre,General Practice,"21 Rupert Street, Bolton",BL3 6PY,01204463900,http://www.ssphealth.com,Bolton,E08000001,-2.431399,53.56543
Nuffield Health Manchester Diagnostic Suite,General Practice,"City Labs, Nelson Street, Manchester",M13 9NQ,07557296378,,Manchester,E08000003,-2.228478,53.462228
Kingswater Dental Practice,Dentist,"102 Denton Road, Audenshaw, Manchester",M34 5BD,01613363649,,Tameside,E08000008,-2.117553,53.464088
Dairyground Dental Practice,Dentist,"59A Dairyground Road, Bramhall, Stockport",SK7 2QW,01614393098,,Stockport,E08000007,-2.15709,53.365644
White House Dental Practice,Dentist,"11 Ack Lane East, Bramhall, Stockport",SK7 2BE,01614394842,,Stockport,E08000007,-2.167762,53.358655
Avenue Dental Surgery,Dentist,"4 The Avenue, Leigh",WN7 1ES,01942676336,,Wigan,E08000010,-2.517786,53.499354
Nye Bevan House,General Practice,"Maclure Road, Rochdale",OL11 1DN,,,Rochdale,E08000005,-2.154239,53.611617
Townside Primary Care Centre,General Practice,"3rd Floor, Knowsley Street, Bury",BL9 0SN,,,Bury,E08000002,-2.29898,53.59031
The Fold,Dentist,"3 Back Pool Fold, Manchester",M2 1HB,07872906245,,Manchester,E08000003,-2.243879,53.481909
Beehive Surgery,General Practice,"106-108 Crescent Road, Bolton",BL3 2JR,01204550100,http://www.beehivesurgery.com,Bolton,E08000001,-2.419172,53.564161
Allan Dental Practice,Dentist,"60 Stamford Street East, Ashton Under Lyne",OL6 6QH,01613303419,,Tameside,E08000008,-2.084569,53.487872
Urmston Group Practice,General Practice,"6 Woodsend Crescent Road, Urmston, Manchester",M41 8AA,01617559870,http://www.urmstongrouppractice.co.uk,Trafford,E08000009,-2.394066,53.452491
Manchester BabyScan Clinic,Dentist,"Waterhouse, 41 Spring Gardens, Manchester",M2 2BG,01617130030,http://www.manchesterbabyscanclinic.com,Manchester,E08000003,-2.241793,53.480754
HR Healthcare Ltd,General Practice,"The Office, Waters Meeting, Britannia Way, Bolton",BL2 2HH,01204559999,http://www.treated.com,Bolton,E08000001,-2.420907,53.593131
Hale Bowden Dental Practice,Dentist,"118 Ashley Road, Hale, Altrincham",WA14 2UN,,,Trafford,E08000009,-2.349039,53.378531
Awburn House Dental Practice,Dentist,"Mottram Moor, Mottram, Hyde",SK14 6LA,01457766050,,Tameside,E08000008,-2.011,53.458105
Park House Dental Surgery Brinnington Health Centre,Dentist,"Brinnington Health Centre, Brinnington, Stockport",SK5 8BS,01616275242,,Stockport,E08000007,-2.132367,53.427651
Park House Dental Practice,Dentist,"80 Manchester Road, Werneth, Oldham",OL9 7AP,01616204213,,Oldham,E08000004,-2.132291,53.533975
Park House Dental Practice,Dentist,"74 Oldham Road, Springhead, Oldham",OL4 5SR,01616269246,,Oldham,E08000004,-2.063771,53.537788
The Park House Dental Practice and Cosmetic Centre,Dentist,"32 Middleton Road, Crumpsall, Manchester",M8 4JX,01617402080,,Manchester,E08000003,-2.248393,53.519561
The Park House Dental Practice and Cosmetic Centre,Dentist,"7 Slade Lane, Longsight, Manchester",M13 0QJ,01612573839,,Manchester,E08000003,-2.196561,53.452503
DHS Dental Practice,Dentist,"1 Bridge Street, Upper Mill, Oldham",OL3 6HZ,01457874872,,Oldham,E08000004,-2.007251,53.545931
Dental Care Plus Manchester,Dentist,"268 Finney Lane, Heald Green, Cheadle",SK8 3QD,01614379622,,Stockport,E08000007,-2.234718,53.370308
Fernclough Surgery,General Practice,"Unit 1, Tavistock Square, Harpurhey, Machester",M9 5RD,,,Manchester,E08000003,-2.216154,53.50589
Diagnostic Healthcare Limited,General Practice,"Mansion House, 3 Bridgewater Embankment, Altrincham",WA14 4RW,,,Trafford,E08000009,-2.353017,53.397872
The Bank Dental Practice Limited,Dentist,"437 Bury New Road, Prestwich, Manchester",M25 1AF,01617989955,,Bury,E08000002,-2.284871,53.532082
Deane Medical Centre,General Practice,"155-157 Deane Road, Bolton",BL3 5AH,07905046240,,Bolton,E08000001,-2.441983,53.572699
Now GP,General Practice,"1 Lowry Plaza, The Quays, Salford",M50 3UB,08083018067,http://www.drnow.com,Salford,E08000006,-2.294541,53.471322
Oldham Orthodontics,Dentist,"221 Hollins Road, Oldham",OL8 3AA,01616220987,http://www.oldhamorthodontics.co.uk,Oldham,E08000004,-2.12006,53.524793
Crescent Orthodontics & Dental Practice,Dentist,"107 Drake Street, Rochdale",OL16 1PZ,01706645125,http://www.rochdaleorthodontics.co.uk,Rochdale,E08000005,-2.155723,53.612379
Primrose Surgery,General Practice,"59 Old Crofts Bank, Urmston, Manchester",M41 7AB,01617472424,http://www.primroseavenue.co.uk,Trafford,E08000009,-2.357311,53.456159
Cheetham Hill Medical Centre,General Practice,"244 Cheetham Hill Road, Manchester",M8 8AU,07951725356,http://www.cheethamhillmedicalcentre.co.uk,Manchester,E08000003,-2.235847,53.500819
The Neville Family Medical Centre,General Practice,"25 Old Market Street, Blackley, Manchester",M9 8DX,01617214865,http://www.nevillefmc.com,Manchester,E08000003,-2.220629,53.522771
Boothstown Dental Practice,Dentist,"51 Leigh Road, Boothstown Dental Practice, Manchester",M28 1HP,01617902830,,Salford,E08000006,-2.420855,53.502522
Barton Cosmetic Dentistry Centre,Dentist,"Barton Arcade, Deansgate, Manchester",M3 2BH,01618329559,,Manchester,E08000003,-2.246384,53.48265
Direct Medicare UK Limited,General Practice,"Bodmin Road Health Centre, Bodmin Road, Sale",M33 5JH,016119624625,,Trafford,E08000009,-2.351718,53.428123
Dale Street Dental Practice,Dentist,"36 Dale Street, Milnrow, Rochdale",OL16 4HS,01706641051,,Rochdale,E08000005,-2.111778,53.610424
Cheetham Hill Medical Centre,General Practice,"244 Cheetham Hill Road, Cheetham Hill, Manchester",M8 8UP,,,Manchester,E08000003,-2.23526,53.501162
Conran Medical Centre,General Practice,"77 Church Lane, Harpurhey, Manchester",M9 1BA,,,Manchester,E08000003,-2.210459,53.515913
North Manchester General Hospital-Outpatients A,General Practice,"Delaunays Road, Manchester",M8 5RB,,,Manchester,E08000003,-2.229502,53.517882
Integrated Care Centre,General Practice,"New Radcliffe Street, Oldham",OL1 1NL,01616224294,,Oldham,E08000004,-2.116945,53.543824
Royton Health & Wellbeing Centre,General Practice,"Park Street, Royton, Oldham",OL2 6QW,,,Oldham,E08000004,-2.121594,53.566109
Keppel Building,General Practice,"Ashton Road West, Failsworth, Oldham",M35 0AD,01616224294,,Oldham,E08000004,-2.156747,53.509855
New Islington Medical Practice,General Practice,"Old Mill Street, Ancoats, Manchester",M4 6EE,01612725660,http://www.nismp.co.uk,Manchester,E08000003,-2.219472,53.4829
Ringway Dental Care,Dentist,"187 Finney Lane, Heald Green, Cheadle",SK8 3PX,01614372029,,Stockport,E08000007,-2.234085,53.369887
Glodwick Dental Centre,Dentist,"12 Abbey Hills Road, Oldham",OL8 2BS,01616289567,,Oldham,E08000004,-2.096442,53.533828
Bamford Dental Practice,Dentist,"Norden Road, Bamford, Rochdale",OL11 5PT,01706527700,http://www.bamforddental.co.uk,Rochdale,E08000005,-2.206315,53.615745
Urban Dental,Dentist,"185 Langworthy Road, Salford",M6 5PW,01617374714,http://www.urbandental.co.uk,Salford,E08000006,-2.295174,53.486395
Littleton Road Dental Practice,Dentist,"311 Littleton Road, Salford",M7 3TA,01617089644,,Salford,E08000006,-2.280008,53.503968
Dental @ MediaCity,Dentist,"Blue, The Garage, Media City UK, Salford",M50 2TG,01617133655,http://www.dentalatmediacityuk.co.uk,Salford,E08000006,-2.301304,53.473283
Love-Teeth Dental Practice Ltd,Dentist,"3 Kings Road, Prestwich, Manchester",M25 0LE,01617737080,http://www.loveteethdp.co.uk,Bury,E08000002,-2.270288,53.518831
Milnrow Center OF Dental Excellence,Dentist,"107 Dale Street, Milnrow, Rochdale",OL16 3NW,01706710209,http://www.skexceldental.net,Rochdale,E08000005,-2.108328,53.608899
Fog Lane Dental Practice,Dentist,"3 Fog Lane, Manchester",M20 6AX,07849709620,,Manchester,E08000003,-2.229859,53.422298
Dental Surgery - Oldham Road,Dentist,"293 Oldham Road, Failsworth, Manchester",M35 0AS,07849709620,,Oldham,E08000004,-2.164162,53.508346
First Dental Care,Dentist,"22 Manchester Road, Denton, Manchester",M34 3LE,01613362710,http://www.firstdentalcare.co.uk,Tameside,E08000008,-2.115619,53.45635
Harmony Dental Spa,Dentist,"36 High Street, Lees, Oldham",OL4 5AQ,01.61629e+11,,Oldham,E08000004,-2.074001,53.537854
Bury Dental Practice,Dentist,"434 Manchester Road, Bury",BL9 9NS,01617644960,,Bury,E08000002,-2.297108,53.57576
Heywood Dental Practice,Dentist,"6 Manchester Street, Heywood",OL10 1DL,01706369810,,Rochdale,E08000005,-2.213445,53.591174
Waterside Dental Care,Dentist,"330 Yorkshire Street, Rochdale",OL16 2DS,01706632661,,Rochdale,E08000005,-2.145874,53.622683
Mydentist - Market Street - Shaw,Dentist,"56 Market Street, Shaw, Oldham",OL2 8NH,01706843637,http://www.mydentist.co.uk,Oldham,E08000004,-2.093915,53.577083
Jolly Medical Centre,General Practice,"72 Crescent Road, Manchester",M8 9NT,01617409864,,Manchester,E08000003,-2.240026,53.512118
Werneth Medical Practice,General Practice,"76A Windsor Road, Oldham",OL8 4AL,01616205677,,Oldham,E08000004,-2.126938,53.53497
G T Bennett,Dentist,"38 Durnford Street, Middleton, Manchester",M24 5UD,01616434932,,Rochdale,E08000005,-2.198084,53.552867
Polska Przychodnia,Dentist,"482-484 Liverpool Road, Eccles, Manchester",M30 7HZ,08442092149,,Salford,E08000006,-2.364765,53.478949
Bury Dental Centre,Dentist,"Brook House, 10a Wash Lane, Bury",BL9 6AS,01617611909,,Bury,E08000002,-2.286407,53.596461
Crown Clinic Limited,General Practice,"Ground Floor, Global House, Bailey Lane, Manchester Airport, Manchester",M90 4AB,01614374333,http://www.crownclinic.co.uk,Manchester,E08000003,-2.273202,53.371565
Springfield Medical Centre,General Practice,"384 Liverpool Road, Eccles, Manchester",M30 8QD,01618712450,http://www.springfiled-Medical-centre.co.uk,Salford,E08000006,-2.362019,53.480252
Springfield Surgery,General Practice,"24-28 Commercial Road, Hazel Grove, Stockport",SK7 4AA,01614265252,,Stockport,E08000007,-2.122229,53.382377
Woodley Village Surgery,General Practice,"Hyde Road, Woodley, Stockport",SK6 1ND,01614269494,http://www.woodleyvillagesurgery.co.uk,Stockport,E08000007,-2.0996610000000002,53.426289
The Pike Practice,General Practice,"Market Place, Mossley, Ashton Under Lyne",OL5 0HE,01457832861,,Tameside,E08000008,-2.045643,53.517861
Bury Smile Line,Dentist,"83 Bolton Street, Ramsbottom, Bury",BL0 9HY,01706822138,,Bury,E08000002,-2.318648,53.646274
National Unplanned Pregnancy Advisory Service Manchester,General Practice,"32 Lever Street, Manchester",M1 1DE,01612281887,http://www.nupas.co.uk,Manchester,E08000003,-2.233215,53.482811
Avenue Dental Surgery,Dentist,"4 The Avenue, Leigh",WN7 1ES,01942676336,,Wigan,E08000010,-2.517786,53.499354
Heyside Dental Practice Partnership,Dentist,"84 Heyside, Royton, Oldham",OL2 6LS,01706849392,,Oldham,E08000004,-2.101689,53.564141
Precision Dental Clinic,Dentist,"284 Adswood Road, Stockport",SK3 8PN,0161419928,,Stockport,E08000007,-2.169912,53.389481
Salford Dental Practice,Dentist,"483 Liverpool Street, Salford",M6 5QQ,01617457972,,Salford,E08000006,-2.296843,53.483785
"Bupa - Wilbraham Road, Chorlton-cum-Hardy",Dentist,"513 Wilbraham Road, Manchester",M21 0UF,01618813599,,Manchester,E08000003,-2.271518,53.442318
Withington Dental Care,Dentist,"240 Mauldeth Road West, Withington, Manchester",M20 1BE,01614456000,,Manchester,E08000003,-2.242872,53.440205
The Tooth Place,Dentist,"63-65 Yorkshire Street, Oldham",OL1 3SL,01616521205,,Oldham,E08000004,-2.109064,53.542376
The Dental Practice,Dentist,"135 Wilbraham Road, Manchester",M14 7DS,01612247621,http://www.thedentalpracticefallowfield.com,Manchester,E08000003,-2.233932,53.443431
Turret Orthodontics Practice,Dentist,"258 Washway road, Sale",M33 4RZ,01619733501,,Trafford,E08000009,-2.335899,53.416537
Bolton Road Dental Centre,Dentist,"1 Bolton Road, Bolton",BL4 8DB,,,Bolton,E08000001,-2.388475,53.544353
Worsley Dental Centre,Dentist,"383 Worsley Road, Swinton, Manchester",M27 0EJ,,,Salford,E08000006,-2.360769,53.503482
John Street Medical Practice,General Practice,"1 John Street, Oldham",OL8 1DF,,,Oldham,E08000004,-2.120101,53.540188
The Village Medical Practice,General Practice,"High Street, Shaw, Oldham",OL2 8ST,,,Oldham,E08000004,-2.095994,53.574817
Marple Dental Practice,Dentist,"48A Stockport Road, Marple, Stockport",SK6 6AB,01614271366,,Stockport,E08000007,-2.064638,53.394852
New Cross Dental Surgery,Dentist,"50-52 Oldham Road, Ancoat, Manchester",M4 5EE,01612360458,,Manchester,E08000003,-2.230292,53.485684
300 Great Western Street,Dentist,"300 Great Western Street, Rusholme, Manchester",M14 4LP,01612262548,,Manchester,E08000003,-2.234152,53.456051
Spire Manchester Hospital,General Practice,"170 Barlow Moor Road, West Didsbury, Manchester",M20 2AF,,,Manchester,E08000003,-2.235069,53.414888
Hilton House Medical,General Practice,"Hilton House, Irwell Street, Bury",BL9 0HZ,03339000150,,Bury,E08000002,-2.302129,53.593394
32 Whites,Dentist,"100-102 Church Lane, Marple, Stockport",SK6 7AR,,,Stockport,E08000007,-2.064335,53.39275
32 Whites - Church Lane,Dentist,"100-102 Church Lane, Marple, Stockport",SK6 7AR,,,Stockport,E08000007,-2.064335,53.39275
P & J  Noble Dental Practice,Dentist,"146 Chew Valley Road, Greenfield, Oldham",OL3 7DD,,,Oldham,E08000004,-2.00272,53.534057
Barrington Dental Care,Dentist,"23A Barrington Road, Altrincham",WA14 1HP,,,Trafford,E08000009,-2.348577,53.391872
Jackson's Dental Care,Dentist,"244 Huddersfield Road, Oldham",OL4 2RB,01616274914,,Oldham,E08000004,-2.08404,53.548121
KS Dental,Dentist,"55 Flixton Road, Urmston, Manchester",M41 5AN,01617484473,,Trafford,E08000009,-2.358598,53.44803
Dr S Hafiz's Dental Surgery,Dentist,"194 Oldham Road, Ashton Under Lyne",OL7 9AW,01613395426,,Tameside,E08000008,-2.101164,53.495014
Kissdental Flixton,Dentist,"157 Woodsend Road, Flixton, Manchester",M41 8GN,01617485250,http://www.kissdental.co.uk,Trafford,E08000009,-2.393504,53.455039
Kissdental Altrincham,Dentist,"2 New Street, Altrincham",WA14 2QS,01619281628,http://www.kissdental.co.uk,Trafford,E08000009,-2.354115,53.385292
Kissdental Manchester,Dentist,"13 Stanley Street, Manchester",M8 8SH,01618329477,http://www.kissdental.co.uk,Manchester,E08000003,-2.236925,53.494631
Westleigh Medical Centre,General Practice,"4-12 Westleigh Lane, Leigh",WN7 5JE,01942483960,http://www.westleighmedicalcentre.co.uk,Wigan,E08000010,-2.526024,53.510851
Griffin Dental Partnership LTD,Dentist,"1-3 Great Cheetham Street West, Salford",M7 2JB,07738839339,,Salford,E08000006,-2.268749,53.499698
Heaton Moor Dental,Dentist,"32 Heaton Moor Road, Stockport",SK4 4NX,07946582290,,Stockport,E08000007,-2.180393,53.424819
Staly Dental,Dentist,"2 Waterloo Road, Stalybridge",SK15 2AU,,,Tameside,E08000008,-2.059094,53.484668
"Bupa - Kenworthy Street, Stalybridge",Dentist,"1 Kenworthy Street, Stalybridge",SK15 2DX,01613038767,,Tameside,E08000008,-2.056601,53.479026
Timperley Village Dental Practice,Dentist,"273 Stockport Road, Timperley, Altrincham",WA15 7SP,01619803485,,Trafford,E08000009,-2.323207,53.395555
Kenworthy Street Partnership,Dentist,"1 Kenworthy Street, Stalybridge",SK15 2DX,01613038767,,Tameside,E08000008,-2.056601,53.479026
Pikes Lane Centre,General Practice,"Deane Road, Bolton",BL3 5HP,,,Bolton,E08000001,-2.446348,53.572728
Simon Taylor Dental Practice,Dentist,"89 Bolton Road, Salford",M6 7HN,01617362493,,Salford,E08000006,-2.297326,53.49465
AMS Clinic Manchester,General Practice,"Dr Bokhari and Partners (Cheetham Hill Medical Centre), 244 Cheetham Hill Road, Manchester",M8 8UP,,,Manchester,E08000003,-2.23526,53.501162
Stonemount Dental Surgery,Dentist,"35 Victoria Avenue, Manchester",M9 6RA,01617959000,,Manchester,E08000003,-2.210347,53.532793
Wong Dental Surgery,Dentist,"35 Victoria Avenue, Manchester",M9 6RA,01617959000,,Manchester,E08000003,-2.210347,53.532793
Parkside Dental Care,Dentist,"610 Liverpool Road, Irlam, Manchester",M44 5AA,01617778606,,Salford,E08000006,-2.429227,53.437334
The Private Clinic Limited - Manchester,General Practice,"25 St John Street, Manchester",M3 4DT,01618339393,,Manchester,E08000003,-2.251916,53.477731
Nicol Dental Practice,Dentist,"Turncroft Lane, Stockport",SK1 4AB,01614803822,,Stockport,E08000007,-2.146163,53.408974
Ocean Dental Manchester,Dentist,"32 Market Street, Boots, 2nd Floor, Manchester",M1 1PW,01616600200,http://www.odental.co.uk,Manchester,E08000003,-2.24239,53.482496
The Village Medical Centre,General Practice,"Peel Street, Littleborough",OL15 8AQ,01706370666,http://www.villagemclittleborough.nhs.uk,Rochdale,E08000005,-2.097994,53.642757
Cherry Medical Practice,General Practice,"Little Hulton Health Centre, Haysbrook Avenue, Worsley, Manchester",M28 0AY,01612125380,,Salford,E08000006,-2.423902,53.529872
Brinnington Dental Practice,Dentist,"Brinnington Health Centre, Brinnington Road, Stockport",SK5 8BS,01614946445,,Stockport,E08000007,-2.132367,53.427651
Dr Davis's Medical Practice,General Practice,"1st Floor Newbury Place Health Centre, 55 Rigby Street, Salford",M7 4NX,01612125050,,Salford,E08000006,-2.260516,53.507103
Manor Dental Practice,Dentist,"216 Washway Road, Sale",M33 4RA,01619733501,,Trafford,E08000009,-2.332836,53.419231
The Hospital Group-Abbey Pines,General Practice,"192 Altrincham Road, Manchester",M22 4RZ,,,Manchester,E08000003,-2.252758,53.393866
The Hospital Group-Colwyn Chambers,General Practice,"5th Floor, Colwyn Chambers, 19 York Street, Manchester",M2 3BA,,,Manchester,E08000003,-2.239954,53.480659
Andrew Shelley and Simon Pope Dental Practice,Dentist,"117 Stockport Road, Denton, Manchester",M34 6DH,01613204230,,Tameside,E08000008,-2.111906,53.453019
MF Dental Littleborough,Dentist,"60-62 Church Street, Littleborough",OL15 8AU,01706370058,http://www.mfdental.co.uk,Rochdale,E08000005,-2.097829,53.643656
MF Dental Littleborough,Dentist,"60 -62 Church Street, Littleborough",OL15 8AU,01706370058,http://www.mfdental.co.uk,Rochdale,E08000005,-2.097829,53.643656
Trafford Health Centre,General Practice,"Moorside Road, Davyhulme, Manchester",M41 5SL,01617474978,http://www.mastercall.org.uk,Trafford,E08000009,-2.370681,53.45406
Church Street Dental Care,Dentist,"69 Church Street, Littleborough",OL15 8AB,01706379672,,Rochdale,E08000005,-2.097239,53.643468
Town Hall Surgery,General Practice,"112 King Street, Dukinfield",SK16 4LD,01613302125,,Tameside,E08000008,-2.092973,53.478374
York Street Dental Care,Dentist,"27 York Street, Heywood",OL10 4NN,01706360176,,Rochdale,E08000005,-2.217672,53.593638
Westpoint Dental Centre,Dentist,"160 Slade Lane, Manchester",M19 2AQ,,,Manchester,E08000003,-2.198071,53.446633
518 Dental,Dentist,"518 Bury Road, Rochdale",OL11 4DQ,01706527127,,Rochdale,E08000005,-2.188326,53.612662
Dental Surgery,Dentist,"272 St Helens Road, Bolton",BL3 3PZ,0120461935,,Bolton,E08000001,-2.454998,53.561244
Maypole Dental & Implant Clinic,Dentist,"20 Middleton Road, Royton, Oldham",OL2 5PA,01616272184,,Oldham,E08000004,-2.122559,53.565004
Kirkholt Medical Practice,General Practice,"Queens Drive, Rochdale",OL11 2NP,01706261813,,Rochdale,E08000005,-2.162243,53.59832
Birtle View Medical Practice,General Practice,"George Street, Heywood",OL10 4PW,01706261823,,Rochdale,E08000005,-2.2277,53.595186
The Kingsway Practice,General Practice,"285A Kingsway, Rochdale",OL16 4AT,01706261866,,Rochdale,E08000005,-2.135588,53.612168
Cornerstone Surgery,General Practice,"469-471 Chorley Old Road, Bolton",BL1 6AH,01204325125,,Bolton,E08000001,-2.457402,53.588155
DHS Dental Practice - Langley Clinic,Dentist,"Langley Clinic, Borrowdale Road, Middleton",M24 5QG,01616551334,,Rochdale,E08000005,-2.211846,53.558048
Deansgate Dental Practice,Dentist,"3 Deansgate, Radcliffe, Manchester",M26 2SH,01617258090,,Bury,E08000002,-2.324757,53.559581
Swinton Gateway,General Practice,"Swinton Gateway, 100 Chorley Road, Swinton, Manchester",M27 6BP,01612124231,,Salford,E08000006,-2.342204,53.512236
Cheadle Smile Centre,Dentist,"145A Councillor Lane, Cheadle",SK8 2JE,01614287226,,Stockport,E08000007,-2.194159,53.391081
The Dental Practice,Dentist,"757 Blackburn Road, Sharples, Bolton",BL1 7JJ,01204306010,,Bolton,E08000001,-2.431654,53.606757
Diet UK Bolton,General Practice,"Newlands Centre, 315 Chorley New Road, Bolton",BL1 5BP,01204493975,,Bolton,E08000001,-2.46548,53.579477
Claremont Dental Surgery,Dentist,"11 Claremont Road, Sale",M33 7DZ,01619690434,,Trafford,E08000009,-2.321359,53.425646
Meridian Dental Clinic,Dentist,"4 The Packet House, Barton Road, Worsley, Manchester",M28 2PB,07399839083,,Salford,E08000006,-2.381317,53.499895
Viaduct Care CIC,General Practice,"4th Floor, Stopford House, Stockport",SK1 3XE,01612044675,,Stockport,E08000007,-2.158487,53.405974
Newbury Green Medical Practice,General Practice,"Newbury Place Health Centre, 55 Rigby Street, Salford",M7 4NX,01612125050,,Salford,E08000006,-2.260516,53.507103
Cheadle Dental Centre,Dentist,"12 Gatley Road, Cheadle",SK8 1PY,01612825921,,Stockport,E08000007,-2.219116,53.393446
Ravat & Ray Dental Care [Farnworth],Dentist,"Brackley House, Brackley Street, Farnworth, Bolton",BL4 9ES,012045731000,,Bolton,E08000001,-2.397074,53.54706
Highfield Dental Practice Limited,Dentist,"Brackley House, Brackley Street, Farnworth, Bolton",BL4 9ES,01204705363,,Bolton,E08000001,-2.397074,53.54706
The Birches Medical Centre,General Practice,"Polefield Road, Prestwich, Manchester",M25 2GN,01617733037,,Bury,E08000002,-2.271091,53.538361
Manchester,General Practice,"66-68 Bridge Street, Manchester",M3 2RJ,01618322134,,Manchester,E08000003,-2.248589,53.480785
Slag Lane Medical Centre,General Practice,"216 Slag Lane, Lowton, Warrington",WA3 2EZ,01942715200,,Wigan,E08000010,-2.575634,53.478569
John A Gibb and Associates Dental Practice,Dentist,"66 Church Street, Heywood",OL10 1LJ,01706364200,,Rochdale,E08000005,-2.216382,53.592508
Droylsden Road Family Practice,General Practice,"125 Droylsden Road, Manchester",M40 1NT,01612412723,,Manchester,E08000003,-2.175662,53.499916
Fletcher Fosbrook Dental Surgery,Dentist,"42 Market Street, Heywood",OL10 4LY,01706624677,,Rochdale,E08000005,-2.22251,53.593829
M20 Dental,Dentist,"150-152 Burton Road, Manchester",M20 1LH,07771537908,,Manchester,E08000003,-2.241957,53.427658
Hawkley Brook Medical Practice,General Practice,"Chandler House, Poolstock Lane, Wigan",WN3 5HL,01942481400,http://www.hawkleybrookmedicalpractice.nhs.uk,Wigan,E08000010,-2.643772,53.529393
The Dental Team,Dentist,"858 Chester Road, Stretford, Manchester",M32 0QJ,07969333461,,Trafford,E08000009,-2.297611,53.455685
"Ashton Primary Care Centre, Dental Department",Dentist,"193 Old Street, Ashton Under Lyne",OL6 7SR,01616220987,,Tameside,E08000008,-2.099981,53.485827
Five Oaks Family Practice,General Practice,"Oak House, 47 Graham Street, Manchester",M11 3BB,01612303035,http://www.fiveoaksfamilypractice.co.uk,Manchester,E08000003,-2.19447,53.47569
Whitley Road Medical Centre,General Practice,"1 Whitley Road, Manchester",M40 7QH,01612654407,,Manchester,E08000003,-2.2227,53.49493
Dr Samuel Levenson,General Practice,"Newbury Place Health Centre, 55 Rigby Street, Salford",M7 4NX,01612125050,http://www.limefieldmedicalcentre.co.uk,Salford,E08000006,-2.260516,53.507103
Windermere Road Surgery,General Practice,"109-111 Windermere Road, Middleton, Manchester",M24 5WF,01616676609,,Rochdale,E08000005,-2.205709,53.55956
Deane Dental Practice,Dentist,"Unit 6a, The Vibe, Broughton Lane, Salford",M7 1US,01614782980,,Salford,E08000006,-2.261598,53.496316
West Gorton Medical Centre,General Practice,"2 Clowes Street, Manchester",M12 5JE,01612235226,http://www.westgortonmedicalcentre.co.uk,Manchester,E08000003,-2.203859,53.467205
Durnford Medical Centre,General Practice,"113 Long Street, Middleton, Manchester",M24 6DL,01616538673,,Rochdale,E08000005,-2.197033,53.554038
Ashworth Street Surgery,General Practice,"85 Spotland Road, Rochdale",OL12 6RT,01616538673,,Rochdale,E08000005,-2.165652,53.619565
Phoenix Centre,General Practice,"Pine Street, Heywood",OL10 1DT,01616538673,,Rochdale,E08000005,-2.2183,53.591868
Portway Dental Practice,Dentist,"40 Portway, Manchester",M22 1UB,01614372382,,Manchester,E08000003,-2.276472,53.37996
Parkfield Dental Practice,Dentist,"637 Wilmslow Road, Manchester",M20 6DF,01614452397,http://www.parkfield-dental.co.uk,Manchester,E08000003,-2.232053,53.421881
Longfield Lodge Dental,Dentist,"276 Liverpool Road, Cadishead, Manchester",M44 5DX,01617752211,,Salford,E08000006,-2.442294,53.42152
Showmans the Dentist,Dentist,"36 Queens Walk, The Precinct, Droylsden, Manchester",M43 7AD,01613707213,,Tameside,E08000008,-2.14606,53.480045
Dentistry@442 Limited,Dentist,"442 Birch Road, Wardle, Rochdale",OL12 9LH,01706372088,,Rochdale,E08000005,-2.132203,53.645681
Woodlands Medical Practice,General Practice,"9 Maple Road, Brooklands, Manchester",M23 9RL,01619621332,,Manchester,E08000003,-2.31213,53.406624
Birchfields Family Dental Care,Dentist,"Longsight, Manchester",M13 0XQ,01612249813,,Manchester,E08000003,-2.209253,53.451738
Pearldent Dental Surgery,Dentist,"442 Buxton Road, Stockport",SK2 7JB,01614833408,,Stockport,E08000007,-2.130402,53.385685
New Bank Health Centre,General Practice,"339 Stockport Road, Manchester",M12 4JE,01612775600,,Manchester,E08000003,-2.204384,53.460123
Victoria Mill Medical Practice,General Practice,"Victoria Mill, 10 Lower Vickers Street, Manchester",M40 7LH,01612654407,,Manchester,E08000003,-2.214292,53.489633
Charlestown Medical Practice,General Practice,"Charlestown Road, Manchester",M9 7ED,,,Manchester,E08000003,-2.186902,53.52264
Maple Road Dental Practice,Dentist,"11 Maple Road, Manchester",M23 9HN,01619730565,,Manchester,E08000003,-2.309653,53.407303
BARDOC - Moorgate Primary Care Centre,General Practice,"22 Derby Way, Bury",BL9 0NJ,01617634242,http://www.bardoc.co.uk,Bury,E08000002,-2.288591,53.59553
BARDOC - Phoenix Centre,General Practice,"Pine Street, Heywood",OL10 1DT,01617634242,http://www.bardoc.co.uk,Rochdale,E08000005,-2.2183,53.591868
BARDOC - Rochdale UCC,General Practice,"Whitehall Street, Rochdale",OL12 0NB,01617634242,http://www.bardoc.co.uk,Rochdale,E08000005,-2.160152,53.624282
Brooklands Dental Surgery,Dentist,"203 Marsland Road, Sale",M33 3ND,01619620066,,Trafford,E08000009,-2.320468,53.417325
Archway Dental Practice,Dentist,"21 Radnor Street, Hulme, Manchester",M15 5RD,01612328403,,Manchester,E08000003,-2.246495,53.460251
Heart Networks UK Limited,General Practice,"299 Alan Turing Way, Manchester",M11 3BS,07951725356,,Manchester,E08000003,-2.191764,53.477301
SimplyOne Dental,Dentist,"36 Queens Walk, Droylsden, Manchester",M43 7AD,01613707213,,Tameside,E08000008,-2.14606,53.480045
Limelight Health and Well-being Hub,General Practice,"Limelight, 1-3 St Brides Way, Manchester",M16 9NW,01612267777,,Trafford,E08000009,-2.261969,53.461412
Manchester Private Hospital,General Practice,"New Court, Regents Place, 2 Windsor Street, Salford",M5 4HB,01615078822,http://www.manchesterprivatehospital.co.uk,Salford,E08000006,-2.278563,53.479002
Parkhill Healthcare Medical and Dental Surgery,Dentist,"501 Crompton Way, Bolton",BL1 8UP,01204770600,,Bolton,E08000001,-2.415226,53.597486
Manchester St Anns Square,Dentist,"14 St Anns Square, Manchester",M2 7HQ,01618342627,,Manchester,E08000003,-2.245837,53.482236
Parsonage Dental Practice,Dentist,"1B Parsonage Street, Hulme, Manchester",M15 5WD,01612277570,,Manchester,E08000003,-2.251229,53.460942
Park Dental Practice,Dentist,"191 Bury Old Road, Prestwich, Manchester",M25 1JF,07988163461,,Bury,E08000002,-2.266414,53.529183
K.L.M. Dental,Dentist,"Croft Shifa Health Centre, Belfield Road, Rochdale",OL16 2UP,07594170746,,Rochdale,E08000005,-2.14084,53.622824
West Gorton Medical Centre,General Practice,"2 Clowes Street, Manchester",M12 5JE,0161223522,,Manchester,E08000003,-2.203859,53.467205
Mile Lane Dental Practice,Dentist,"Mile Lane Health Centre, 80 Mile Lane, Bury",BL8 2JR,01617617550,http://www.milelanedentalpractice.co.uk,Bury,E08000002,-2.335248,53.587814
Pemberton Surgery,General Practice,"Sherwood Drive, Wigan",WN5 9QX,01942367199,,Wigan,E08000010,-2.669697,53.538479
Ashton Medical Centre,General Practice,"120 Wigan Road, Ashton In Makerfield, Wigan",WN4 9SU,01942727325,,Wigan,E08000010,-2.642855,53.494792
Shevington Surgery,General Practice,"1 Houghton Lane, Shevington, Wigan",WN6 8ET,01942483777,,Wigan,E08000010,-2.69942,53.574041
Pennygate Medical Practice,General Practice,"109 Ladies Lane, Hindley, Wigan",WN2 2QG,01942807500,,Wigan,E08000010,-2.576271,53.540002
Intrahealth Tyldesley,General Practice,"Tyldesley Health Centre, Poplar Street, Tyldesley, Manchester",M29 8AX,01942481680,,Wigan,E08000010,-2.468999,53.516715
Bridgewater Medical Centre,General Practice,"Bridgewater Medical Centre, Henry Street, Leigh",WN7 2PE,01942481851,,Wigan,E08000010,-2.511927,53.493519
Christopher Home,General Practice,"Wigan Lane, Wigan",WN1 2NN,01942244000,,Wigan,E08000010,-2.629091,53.55774
MYA Clinics Limited (Manchester),General Practice,"262 Deansgate, Manchester",M3 4BG,01612144790,,Manchester,E08000003,-2.250062,53.477735
The Bodyline Clinic Limited Stockport,General Practice,"Heaton House, Heaton Lane, Stockport",SK4 1AQ,08454918750,http://www.bodylineclinic.com,Stockport,E08000007,-2.165284,53.40973
The Bodyline Clinic Limited Openshaw,General Practice,"Unit 1, 1119 Ashton Old Road, Manchester",M11 1AA,08454918750,http://www.bodylineclinic.com,Manchester,E08000003,-2.172284,53.473765
The Jolly Medical Centre,General Practice,"74 Crescent Road, Manchester",M8 9NT,01617409864,,Manchester,E08000003,-2.240026,53.512118
Horwich Dental Practice,Dentist,"19-21 Winter Hey Lane, Horwich, Bolton",BL6 7AD,01204468210,,Bolton,E08000001,-2.547054,53.599391
Dr I Saleem and Colleagues,Dentist,"566 Stockport Road, Longsight, Manchester",M12 4JJ,01612256944,,Manchester,E08000003,-2.200799,53.456858
Middleton Dental Centre,Dentist,"302 Grimshaw Lane, Middleton, Manchester",M24 2XL,01616537870,,Rochdale,E08000005,-2.176185,53.542502
Winstanley Medical Centre,General Practice,"Holmes House Avenue, Wigan",WN3 6JN,01942483213,,Wigan,E08000010,-2.668958,53.521291
Baguley Clinic,General Practice,"Baguley Clinic, Hall Lane, Manchester",M23 1NA,0161438168,,Manchester,E08000003,-2.279746,53.393094
Longsight Medical Practice,General Practice,"526-528 Stockport Road, Manchester",M13 0RR,01612564488,http://www.longsightmedicalpractice.com,Manchester,E08000003,-2.201887,53.457584
City Centre Dentist,Dentist,"3rd Floor, 20 St Anns Square, Manchester",M2 7HG,01618341643,,Manchester,E08000003,-2.246198,53.48219
CuRx Operational Base,General Practice,"The Mezzanine, Junction 21 Business Park, Gorse Street, Chadderton, Oldham",OL9 9QH,07716090301,,Oldham,E08000004,-2.15726,53.53024
Re-Enhance Limited,Dentist,"Progress House, 17 Cecil Road, Hale, Altrincham",WA15 9NZ,01619299530,,Trafford,E08000009,-2.346183,53.376688
Tranquil TMS Limited,General Practice,"G10 - 5300 Lakeside, Cheadle Royal Business Park, Cheadle",SK8 3GP,07935835625,,Stockport,E08000007,-2.223648,53.380206
Advanced Skin Limited,General Practice,"Lumiere Building, 38 City Road East, Manchester",M15 4QN,07921850589,,Manchester,E08000003,-2.249879,53.472108
Manchester Dental Practice,Dentist,"34 High Street, Manchester",M4 1QB,01618330704,,Manchester,E08000003,-2.238969,53.482789
City Centre Dentist,Dentist,"3rd Floor, 20 St Anns Square, Manchester",M2 7HG,01618341643,,Manchester,E08000003,-2.246198,53.48219
Walkden Gateway,General Practice,"Walkden Gateway, 2 Smith Street, Worsley, Manchester",M28 3EZ,01617932500,http://www.salford.gov.uk/walkdengateway,Salford,E08000006,-2.398541,53.524898
Newbury Place Medical & Retail Centre,General Practice,"55 Rigby Street, Salford",M7 4NX,01612125050,http://www.higherbroughtonpartnership.co.uk/index.php/the-master-plan/newbury-place-medical-retail-centre/,Salford,E08000006,-2.260516,53.507103
Pendleton Gateway,General Practice,"1 Broad Walk, Pendleton, Salford",M6 5FX,,,Salford,E08000006,-2.284742,53.488361
dental.care@62,Dentist,"62 Market Street, Marple, Stockport",SK6 7AD,01612210062,http://www.dentalcare62.com,Stockport,E08000007,-2.0639,53.393685
Denton Orthodontic Centre Limited,Dentist,"1 Walker Street, Denton, Manchester",M34 3LH,01613364075,http://www.dentonorthodontics.co.uk,Tameside,E08000008,-2.114989,53.457025
Winstanley Medical Centre,General Practice,"Holmes House Avenue, Wigan",WN3 6JN,,,Wigan,E08000010,-2.668958,53.521291
Gidlow Dental Surgery,Dentist,"328 Gidlow Lane, Wigan",WN6 7PJ,01942824167,,Wigan,E08000010,-2.64478,53.557009
Elmfield Surgery,General Practice,"Omerod House, Ahterton Health Centre, Nelson Street, Atherton, Manchester",M46 0LE,01942481080,http://www.sevenbrooksmedicalcentre.nhs.uk,Wigan,E08000010,-2.500811,53.527489
Irlam Clinic,General Practice,"125 Liverpool Road, Irlam, Manchester",M44 6DP,01617750000,,Salford,E08000006,-2.417074,53.449107
The Robert Darbishire Practice,General Practice,"Rusholme Health Centre, Walmer Street, Rusholme, Manchester",M14 5NP,0161225669,http://www.rdp.org.uk,Manchester,E08000003,-2.226162,53.454635
Cornerstone Medical Practice,General Practice,"Langworthy Centre, 451 Liverpool Street, Salford",M6 5QQ,01612124445,http://www.salfordcarecentres.co.uk,Salford,E08000006,-2.296843,53.483785
RK Medical Practice,General Practice,"Brownley Green Health Centre, 171 Brownley Road, Manchester",M22 9UH,01614939493,,Manchester,E08000003,-2.255632,53.386597
Dr Kamal Gupta,General Practice,"Bridgewater Medical Centre,, Henry Street,, Leigh",WN7 2PE,01942481815,http://www.drkgupta.co.uk,Wigan,E08000010,-2.511927,53.493519
Dr Rajesh Saraf,General Practice,"Moorside Medical Centre, 681 Ripponden Road, Oldham",OL1 4JU,01619098388,,Oldham,E08000004,-2.076954,53.561455
Yorkshire Street Surgery,General Practice,"188 Yorkshire Street, Rochdale",OL16 2DN,07747473574,,Rochdale,E08000005,-2.152215,53.620446
Dr Kiren Kaur,General Practice,"Moorside Medical Centre, 681 Ripponden Road, Oldham",OL1 4JU,01613448150,http://www.doctorsatmoorside.co.uk,Oldham,E08000004,-2.076954,53.561455
Victoria Dental & Healthcare,Dentist,"109 Corporation Street, Manchester",M4 4DX,01618324153,,Manchester,E08000003,-2.23974,53.488227
Dr Mohammad Khan,General Practice,"152a Manchester Road East, Little Hulton, Manchester",M38 9LQ,01617993233,,Salford,E08000006,-2.409599,53.526659
Dr Suvajit Chatterjee,General Practice,"32 Brinnington Road, Vernon Park, Stockport",SK1 2EX,01614265484,http://www.vernonparksurgery.co.uk,Stockport,E08000007,-2.142795,53.418398
Dr Christina Mary Greenhough,General Practice,"187 Manchester Road, Mossley, Ashton Under Lyne",OL5 9AB,01457833315,http://www.mossleymedicalpractice.co.uk,Tameside,E08000008,-2.04063,53.51405
Dr Nasima Sidda,General Practice,"Watersmeeting Health Center, Waters Meeting Road, Bolton",BL1 8TT,01204462966,,Bolton,E08000001,-2.431389,53.595818
Dr Laurence Howard Sherman,General Practice,"Greyland Medical Centre, 468 Bury Old Road, Prestwich, Manchester",M25 1NL,01617987850,,Bury,E08000002,-2.276308,53.537702
Eye and Dental Clinic,Dentist,"110 Ainsworth Road, Bury",BL8 2RS,01612225730,,Bury,E08000002,-2.318773,53.592667
Dr John Danson,General Practice,"Featherstall Road South, Oldham",OL9 7AY,01614841484,http://www.dansonfamilypractice.co.uk,Oldham,E08000004,-2.130534,53.53731
Dr Afzal Hussain,General Practice,"110 Walmersley Road, Bury",BL9 6DX,01617646100,,Bury,E08000002,-2.289512,53.599735
Dr Samir Sadik,General Practice,"1 Dunkerley Street, Ashton Under Lyne",OL7 9EJ,01613307087,,Tameside,E08000008,-2.103916,53.498778
SimplyOne Dental Droylsden,Dentist,"36 Queens Walk, Droylsden, Manchester",M43 7AD,07050013222,http://www.simplyonedental.com,Tameside,E08000008,-2.14606,53.480045
Mrs Elaine Evans,General Practice,"The Bridgewater Medical Centre, Henry Street, Leigh",WN7 2PE,01942481800,,Wigan,E08000010,-2.511927,53.493519
The Chowdhury Practice,General Practice,"New Radcliffe Street, Oldham",OL1 1NL,01616213535,,Oldham,E08000004,-2.116945,53.543824
Skinny Revolution Ltd,General Practice,"307 Hale Road, Hale Barns, Altrincham",WA15 8SS,01619804237,http://www.skinnyrevolution.co.uk,Trafford,E08000009,-2.313707,53.369479
Dr Syed Rizvi,General Practice,"274 Barlow Moor Road, Chorlton-cum-Hardy, Manchester",M21 8HA,01618812297,,Manchester,E08000003,-2.268652,53.43186
Merseybank Practice,General Practice,"36 Mersey Bank Avenue, Chorton, Manchester",M21 7NN,01614455559,,Manchester,E08000003,-2.263012,53.42276
Dr Anita Sharma,General Practice,"Chadderton South Health Centre, Eaves Lane, Chadderton, Oldham",OL9 8RG,01616521876,http://www.southchaddertonhealthcentre.co.uk,Oldham,E08000004,-2.15145,53.533368
Pennine MSK Partnership Limited,General Practice,"Integrated Care Centre, New Radcliffe Street, Oldham",OL1 1NL,0161621383,http://www.pmsk.org,Oldham,E08000004,-2.116945,53.543824
Rochdale Road Medical Centre,General Practice,"48a Rochdale Road, Middleton, Manchester",M24 2PU,01616439131,,Rochdale,E08000005,-2.195702,53.556772
Dr Sonal Sharma,General Practice,"2nd Floor Croft Shifa Health Centre, Rochdale",OL16 2UY,01706752703,http://www.inspiremedical.co.uk,Rochdale,E08000005,-2.138254,53.622746
Dr Joann Amin,General Practice,"The Willows, Lords Avenue, Salford, Salford",M5 5JR,01617362356,http://www.thewillowssurgery.co.uk,Salford,E08000006,-2.309137,53.485461
Salford Health Matters CIC,General Practice,"Willow Tree Healthy Living Centre, 94 Littleton Road, Salford",M7 3SE,01612125818,,Salford,E08000006,-2.278113,53.502274
Salford Health Matters Homeless Service,General Practice,"Windsor Christian Centre, Churchill Way, Salford",M6 5BU,01612125818,,Salford,E08000006,-2.284531,53.486008
Salford Health Matters Little Hulton,General Practice,"Haysbrook Avenue, Worsley, Manchester",M28 0AY,01612125818,,Salford,E08000006,-2.423902,53.529872
Donneybrook Medical Centre,General Practice,"Clarendon Street, Hyde",SK14 2AH,01613683838,http://www.donneybrookmediclacentre.nhs.uk,Tameside,E08000008,-2.080237,53.452631
Dr Richard Clare,General Practice,"The Surgery, 12 Derbyshire Road South, Sale",M33 3JP,01619733499,http://www.drclaresurgery.co.uk,Trafford,E08000009,-2.310144,53.416957
Dr Sally Johnston,General Practice,"34 Riddings Road, Timperley, Altrincham",WA15 6BP,01619629662,,Trafford,E08000009,-2.331291,53.404424
The KSL Clinic Ltd Manchester,General Practice,"Unit 3, Waters Edge Business Park, Modwen Road, Salford",M5 3EZ,01622686101,http://www.kslhair.com,Salford,E08000006,-2.2768640000000002,53.467986
Dr Rachel Tomalin,General Practice,"20 Meyer Street, Cale Green, Stockport",SK3 8JE,01614802882,http://www.calegreensurgery.co.uk,Stockport,E08000007,-2.158364,53.397148
Dr Salam J Farhan,General Practice,"Partington Health Centre, Central Road, Partington, Manchester",M31 4FY,01617757032,,Trafford,E08000009,-2.425016,53.416781
Gloucester House Medical Centre,General Practice,"17 Station Road, Urmston, Manchester",M41 9JS,01617487115,http://www.ghmc.co.uk,Trafford,E08000009,-2.352599,53.447337
Dr Chandra Khatri,General Practice,"The Surgery, High Street, Tyldesley, Manchester",M29 8AL,01942882950,,Wigan,E08000010,-2.469683,53.514626
The Park Medical Centre,General Practice,"434 Altrincham Road, Baguley, Manchester",M23 9AB,01614381680,,Manchester,E08000003,-2.28807,53.40104
Bodey Medical Centre,General Practice,"Ladybarn Court, 28 Ladybarn Lane, Manchester",M14 6WP,01614381680,,Manchester,E08000003,-2.214798,53.440636
Townside Surgery - Dr Cooke,General Practice,"Townside Primary Care Centre, Knowsley Place, 1 Knowsley Place, Knowsley Street, Bury",BL9 0SN,01617621600,,Bury,E08000002,-2.29898,53.59031
Dr Anoop Sahal,General Practice,"94 Navigation Road, Altrincham",WA14 1LL,01619299300,,Trafford,E08000009,-2.346055,53.396194
Dr Masud Prodhan,General Practice,"Seymour Grove Health Centre, Manchester",M16 0LW,01618487563,http://www.oldtraffordsurgery.co.uk,Trafford,E08000009,-2.275745,53.458074
Dr Syed Shah,General Practice,"145 Elliott Street, Tyldesley, Manchester",M29 8FL,01942892727,,Wigan,E08000010,-2.469211,53.514151
Dr Ugo Umeadi,General Practice,"131 Cleggs Lane, Little Hulton, Manchester",M38 9RS,01617994001,http://www.cleggslanepractice.nhs.uk,Salford,E08000006,-2.419336,53.534939
South Manchester Diagnostics,General Practice,"144a Dialstone Lane, Stockport",SK2 6AP,,,Stockport,E08000007,-2.134435,53.396485
Everest Pharmacy,General Practice,"117b, Withington Road, Manchester",M16 8EE,,,Manchester,E08000003,-2.257066,53.452309
Ailsa Craig Medical Centre,General Practice,"Ailsa Craig Medical Group, 270 Dickenson Road, Longsight, Manchester",M13 0YL,01612245555,http://www.ailsacraigmedicalpractice.co.uk,Manchester,E08000003,-2.208542,53.454175
Ashton-in-Makerfield,Dentist,"19 Wigan Road, Ashton-in-Makerfield, Wigan",WN4 9AR,01942271827,,Wigan,E08000010,-2.637556,53.488211
Leela Ltd,General Practice,"The Strand, Rochdale",OL11 2JG,01706861616,,Rochdale,E08000005,-2.156245,53.593988
Dr Chidananda Barua,General Practice,"Frederick Street, Farnworth, Bolton",BL4 9AH,01204463100,http://www.ehealthservice.co.uk/bolton/Dr-Barua,Bolton,E08000001,-2.397759,53.546123
Woodbank Surgery,General Practice,"2 Hunstanton Drive, Brandlesholme, Bury",BL8 1EG,01617051630,,Bury,E08000002,-2.308802,53.60507
KS Dental Care Limited,Dentist,"331 Washway Road, Sale",M33 4EE,01619732753,,Trafford,E08000009,-2.337966,53.413385
Shakespeare Surgery,General Practice,"Chandler House, Worsley Mesnes Health Centre, Poolstock Lane, Wigan",WN3 5HL,01942481531,http://www.shakespearesurgery.co.uk,Wigan,E08000010,-2.643772,53.529393
Dr Mahendra Patel,General Practice,"Shay Lane, Hale Barns, Altrincham",WA15 8NZ,01619802656,http://www.shaylanemedical.com,Trafford,E08000009,-2.31556,53.372189
Edenfield Dental Care,Dentist,"386 Edenfield Road, Rochdale",OL12 7NH,01706644301,,Rochdale,E08000005,-2.188087,53.622956
Ashton GP Service,General Practice,"Ashton Primary Care Centre, 193 Old Street, Ashton Under Lyne",OL6 7SR,01613427050,,Tameside,E08000008,-2.099981,53.485827
City Health Centre,General Practice,"32 Market Street, Manchester",M1 1PL,01618396227,,Manchester,E08000003,-2.242815,53.482927
Droylsden Medical Practice,General Practice,"1-3 Albion Drive, Droylsden, Manchester",M43 7NP,01613427777,,Tameside,E08000008,-2.145664,53.487166
Guide Bridge Medical Practice,General Practice,"Guide Lane Clinic, Guide Lane, Audenshaw, Manchester",M34 5HY,01613442609,,Tameside,E08000008,-2.113281,53.471588
Lindley Medical Practice,General Practice,"Integrated Care Centre, New Radcliffe Street, Oldham",OL1 1NL,01617857520,,Oldham,E08000004,-2.116945,53.543824
Millbrook Medical Practice,General Practice,"Hollybank, Off Grove Road, Stalybridge",SK15 3BJ,01613042470,,Tameside,E08000008,-2.034281,53.492265
Simpson Medical Practice,General Practice,"361 Moston Lane, Manchester",M40 9NB,01612035550,,Manchester,E08000003,-2.198039,53.514029
Hale Dental Clinic,Dentist,"163a Ashley Road, Hale, Altrincham",WA15 9SD,08456046448,,Trafford,E08000009,-2.346371,53.377613
Rock Healthcare Limited,General Practice,"Moorgate Primary Care Centre, 22 Derby Way, Bury",BL9 0NJ,01614479820,http://www.rockhealthcare.co.uk,Bury,E08000002,-2.288591,53.59553
Lime Square Medical Centre,General Practice,"Lime Square, Ashton Old Road, Manchester",M11 1DA,01613710678,,Manchester,E08000003,-2.164901,53.473649
Dr Krishnakant Buch,General Practice,"Lower Broughton Health Centre, Great Clowes Street, Salford",M7 1RD,01612126525,http://www.1lowerbroughtonhealthcentre.co.uk,Salford,E08000006,-2.258808,53.49359
Dr Mahadeva Selvarajan,General Practice,"Deane Clinic One Stop Health Centre, Horsfield Street, Bolton",BL3 4LU,0120464089,http://www.deaneclinic.co.uk,Bolton,E08000001,-2.464537,53.567885
S Ward Dental Practice,Dentist,"Stamford Road, Mossley, Ashton-under-lyne",OL5 0BA,01618338444,,Tameside,E08000008,-2.042293,53.516163
IMI Manchester,Dentist,"13 Stanley Street, Manchester",M8 8SH,01134408770,,Manchester,E08000003,-2.236925,53.494631
Everything Skin Clinic,General Practice,"Ground Suite B, Hawbank House, 2 High Street, Cheadle",SK8 1AL,01615091294,,Stockport,E08000007,-2.214418,53.395137
Orchard Medical Centre,General Practice,"10 Leigh Road, Boothstown, Manchester",M28 1LZ,01617028579,http://www.orchard-medicalcentre.co.uk,Salford,E08000006,-2.420948,53.502916
Dr Samir Naseef,General Practice,"216 Wigan Road, Deane, Bolton",BL3 5QE,01204462198,http://www.drnaseef.nhs.net,Bolton,E08000001,-2.460819,53.568942
Brookdale Surgery,General Practice,"202 Droylsden Road, Manchester",M40 1NZ,0161681426,,Manchester,E08000003,-2.174181,53.499199
Dr Hany Azmy,General Practice,"The Surgery, 30 Brinnington Road, Brinnington, Stockport",SK1 2EX,01614804164,,Stockport,E08000007,-2.142795,53.418398
AlldayDr Group Ltd,General Practice,"77-79 Church Street, Blackrod, Bolton",BL6 5EE,02080166020,,Bolton,E08000001,-2.584822,53.594359
Veincentre Manchester (St Anne Street),General Practice,"4th Floor National House, 36 St. Anne Street, Manchester",M2 7LE,01782753960,http://www.veincentre.com,Manchester,E08000003,-2.245007,53.481547
Peel Hall Medical Practice,General Practice,"Forum Health, Simonsway, Wythenshawe, Manchester",M22 5RX,01613751000,http://www.peelhallmedicalpractice.co.uk,Manchester,E08000003,-2.265017,53.379925
Dr Brian Perkins,General Practice,"Integrated Care Centre, New Radcliffe Street, Oldham",OL1 1NL,01616213888,,Oldham,E08000004,-2.116945,53.543824
Knowsley Dental,Dentist,"37 Knowsley Street, Bury",BL9 0ST,01617641089,,Bury,E08000002,-2.300551,53.588497
Dr Syed Shahbazi,General Practice,"Kidglove House, Kidglove Road, Golborne",WA3 3GS,01942481638,http://www.familymedical.gpsurgery.net,Wigan,E08000010,-2.595495,53.47988
Dr Geeta Gupta,General Practice,"South Reddish Medical Centre, Reddish Road, South Reddish, Stockport",SK5 7QU,01614269191,http://www.southreddishmedicalcentre.co.uk,Stockport,E08000007,-2.156517,53.422309
Dr George Duru,General Practice,"Integrated Care Centre, New Radcliffe Street, Oldham",OL1 1NL,01616213636,,Oldham,E08000004,-2.116945,53.543824
Romiley Dental Practice,Dentist,"91 Compstall Road, Romiley, Stockport",SK6 4HT,,,Stockport,E08000007,-2.079925,53.414826
The Robert Darbishire Practice,General Practice,"Rusholme Health Centre, Walmer Street, Rusholme, Manchester",M14 5NP,01612256699,,Manchester,E08000003,-2.226162,53.454635
The Whitswood Practice,General Practice,"Alexandra Park Health Centre, 2 Whitswood Close, Manchester",M16 7AP,01612263620,,Manchester,E08000003,-2.253502,53.455769
Dr R Anderson and Dr M Ahmed,General Practice,"239 Mosley Common Road, Worsley, Manchester",M28 1BZ,08444773276,http://www.boothstownmedicalcentre.co.uk,Salford,E08000006,-2.422973,53.50477
Dr Raina Patel,General Practice,"The Romiley Health Centre, Chichester Road, Romiley, Stockport",SK6 4QR,01614265242,http://www.guywoodpractice.co.uk,Stockport,E08000007,-2.08993,53.414998
Dental Surgery,Dentist,"155 Kenyon Lane, Moston, Manchester",M40 9DJ,01617887757,,Manchester,E08000003,-2.193737,53.510277
Dr Zuber Ahmed,General Practice,"Sun Valley Medical Practice, 137 Glodwick Road, Oldham",OL4 1YN,01616229230,,Oldham,E08000004,-2.095095,53.537786
Ashton Smile Clinic,Dentist,"16 The Gerard Centre, Gerard Street, Ashton-in-makerfield, Wigan",WN4 9AN,,,Wigan,E08000010,-2.636639,53.486373
Dr Saira Zaman,General Practice,"Chandler House, Worsley Mesnes Health Centre, Poolstock Lane, Wigan",WN3 5HL,01942481423,http://www.wigangrangepractice.nhs.uk,Wigan,E08000010,-2.643772,53.529393
Conran Medical Centre,General Practice,"77 Church Lane, Harpurhey, Manchester",M9 5BH,01612052714,,Manchester,E08000003,-2.210659,53.510547
Push Dr Limited,General Practice,"First Floor, Arkwright House, Parsonage Gardens, Manchester",M3 2LF,0330808470,,Manchester,E08000003,-2.248957,53.482328
Fallowfield Medical Centre,General Practice,"75 Ladybarn Lane, Fallowfield, Manchester",M14 6YL,01612244503,,Manchester,E08000003,-2.21351,53.438823
Smilestylist - House of Fraser Manchester,Dentist,"98-116 Deansgate, Manchester",M3 2QG,07989356786,http://www.smilestylist.co.uk,Manchester,E08000003,-2.247346,53.482217
Dr Devang Shah,General Practice,"169 Grove Lane, Timperley, Altrincham",WA15 6PH,01619039302,http://www.grovemed.co.uk,Trafford,E08000009,-2.323566,53.397228
Burton Road Dental,Dentist,"148a Burton Road, Manchester",M20 1LH,01614457311,,Manchester,E08000003,-2.241957,53.427658
Leesbrook Surgery,General Practice,"Mellor Street, Lees, Oldham",OL4 3DG,01616214800,http://www.leesbrooksurgery.com,Oldham,E08000004,-2.07266,53.53879
Swan Lane Medical Centre,General Practice,"Swan Lane, Bolton",BL3 6TL,01204661600,http://www.swanlanemedicalcentre.nhs.uk,Bolton,E08000001,-2.442391,53.566945
Radcliffe Medical Practice,General Practice,"Radcliffe Primary Care Centre, 69 Church Street West, Radcliffe, Manchester",M26 2SP,01617242062,http://www.radcliffemp.nhs.uk,Bury,E08000002,-2.323706,53.560143
Timperley Health Centre - Westwood,General Practice,"169 Grove Lane, Timperley, Altrincham",WA15 6PH,01619803751,,Trafford,E08000009,-2.323566,53.397228
Staveleigh Medical Centre,General Practice,"King Street, Stalybridge",SK15 2AE,01613048009,,Tameside,E08000008,-2.058251,53.484571
Deane Medical Centre,General Practice,"155-157 Deane Road, Bolton",BL3 5AH,01204525526,http://www.deanemedicalcentre.co.uk,Bolton,E08000001,-2.441983,53.572699
The Mazhari and Khan Practice,General Practice,"Clayton Health Centre, 89 North Road, Clayton, Manchester",M11 4EJ,01612231658,,Manchester,E08000003,-2.184157,53.484308
Whittaker Lane Medical Centre,General Practice,"Daisy Bank, Whittaker Lane, Prestwich, Manchester",M25 1EX,01617731580,http://www.wlmc.co.uk,Bury,E08000002,-2.268645,53.528488
Failsworth Group Practice,General Practice,"Failsworth District Centre, Ashton Road West, Failsworth, Manchester",M35 0AD,01616826297,,Oldham,E08000004,-2.156747,53.509855
New Moston Dental Centre,Dentist,"209-211 Moston Lane East, Manchester",M40 3HY,01616812483,http://www.newmostondental.com,Manchester,E08000003,-2.167759,53.521994
Smiles Better,Dentist,"243 Bury New Road, Whitefield, Manchester",M45 8QP,01617962404,http://www.theuksmilecentre.co.uk,Bury,E08000002,-2.296823,53.55231
Pall Mall Medical,General Practice,"61a King Street, Manchester",M2 4PD,01618322111,http://www.pallmallmedical.co.uk,Manchester,E08000003,-2.242879,53.481057
The Limes Medical Practice,General Practice,"8-12 Hodge Road, Worsley, Manchester",M28 3AT,01617908621,,Salford,E08000006,-2.397527,53.522942
Medlock Medical Practice  Dr Hossain & Dr Chauhan,General Practice,"Failsworth District Centre, Ashton Road West, Failsworth, Manchester",M35 0AD,01616811401,,Oldham,E08000004,-2.156747,53.509855
Ellenbrook Medical Practice,General Practice,"14 Morston Close, Worsley, Manchester",M28 1PB,01617039091,http://www.ellenbrooksurgery.co.uk,Salford,E08000006,-2.413552,53.511185
Longford Street Medical Centre,General Practice,"Longford Street, Heywood",OL10 4NH,01706621417,,Rochdale,E08000005,-2.218524,53.594259
Middleton Health Centre,General Practice,"Unit F1, Middleton Shopping Centre, Limetrees Road, Middleton, Manchester",M24 4EL,01616557434,http://www.middletonhealthcentre.org.uk/,Rochdale,E08000005,-2.201051,53.548242
Hawthorn Medical Centre,General Practice,"Unit K, Fallowfield Retail Park, Birchfields Road, Manchester",M14 6FS,01612206080,http://www.hawthornmedicalcentre.org,Manchester,E08000003,-2.204544,53.443216
Middleton Bank Dental,Dentist,"1 Long Street, Middleton, Manchester",M24 6TE,07770629573,,Rochdale,E08000005,-2.198281,53.550142
Kirby - Crompton Health Centre,General Practice,"Crompton Health Centre, 501 Crompton Way, Bolton",BL1 8UP,01204463111,http://www.drkirbyandpartners.co.uk,Bolton,E08000001,-2.415226,53.597486
M Russell Dental Practice,Dentist,"329 Wellington Road North, Stockport",SK4 4QG,01614324768,,Stockport,E08000007,-2.178678,53.428964
The Uplands Medical Practice,General Practice,"Bury New Road, Whitefield, Manchester",M45 8GH,01617668221,http://www.theuplandsmp.nhs.uk,Bury,E08000002,-2.295815,53.548583
Stonehill Medical Centre,General Practice,"Piggott Street, Farnworth, Bolton",BL4 9QZ,01204573445,http://www.ehealthservice.co.uk/bolton/stonehill,Bolton,E08000001,-2.402444,53.543635
St George's Medical Centre,General Practice,"St Georges Drive, Moston, Manchester",M40 5HP,01618703449,,Manchester,E08000003,-2.189031,53.509666
Dr Ahmad and Partners,General Practice,"Platt Bridge Health Centre, Rivington Avenue, Platt Bridge, Wigan",WN2 5NG,01942482330,,Wigan,E08000010,-2.595925,53.522279
St Andrews Medical Practice 2,General Practice,"30 Russell Street, Eccles, Manchester",M30 0NU,01617075500,http://www.standrewsmc.co.uk,Salford,E08000006,-2.339619,53.484875
The Village Surgery,General Practice,"169 Grove Lane, Timperley, Altrincham",WA15 6PH,01619039010,,Trafford,E08000009,-2.323566,53.397228
Hattersley Group Practice,General Practice,"Hattersley Health Centre, Hattersley Road East, Hattersley, Hyde",SK14 3EH,01613684161,,Tameside,E08000008,-2.027426,53.450228
St Andrews Medical Practice 4,General Practice,"30 Russell Street, Eccles, Manchester",M30 0NU,01617075500,,Salford,E08000006,-2.339619,53.484875
Wilmslow Road Surgery,General Practice,"Wilmslow Road Medical Centre, 156 Wilmslow Road, Rusholme, Manchester",M14 5LQ,01612242452,,Manchester,E08000003,-2.222822,53.452153
Premier Health Team,General Practice,"The Bridgewater Medical Centre, Henry Street, Leigh",WN7 2PE,01942481851,http://www.premierhealthteam.org,Wigan,E08000010,-2.511927,53.493519
Dr Maung and Partners,General Practice,"Leigh Health Centre, The Avenue, Leigh",WN7 1HR,01942483488,http://www.grameresurgery.co.uk,Wigan,E08000010,-2.511455,53.503236
Clarendon Surgery,General Practice,"Pendleton Gateway, 1 The Broadwalk, Salford",M6 5FX,01612117373,,Salford,E08000006,-2.284742,53.488361
Ribblesdale Dr Britton & Partners,General Practice,"Townside Primary Care Centre, Knowsley Place, 1 Knowsley Place, Knowsley Street, Bury",BL9 0SN,01617621650,http://www.ribblesdalemc.nhs.uk,Bury,E08000002,-2.29898,53.59031
Block Lane Surgery,General Practice,"The Surgery, 158 Block Lane, Chadderton, Oldham",OL9 7SG,01616202321,http://www.blocklanesurgery.co.uk,Oldham,E08000004,-2.139039,53.535037
Littletown Family Medical Practice,General Practice,"53 Manchester Road, Oldham",OL8 4LR,01616245457,http://www.littletownfamilymedical.nhs.uk,Oldham,E08000004,-2.134298,53.529137
Ashville Surgery,General Practice,"171 Upper Chorlton Road, Whalley Range, Manchester",M16 9RT,01618814293,http://www.ashvillesurgery.nhs.uk,Manchester,E08000003,-2.268044,53.452519
Medlock Vale Medical Practice,General Practice,"58 Ashton Road, Droylsden, Manchester",M43 7BW,01613701610,,Tameside,E08000008,-2.142502,53.479062
Sullivan Way Surgery,General Practice,"Sullivan Way, Scholes, Wigan",WN1 3TB,01942243649,http://www.sullivanwaysurgery.co.uk,Wigan,E08000010,-2.622534,53.549154
Sharma and Partners,General Practice,"Medicentre, 185 Wigan Road, Ashton-in-Makerfield, Wigan",WN4 9SL,01942483754,http://www.themedicentre.co.uk,Wigan,E08000010,-2.643055,53.494018
Lever Chambers 2,General Practice,"Lever Chambers Centre for Health,, Ashburner Street,, Bolton",BL1 1SQ,01204462660,,Bolton,E08000001,-2.431198,53.576864
Castleton Health Centre,General Practice,"2 Elizabeth Street, Castleton, Rochdale",OL11 3HY,01706658905,http://www.castletonhealthcentre.co.uk,Rochdale,E08000005,-2.18229,53.597034
Ashcroft Surgery,General Practice,"803 Stockport Road, Levenshulme, Manchester",M19 3BS,01612241329,,Manchester,E08000003,-2.19117,53.445449000000004
Dental Surgery,Dentist,"Dental Surgery, 71 Sandy Lane, Prestwich, Manchester",M25 9PS,01617732762,,Bury,E08000002,-2.288298,53.523642
Argyle Street Medical Centre,General Practice,"141 Argyle Street, Heywood",OL10 3SD,01706366135,http://www.argylestreetmedicalcentre.co.uk,Rochdale,E08000005,-2.239335,53.58737
Walkden Gateway,General Practice,"2 Smith street,Walkden, Manchester",M28 3EZ,01612117175,,Salford,E08000006,-2.398541,53.524898
Salford Medical Centre 1,General Practice,"Salford Medical Centre(1), 194-198 Langworthy Road, Salford",M6 5PP,01617361166,http://www.salfordmedicalcentre.nhs.uk,Salford,E08000006,-2.294577,53.487206
Dearden Avenue Medical Practice,General Practice,"1A Dearden Avenue, Little Hulton, Manchester",M38 9GH,01612126262,,Salford,E08000006,-2.418615,53.533827
GTD Healthcare Head Office,General Practice,"New Century House, Progress Way, Denton, Manchester",M34 2GP,0161337346,http://gtdhealthcare.co.uk/,Tameside,E08000008,-2.134034,53.450605
"Dr Patel, Kamath and Partners",General Practice,"Longshoot Health Centre, Scholes, Wigan",WN1 3NH,08443878500,http://www.longshootmedicalpractice.nhs.uk,Wigan,E08000010,-2.620127,53.54967
Donald Wilde Medical Centre,General Practice,"283 Rochdale Road, Oldham",OL1 2HG,01616523184,http://www.donaldwildemedicalcentre.nhs.uk,Oldham,E08000004,-2.120459,53.549464
Marus Bridge Practice,General Practice,"Chandler House, Worsley Mesnes Health Centre, Poolstock Lane, Wigan",WN3 5HL,01942481500,http://www.marusbridgepractice.nhs.uk,Wigan,E08000010,-2.643772,53.529393
Shay Lane Medical Centre - Kelman,General Practice,"Shay Lane, Hale Barns, Altrincham",WA15 8NZ,01619803835,http://www.shaylane.org,Trafford,E08000009,-2.31556,53.372189
Garden City Medical Centre,General Practice,"1a Garden City, Holcombe Brook, Bury",BL0 9TN,01204884710,,Bury,E08000002,-2.330377,53.629515
Mandalay Medical Centre,General Practice,"933 Blackburn Road, Bolton",BL1 7LR,08444771751,http://www.ehealthservice.co.uk/bolton/mandalay,Bolton,E08000001,-2.432116,53.610567
Bodey Medical Centre,General Practice,"28 Ladybarn Lane, Fallowfield, Manchester",M14 6WP,01612486644,http://www.bodey.co.uk,Manchester,E08000003,-2.214798,53.440636
Princess Road Surgery,General Practice,"471-475 Princess Road, Withington, Manchester",M20 1BH,01614457805,,Manchester,E08000003,-2.243625,53.440374
HT Practice,General Practice,"Ashton Primary Care Centre, 193 Old Street, Ashton-Under-Lyne",OL6 7SR,01613427200,http://www.htpractice.co.uk,Tameside,E08000008,-2.099981,53.485827
Park View Group Practice,General Practice,"2 Longford Road West, Reddish, Stockport",SK5 6ET,01614269500,http://www.parkviewgrouppractice.co.uk,Stockport,E08000007,-2.160577,53.445476
"Drs Adab, Chavdarov, Chen, Chew-Graham, Hill, Ratcliffe and Siebert",General Practice,"Chorlton Health Centre, 1 Nicolas Road, Chorlton-cum-Hardy, Manchester",M21 9NJ,01618814545,http://www.drschenanddavis.co.uk,Manchester,E08000003,-2.279717,53.443773
Hopwood Medical Centre,General Practice,"1-3 Walton Street, Hopwood, Heywood",OL10 2BS,01706369886,,Rochdale,E08000005,-2.212052,53.587143
Valentine Medical Centre,General Practice,"2 Smethurst Street, Blackley, Manchester",M9 8PP,01612415480,http://www.valentinemedicalcentre.co.uk,Manchester,E08000003,-2.213082,53.515702
Mount Road Surgery,General Practice,"110 Mount Road, Gorton, Manchester",M18 7BQ,01612314997,http://www.mountroadsurgery.co.uk,Manchester,E08000003,-2.1814,53.45981
Longfield Medical Practice,General Practice,"Prestwich Health Centre, Fairfax Road, Prestwich, Manchester",M25 1BT,01617730494,,Bury,E08000002,-2.28357,53.533828
Irlam Group Practice,General Practice,"523 Liverpool Road, Irlam, Manchester",M44 6ZS,01617761000,http://www.irlamgrouppractice.nhs.uk,Salford,E08000006,-2.426415,53.439142
Bramhall Park Medical Centre,General Practice,"235 Bramhall Lane South, Bramhall, Stockport",SK7 3EP,01612044221,http://www.bramhallparkmedicalcentre.co.uk,Stockport,E08000007,-2.162344,53.376037
The Gill Medical Centre,General Practice,"5 Harriet Street, Worsley, Manchester",M28 3DR,01617903033,http://www.thegillmedicalcentre.co.uk,Salford,E08000006,-2.398384,53.524288
Ashworth Street Surgery,General Practice,"85 Spotland Road, Rochdale",OL12 6RT,01706346767,http://www.ashworthstreetsurgeryrochdale.co.uk,Rochdale,E08000005,-2.165652,53.619565
Lower Broughton Medical Practice 3,General Practice,"Lower Broughton Health Centre, Great Clowes Street, Salford",M7 1RD,01612126520,,Salford,E08000006,-2.258808,53.49359
The Energise Healthy Living Centre,General Practice,"3 Douglas Green, Salford",M6 6ES,01613515050,,Salford,E08000006,-2.283601,53.497848
Hazeldene Medical Centre,General Practice,"97 Moston Lane East, New Moston, Manchester",M40 3HD,01612418039,http://www.hazeldenemanchester.nhs.uk,Manchester,E08000003,-2.161372,53.516187
Woodlands Medical Practice,General Practice,"Chadderton Town Health Centre, Chadderton, Oldham",OL9 0LH,01619098131,http://www.woodlandsmedicalpractice.com,Oldham,E08000004,-2.142182,53.545559
Heaton Moor Medical Group,General Practice,"32 Heaton Moor Road, Heaton Moor, Stockport",SK4 4NX,01614320671,http://www.hmmc.info,Stockport,E08000007,-2.180393,53.424819
Cornerstone Family Practice,General Practice,"Cornerstone Centre, Graham Street, Beswick, Manchester",M11 3AA,01612230637,http://www.cornerstonefamilypractice.co.uk,Manchester,E08000003,-2.195097,53.474422
Urban Village Medical Practice,General Practice,"Old Mill Street, Manchester",M4 6EE,01612725656,http://www.uvmp.co.uk,Manchester,E08000003,-2.219472,53.4829
Cheetham Hill Primary Care Centre,General Practice,"244 Cheetham Hill Road, Manchester",M8 8UP,01612776939,http://www.cheethamhillmedicalcentre.co.uk,Manchester,E08000003,-2.23526,53.501162
Dr Seabrook & partners,General Practice,"Cheadle Hulme Health Centre, Smithy Green, Hulme Hall Road, Cheadle",SK8 6LU,01614265300,http://www.cheadlehulmeandbridgehouse.nhs.uk,Stockport,E08000007,-2.191357,53.366475
Awburn House Medical Practice,General Practice,"Mottram Moor, Mottram, Hyde",SK14 6LA,01457763263,,Tameside,E08000008,-2.011,53.458105
Dr M B Ghafoor and Dr S A Abbasi,General Practice,"1st Floor, Nye Bevan House, Maclure Road, Rochdale",OL11 1DN,01706261999,,Rochdale,E08000005,-2.154239,53.611617
Durnford Medical Centre,General Practice,"113 Long Street, Middleton, Manchester",M24 6DL,01616432011,http://www.durnfordmc.nhs.net,Rochdale,E08000005,-2.197033,53.554038
Bradford Street Surgery,General Practice,"65 Bradford Street, Haulgh, Bolton",BL2 1HT,01204521061,http://www.thesurgerybradfordstreet.nhs.uk,Bolton,E08000001,-2.418225,53.576838
Milnrow Village Practice,General Practice,"44-48 Newhey Road, Milnrow, Rochdale",OL16 4EG,01706641409,http://www.milnrowvillagepractice.co.uk,Rochdale,E08000005,-2.106343,53.606608
Lockside Medical Centre,General Practice,"85 Huddersfield Road, Stalybridge",SK15 2PT,01613037200,http://www.locksidemedical.co.uk,Tameside,E08000008,-2.046286,53.484945
Al-Shifa Medical Centre,General Practice,"4-6 Copson Street, Withington, Manchester",M20 3HE,01614342753,,Manchester,E08000003,-2.229695,53.433705
Lowton Surgery,General Practice,"208c, Newton Road, Lowton, Warrington",WA3 2AQ,01942605135,,Wigan,E08000010,-2.561051,53.471942
Lower Broughton Medical Practice 4,General Practice,"Lower Broughton Health Centre, Great Clowes Street, Salford",M7 1RD,01618392730,,Salford,E08000006,-2.258808,53.49359
Woodside Medical Centre,General Practice,"247J Wood Street, Langley Estate, Middleton, Manchester",M24 5QL,01616439244,,Rochdale,E08000005,-2.213286,53.556347
Oldham Medical Services,General Practice,"Langham House, 368 Ashton Road, Oldham",OL8 3HF,01616244716,http://www.oldhammedicalservices.co.uk,Oldham,E08000004,-2.111235,53.525357
Park Medical Practice,General Practice,"119 Park Road, Timperley, Altrincham",WA15 6QQ,01619733485,,Trafford,E08000009,-2.327843,53.401899
Whitefield Orthodontic Clinic,Dentist,"Orthodontic Practice, 208 Bury New Road, Whitefield, Manchester",M45 6GG,01617661366,,Bury,E08000002,-2.294282,53.549146
Brooklands Medical Practice,General Practice,"594 Altrincham Road, Wythenshawe, Manchester",M23 9JH,01619983818,http://www.brooklandsmedicalpractice.co.uk,Manchester,E08000003,-2.304253,53.400982
Stamford House Medical Centre,General Practice,"2 Princess Street, Ashton Under Lyne",OL6 9QH,01613440803,http://www.stamfordhousemedicalcentre.co.uk,Tameside,E08000008,-2.078642,53.493647
Dukinfield Medical Practice,General Practice,"20-22 Concord Way, Dukinfield",SK16 4DB,01613436382,http://www.dukinfieldmedicalpractice.co.uk,Tameside,E08000008,-2.083416,53.476538
Dr Vasanth and Partners,General Practice,"Atherton Health Centre, Atherton, Manchester",M46 0LE,01942481040,,Wigan,E08000010,-2.500811,53.527489
Silverdale Medical Practice,General Practice,"Pendlebury Health Centre, 659 Bolton Road, Pendlebury, Manchester",M27 8HP,01612126565,http://www.pendleburyhealthcentre.co.uk,Salford,E08000006,-2.331475,53.518793
Bee Fold Medical Centre,General Practice,"25 Bee Fold Lane, Atherton, Manchester",M46 0BD,01942510468,,Wigan,E08000010,-2.499759,53.521372
Ashton Medical Group,General Practice,"GP Surgery, Glebe Street, Ashton Under Lyne",OL6 6HD,01613309880,,Tameside,E08000008,-2.089184,53.489361
Beech House Medical Practice,General Practice,"Beech Avenue,, Hazel Grove,, Stockport",SK7 4QR,01614836222,http://www.beechhousesurgery.co.uk,Stockport,E08000007,-2.118146,53.379406
Lever Chambers 1,General Practice,"Lever Chambers Centre for Health,, Ashburner Street,, Bolton",BL1 1SQ,01204462630,http://www.boltondoctors.co.uk,Bolton,E08000001,-2.431198,53.576864
Dr Wong and Partners,General Practice,"Old Henry Street Medical Centre, Henry Street, Leigh",WN7 2PG,01942605506,http://www.oldhenrystreet.co.uk,Wigan,E08000010,-2.51155,53.494815
Dr D. Pal & Dr M. Pal,General Practice,"Golborne Health Centre, Kidglove Road, Golborne, Warrington",WA3 3GS,01942481620,,Wigan,E08000010,-2.595495,53.47988
Mark Street Surgery,General Practice,"2 Mark Street, Rochdale",OL12 9BE,01706643183,http://www.markstreetsurgery.co.uk,Rochdale,E08000005,-2.144639,53.62423
The Maples Medical Centre,General Practice,"2 Scout Drive, Newall Green, Manchester",M23 2SY,01614988484,http://www.themaplesmc.co.uk,Manchester,E08000003,-2.286712,53.384846
Saddleworth Medical Practice,General Practice,"Smithy Lane, Uppermill, Oldham",OL3 6AH,01457872228,http://www.saddleworthmedicalpractice.com,Oldham,E08000004,-2.004957,53.548331
Blackford House Medical Centre,General Practice,"137 Croft Lane, Hollins, Bury",BL9 8QA,01617666622,http://www.blackfordhmc.co.uk,Bury,E08000002,-2.283325,53.574266
Deansgate Dental Practice,Dentist,"3-5 Deansgate, Manchester",M26 2SH,01617258090,http://www.deansgatedental.com,Bury,E08000002,-2.324757,53.559581
Monarch Medical Centre,General Practice,"65 Cross Lane, Radcliffe, Manchester",M26 2QZ,01617230123,http://www.monarchmc.nhs.uk,Bury,E08000002,-2.316823,53.564198
Oak Gables Medical Practice,General Practice,"The Oak Gables Partnership, Crompton Health Centre, High Street, Shaw, Oldham",OL2 8ST,01706888222,http://www.theoakgablespartnership.co.uk,Oldham,E08000004,-2.095994,53.574817
The Sides Medical Practice,General Practice,"The Sides Medical Centre, Moorside Road, Swinton, Manchester",M27 0EW,01617941604,http://www.sidesmedicalcentre.co.uk,Salford,E08000006,-2.354331,53.505442
Wilbraham Surgery,General Practice,"515 Wilbraham Road, Chorlton-Cum-Hardy, Manchester",M21 0UF,01618816120,,Manchester,E08000003,-2.271518,53.442318
Delamere Medical Practice,General Practice,"Delamere Avenue, Stretford, Manchester",M32 0DF,01618640200,http://www.delameremedicalcentre.co.uk,Trafford,E08000009,-2.307365,53.450887
Al-Fal Medical Group - Pikes Lane Health Centre,General Practice,"The Pikes Lane Centre, Deane Road, Bolton",BL3 5HP,01204463330,,Bolton,E08000001,-2.446348,53.572728
Whitley Road Medical Centre,General Practice,"1 Whitley Road, Collyhurst, Manchester",M40 7QH,01612054407,,Manchester,E08000003,-2.2227,53.49493
Haughton Thornley Medical Centres,General Practice,"Thornley House Medical Centre, Thornley Street, Hyde",SK14 1JY,01613677910,http://www.htmc.co.uk,Tameside,E08000008,-2.076116,53.446746
Stockport Medical Group,General Practice,"1-3 Avondale Road, Edgeley, Stockport",SK3 9NX,01614265333,http://www.stockportmedicalgroup.nhs.uk,Stockport,E08000007,-2.177788,53.402873
St Gabriel's Medical Centre,General Practice,"4 Bishops Road, Prestwich, Manchester",M25 0HT,01617731791,,Bury,E08000002,-2.265791,53.520809
Conway Road Medical Practice,General Practice,"Conway Road Health Centre, 80a Conway Road, Sale",M33 2TB,01619731151,http://www.conwayroadsurgery.co.uk,Trafford,E08000009,-2.303561,53.417873
Wellfield Medical Centre,General Practice,"55 Crescent Road, Crumpsall, Manchester",M8 9JT,01617402213,http://www.wellfieldmedicalcentre.com,Manchester,E08000003,-2.242019,53.512545
Dr I K Babar & Partners,General Practice,"The Croft Shifa Health Centre, Floor 2, Belfield Road, Rochdale",OL16 2UP,01706261883,http://www.croftshifahealthcentre.co.uk,Rochdale,E08000005,-2.14084,53.622824
Quayside Medical Practice,General Practice,"Failsworth District Centre, Ashton Road West, Failsworth, Manchester",M35 0AD,01616811818,http://www.quaysidemedicalpractice.co.uk,Oldham,E08000004,-2.156747,53.509855
The Singh Medical Practice,General Practice,"The Harpurhey Health Centre, 1 Church Lane, Harpurhey, Manchester",M9 4BE,01618612408,,Manchester,E08000003,-2.213622,53.512042
Heaton Mersey Medical Practice,General Practice,"460 Didsbury Road, Heaton Mersey, Stockport",SK4 3BT,01614269400,http://www.heatonmerseymedicalpractice.co.uk,Stockport,E08000007,-2.205118,53.412519
Partington Family Practice,General Practice,"Partington Health Centre, Central Road, Partington, Manchester",M31 4FY,01617757033,http://www.drdeweeverandpartners.co.uk,Trafford,E08000009,-2.425016,53.416781
The Dawes Family Practice,General Practice,"83 Spotland Road, Rochdale",OL12 6RX,01706644040,http://www.dawesfp.gpsurgery.net,Rochdale,E08000005,-2.165423,53.619474
Barlow Medical Centre,General Practice,"828 Wilmslow Road, Didsbury, Manchester",M20 2RN,01614459000,http://www.barlowmed.com,Manchester,E08000003,-2.231434,53.413163
Dr Ngan and Partners,General Practice,"The Vallance Centre, Brunswick Street, Manchester",M13 9UJ,01612741500,,Manchester,E08000003,-2.224542,53.469786
Adswood Road Surgery,General Practice,"270 Adswood Road, Adswood, Stockport",SK3 8PN,01614269770,http://www.adswoodsurgery.co.uk,Stockport,E08000007,-2.169912,53.389481
Gorton Medical Centre,General Practice,"46 Wellington Street, Gorton, Manchester",M18 8LJ,01612231113,,Manchester,E08000003,-2.171985,53.463168
Standish Medical Practice,General Practice,"49 High Street, Wigan",WN6 0HD,01257421909,http://www.standishmedicalpractice.nhs.uk,Wigan,E08000010,-2.660666,53.584568
Peterloo Medical Centre,General Practice,"133-137 Manchester Old Road, Middleton, Manchester",M24 4DZ,01616435005,http://www.peterloomc.co.uk,Rochdale,E08000005,-2.20616,53.54676
Florence House Medical Practice,General Practice,"Ashton Old Road,, Higher Openshaw,, Manchester",M11 1JG,01613702133,http://www.florencehousesurgery.co.uk,Manchester,E08000003,-2.162591,53.47268
Bradshaw Medical Partnership,General Practice,"Bradshaw Medical Centre, Bradshaw Street, Orrell, Wigan",WN5 0AB,01942483900,http://www.bradshawmedicalcentre.nhs.uk,Wigan,E08000010,-2.688594,53.537889
Shevington Surgery,General Practice,"The Surgery, Houghton Lane, Shevington, Wigan",WN6 8ET,01942483777,http://www.shevington-surgery.co.uk,Wigan,E08000010,-2.69942,53.574041
The Hive Health Centre,General Practice,"Clough Street,, Middleton,, Manchester",M24 2YJ,01616544103,http://www.thehivehealthcentre.co.uk,Rochdale,E08000005,-2.187672,53.55683
Langworthy Medical Practice,General Practice,"250 Langworthy Road, Salford",M6 5WW,01617379244,http://www.langworthymedicalpractice.co.uk,Salford,E08000006,-2.294771,53.489371
Heald Green Health Centre 1,General Practice,"Finney Lane, Heald Green, Cheadle",SK8 3JD,01614269000,http://www.drdeanandpartners.co.uk,Stockport,E08000007,-2.229276,53.369878
The Chandler Surgery,General Practice,"Chandler House, Worsley Mesnes Health Centre, Poolstock Lane, Wigan",WN3 5HL,01942481440,http://www.chandlersurgery.nhs.uk,Wigan,E08000010,-2.643772,53.529393
CH Medical,General Practice,"Fields New Road Primary Care Centre, Chadderton, Oldham",OL9 8NH,0161785924,http://www.ch-medical.co.uk,Oldham,E08000004,-2.145068,53.533205
St Chads Medical Practice,General Practice,"St Chads Centre, Lime Green Parade, Lime Green, Oldham",OL8 3HH,0161620161,http://www.stchadsmedicalpractice.co.uk,Oldham,E08000004,-2.126789,53.515222
King Street Medical Centre,General Practice,"96-98 King Street, Dukinfield",SK16 4JZ,01613301142,http://www.kingstreetmedicalcentre.co.uk,Tameside,E08000008,-2.093455,53.478589
Northern Moor Medical Practice,General Practice,"216 Wythenshawe Road, Northern Moor, Manchester",M23 0PH,01619982503,,Manchester,E08000003,-2.285109,53.408049
Firsway Health Centre,General Practice,"121 Firsway, Sale",M33 4BR,01619050310,http://www.firswayhealthcentre.co.uk,Trafford,E08000009,-2.355468,53.421289
Manor Medical Practice,General Practice,"Offerton Health Centre, 10 Offerton Lane, Offerton, Stockport",SK2 5AR,01614269166,http://www.manormedical.co.uk,Stockport,E08000007,-2.136713,53.403467
The Northenden Group Practice,General Practice,"489 Palatine Road, Northenden, Manchester",M22 4DH,01619983206,,Manchester,E08000003,-2.265032,53.406431
The Arch Medical Practice,General Practice,"175 Royce Road, Hulme, Manchester",M15 5TJ,01612260606,http://www.thearchmedicalpractice.co.uk,Manchester,E08000003,-2.249612,53.46774
Crompton View Surgery,General Practice,"Crompton Health Centre, 501 Crompton Way, Bolton",BL1 8UP,01204463090,,Bolton,E08000001,-2.415226,53.597486
Dr Hazem Lloyd,General Practice,"Cedar House, 82 Bramhall Lane, Davenport, Stockport",SK2 6JG,01614265198,,Stockport,E08000007,-2.153043,53.393784
Fairfax Group Practice,General Practice,"Prestwich Health Centre, Fairfax Road, Prestwich, Manchester",M25 1BT,01617732483,http://www.fairfaxgrouppractice.nhs.uk,Bury,E08000002,-2.28357,53.533828
Dalefield Surgery,General Practice,"Avondale Health Centre, Avondale Street, Bolton",BL1 4JP,01204462880,http://www.dalefieldsurgery.nhs.uk,Bolton,E08000001,-2.451813,53.588167
Withers & Ripley Dental Surgery,Dentist,"794 Bury Road, Breightment, Bolton",BL2 6PA,01204524046,,Bolton,E08000001,-2.385653,53.580678
Denton Medical Practice,General Practice,"100 Ashton Road, Denton, Manchester",M34 3JE,01613208788,http://www.dentonmedical.co.uk,Tameside,E08000008,-2.115509,53.45991
Walkden Medical Practice,General Practice,"2 Hodge Road, Worsley, Manchester",M28 3AT,01617025310,http://www.walkdenmedicalcentre.co.uk,Salford,E08000006,-2.397527,53.522942
Redbank Group Practice,General Practice,"Sun Suite 2nd Floor Radcliffe Primary Care Centre, 69 Church Street West,, Radcliffe",M26 3XA,01617242040,http://www.redbankgp.nhs.uk,Bury,E08000002,-2.363787,53.570535
The RLC Surgery,General Practice,"Star Suite 2nd Floor Radcliffe Primary Care Centre 69 Church Street West, Radcliffe, Manchester",M26 2SP,01617242080,http://www.therlc.co.uk,Bury,E08000002,-2.323706,53.560143
Mile Lane Surgery,General Practice,"Mile Lane Health Centre, 80 Mile Lane, Bury",BL8 2JR,01617647804,http://www.milelanehc.nhs.uk,Bury,E08000002,-2.335248,53.587814
Gatley Group Practice,General Practice,"Old Hall Road, Gatley, Cheadle",SK8 4DG,01614265100,http://www.gatleymedicalcentre.co.uk,Stockport,E08000007,-2.235344,53.393794
Dr Anis and Anis,General Practice,"Golborne Health Centre, Kidglove Road, Golborne, Warrington",WA3 3GS,01942481600,,Wigan,E08000010,-2.595495,53.47988
M Ullah,General Practice,"Platt Bridge Health Centre, Rivington Avenue, Platt Bridge, Wigan",WN2 5NG,01942482370,,Wigan,E08000010,-2.595925,53.522279
Marple Bridge Surgery,General Practice,"Town Street, Marple Bridge, Stockport",SK6 5AA,01614272049,http://www.MarpleBridgeSurgery.nhs.uk,Stockport,E08000007,-2.053323,53.400594
Leigh Family Practice,General Practice,"Bridgewater Medical Centre, Henry Street, Leigh",WN7 2PE,01942481830,http://www.ssphealth.com,Wigan,E08000010,-2.511927,53.493519
Marsh Green Medical Practice,General Practice,"Harrow Road, Marsh Green, Wigan",WN5 0QL,01942510468,http://www.ssphealth.com,Wigan,E08000010,-2.667437,53.549263
Poplar Street Surgery,General Practice,"Poplar Street, Tyldesley, Manchester",M29 8AX,01942510468,http://www.ssphealth.com,Wigan,E08000010,-2.468999,53.516715
Dr Devadeep Gupta,General Practice,"Littleborough Health Centre, Featherstall Road, Littleborough",OL15 8HF,01706374990,,Rochdale,E08000005,-2.103349,53.642995
Leigh Sports Village Practice,General Practice,"Leigh Sports Village, Sale Way, Leigh",WN7 4JY,01942510468,http://www.ssphealth.com,Wigan,E08000010,-2.531079,53.489454
Railway Surgery,General Practice,"Kid Glove House, Kid Glove Road, Golborne, Warrington",WA3 3GS,01942510468,http://www.ssphealth.com,Wigan,E08000010,-2.595495,53.47988
Rivington Way Surgery,General Practice,"Rivington Avenue, Platt Bridge, Wigan",WN2 5NG,01942510468,http://www.ssphealth.com,Wigan,E08000010,-2.595925,53.522279
Spring View Medical Centre,General Practice,"Mytham Road, Little Lever, Bolton",BL3 1HQ,01204578128,http://www.springviewmedicalcentre.nhs.uk,Bolton,E08000001,-2.369742,53.560837
Unsworth Medical Centre,General Practice,"Parr Lane, Unsworth, Bury",BL9 8JR,01617664092,,Bury,E08000002,-2.273074,53.560681
Garnet Fold Practice,General Practice,"374-376 St Helens Road, Bolton",BL3 3RR,01204665588,,Bolton,E08000001,-2.457847,53.559568
Bredbury Medical Centre,General Practice,"1 Auburn Avenue, Bredbury, Stockport",SK6 2AH,01614269730,,Stockport,E08000007,-2.114054,53.422915
Tame Valley Medical Centre,General Practice,"Glebe Street, Ashton Under Lyne",OL6 6HD,01613307747,http://www.tamevalleymedcentre.co.uk,Tameside,E08000008,-2.089184,53.489361
Dr George Bhima,General Practice,"1st Floor, Nye Bevan House, Maclure Road, Rochdale",OL11 1DN,01706261810,,Rochdale,E08000005,-2.154239,53.611617
Eastlands Medical Practice,General Practice,"Clayton Health Centre, 89 North Road, Clayton, Manchester",M11 4EJ,01612239229,http://www.drsgoodallglassandsingh.nhs.uk,Manchester,E08000003,-2.184157,53.484308
214 Dental,Dentist,"214 Victoria Avenue, Manchester",M9 0RR,07873200422,,Manchester,E08000003,-2.224292,53.533802
Alvanley Family Practice,General Practice,"Woodley Health Centre, Hyde Road, Woodley, Stockport",SK6 1ND,01614265757,http://www.alvanleyfamilypractice.co.uk,Stockport,E08000007,-2.0996610000000002,53.426289
Albion Medical Practice,General Practice,"1 Albion Street, Ashton Under Lyne",OL6 6HF,01612148717,http://www.albionmedicalpractice.co.uk,Tameside,E08000008,-2.088476,53.489604
Fig Tree Medical Practice,General Practice,"Farnworth Health Centre 1, Frederick Street, Farnworth, Bolton",BL4 9AH,01204795170,http://www.farnworthhealthcentre.nhs.uk,Bolton,E08000001,-2.397759,53.546123
Burnside Surgery,General Practice,"Navigation Park, Waters Meeting Road, Bolton",BL1 8TT,01204462930,,Bolton,E08000001,-2.431389,53.595818
Market Street Medical Practice,General Practice,"76 Market Street, Droylsden, Manchester",M43 6DE,01613716188,,Tameside,E08000008,-2.145635,53.478959
Boundary House Medical Centre,General Practice,"Boundary House,, 462, Northenden Road,, Sale",M33 2RH,01619729999,,Trafford,E08000009,-2.288936,53.415635
Stonefield Street Surgery,General Practice,"Stonefield Street, Milnrow, Rochdale",OL16 4JQ,01706646234,http://www.stonefieldstreetsurgery.co.uk,Rochdale,E08000005,-2.108991,53.608017
Dr Hendy & Rizwan,General Practice,"The Halliwell Surgery, Lindfield Drive, Halliwell, Bolton",BL1 3RG,01204523642,http://www.ehealthservice.co.uk/bolton/halliwellwh,Bolton,E08000001,-2.431738,53.588322
St Andrews Medical Centre 3,General Practice,"30 Russell Street, Eccles, Manchester",M30 0NU,01617075500,http://www.standrewsmc.co.uk,Salford,E08000006,-2.339619,53.484875
The Brooke Surgery,General Practice,"20 Market Street, Hyde",SK14 1AT,01613683312,,Tameside,E08000008,-2.081215,53.452136
Bracondale Medical Centre,General Practice,"141 Buxton Road, Heaviley, Stockport",SK2 6EQ,01614269050,http://www.bracondalemedicalcentre.co.uk,Stockport,E08000007,-2.147089,53.393998
York House Surgery,General Practice,"19 York Street, Heywood",OL10 4NN,01706628628,http://www.yorkhousesurgery.nhs.uk,Rochdale,E08000005,-2.217672,53.593638
Chadderton Medical Practice,General Practice,"Chadderton Town Health Centre, Middleton Road, Chadderton, Oldham",OL9 0LH,01619098144,http://www.chaddertonmedicalpractice.nhs.uk,Oldham,E08000004,-2.142182,53.545559
Caritas General Practice Partnership,General Practice,"Dial House Medical Centre, 131 Mile End Lane, Stockport",SK2 6BZ,01614265775,http://www.dialhousemedicalcentre.nhs.uk,Stockport,E08000007,-2.134599,53.395928
Crescent Dental Care,Dentist,"2 Crescent Road, Hale, Altrincham",WA15 9NA,01619298111,http://www.crescentdentalcare-hale.co.uk,Trafford,E08000009,-2.343866,53.374573
Lilford Park Surgery,General Practice,"Leigh Health Centre, The Avenue, Leigh",WN7 1HR,01942483438,http://www.lilfordparksurgery.co.uk,Wigan,E08000010,-2.511455,53.503236
Dr Mokashi,General Practice,"Clayton Health Centre, 89 North Road, Clayton, Manchester",M11 4EJ,01612238388,,Manchester,E08000003,-2.184157,53.484308
Bodmin Road Health Centre,General Practice,"Bodmin Road,, Sale",M33 5JH,01619624625,http://www.bodminroadhealthcentre.co.uk,Trafford,E08000009,-2.351718,53.428123
"Drs Chiu, Koh and Gan",General Practice,"The Vallance Centre, Brunswick Street, Manchester",M13 9UJ,01612741500,,Manchester,E08000003,-2.224542,53.469786
Gartside Street Dental Lounge,Dentist,"74 Gartside Street, Manchester",M3 3EL,01616600200,,Manchester,E08000003,-2.253188,53.479281
M.A. Dental Care,Dentist,"394 Palatine Road, Manchester",M22 4FZ,0783378919,,Manchester,E08000003,-2.258392,53.40782
Archwood Medical Practice,General Practice,"Woodley Health Centre, Hyde Road, Woodley, Stockport",SK6 1ND,01614265800,http://www.archwoodmp.co.uk,Stockport,E08000007,-2.0996610000000002,53.426289
The Village Surgery,General Practice,"31 Bramhall Lane South, Bramhall, Stockport",SK7 2DN,01614393322,http://www.thevillagesurgerybramhall.co.uk,Stockport,E08000007,-2.165195,53.35927
Bolton Community Practice CIC,General Practice,"Navigation Park, Waters Meeting Road, Bolton",BL1 8TT,01204463444,http://www.boltoncommunitypractice.nhs.uk,Bolton,E08000001,-2.431389,53.595818
Mocha Parade Medical Practice,General Practice,"The Surgery, 4-5 Mocha Parade, Salford",M7 1QE,01618392721,,Salford,E08000006,-2.260831,53.491734
Chadsfield Medical Practice,General Practice,"The Romiley Health Centre, Chichester Road, Romiley, Stockport",SK6 4QR,01614269388,http://www.chadsfieldmedicalpractice.co.uk,Stockport,E08000007,-2.08993,53.414998
Gordon Street Medical Centre,General Practice,"171 Mossley Road, Ashton Under Lyne",OL6 6NE,01613305104,,Tameside,E08000008,-2.078053,53.49291
Dr Pal & Partners,General Practice,"Royton Health Wellbeing Centre, Park Street, Royton, Oldham",OL2 6QW,01613624004,,Oldham,E08000004,-2.121594,53.566109
Dental Surgery,Dentist,"401-405, Halliwell Road, Bolton",BL1 8DE,01204491946,http://www.andrewbennison.co.uk,Bolton,E08000001,-2.444339,53.594271
Altrincham Medical Practice,General Practice,"Lloyd House, 7 Lloyd Street, Altrincham",WA14 2DD,01619282424,http://www.altrinchammedicalpractice.co.uk,Trafford,E08000009,-2.351614,53.38451
Clarendon Medical Centre,General Practice,"Clarendon Street, Hyde",SK14 2AQ,01613685224,,Tameside,E08000008,-2.079951,53.45264
The Borchardt Medical Centre,General Practice,"62 Whitchurch Road, Withington, Manchester",M20 1EB,01614382821,http://www.borchardtmc.nhs.uk,Manchester,E08000003,-2.237795,53.434307
Washway Road Medical Centre,General Practice,"67 Washway Road, Sale",M33 7SS,01619624354,http://www.wrmc.org.uk,Trafford,E08000009,-2.328288,53.422516
Knowsley Medical Centre,General Practice,"9-11 Knowsley Street, Bury",BL9 0ST,01617641217,http://www.knowsleymedicalcentre.co.uk,Bury,E08000002,-2.300551,53.588497
Surrey Lodge Group Practice,General Practice,"11 Anson Road, Victoria Park, Manchester",M14 5BY,01612242471,,Manchester,E08000003,-2.218728,53.458264
Unsworth Group Practice,General Practice,"Peter House Surgery, Captain Lees Road, Westhoughton, Bolton",BL5 3UB,01942812525,,Bolton,E08000001,-2.508554,53.550458
New Collegiate Medical Centre,General Practice,"407 Cheetham Hill Road, Cheetham, Manchester",M8 0DA,01612054364,,Manchester,E08000003,-2.236077,53.504378
Kearsley Medical Centre,General Practice,"Jackson Street, Kearsley, Bolton",BL4 8EP,01204462200,http://www.kearsleymedicalcentre.nhs.uk,Bolton,E08000001,-2.382838,53.543205
Kingsway Medical Practice,General Practice,"720 Burnage Lane, Manchester",M19 1UG,03444773625,http://www.kingswaymedicalpractice.co.uk,Manchester,E08000003,-2.212694,53.420137
"Drs D'Arifat, Elislam, Wan & Saroha",General Practice,"Newtown Medical Practice, Pemberton Primary Care Resource Centre, Sherwood Drive, Wigan",WN5 9QX,01942481900,http://www.newtownmedicalpractice.nhs.uk,Wigan,E08000010,-2.669697,53.538479
Cheadle Medical Practice,General Practice,"1-5 Ashfield Crescent, Cheadle",SK8 1BH,01614269090,http://www.cheadlemedical.co.uk,Stockport,E08000007,-2.213539,53.393745
Alexandra Group Medical Practice,General Practice,"Glodwick Primary Care Centre, 137 Glodwick Road, Oldham",OL4 1YN,01616229210,http://www.alexandrapractice.org.uk,Oldham,E08000004,-2.095095,53.537786
Bramhall Health Centre,General Practice,"66 Bramhall Lane South, Bramhall, Stockport",SK7 2DY,01614265850,,Stockport,E08000007,-2.162929,53.36001
Dr Tun & Partners,General Practice,"The Health Centre, 17 Liverpool Road, Hindley, Wigan",WN2 3HQ,01942482505,http://www.hindleyhealthcentre.co.uk,Wigan,E08000010,-2.583571,53.532102
Littleborough Group Practice,General Practice,"Littleborough Health Centre, Featherstall Road, Littleborough",OL15 8HF,01706393000,http://www.littleboroughgrouppractice.nhs.uk,Rochdale,E08000005,-2.103349,53.642995
Spring House Surgery,General Practice,"555 Chorley Old Road, Bolton",BL1 6AF,01204848411,http://www.springhousesurgery.com,Bolton,E08000001,-2.463553,53.588374
The Mosslands Medical Practice,General Practice,"Irlam Medical Centre, Macdonald Road, Irlam, Manchester",M44 5LH,01617760737,http://www.mosslandsmedicalpractice.co.uk,Salford,E08000006,-2.432258,53.437925
Halliwell Surgery 3,General Practice,"The Halliwell Surgery, Lindfield Drive, Halliwell, Bolton",BL1 3RG,01204523716,http://www.bolton.nhs.uk/gp/halliwell,Bolton,E08000001,-2.431738,53.588322
St Johns Medical Centre,General Practice,"St Johns Road, Altrincham",WA14 2NW,01619285522,http://www.stjohnsmedicalcentre.co.uk,Trafford,E08000009,-2.353809,53.38276
Newton Heath Medical Centre,General Practice,"Newton Heath Health Centre, 2 Old Church Street, Manchester",M40 2JF,01616811353,,Manchester,E08000003,-2.181199,53.500995
Park View Medical Centre,General Practice,"66 Delaunays Road, Crumpsall, Manchester",M8 4RF,01617955667,http://www.parkviewmedicalcentre.nhs.uk,Manchester,E08000003,-2.233306,53.518504
The Elms Medical Centre,General Practice,"Green Lane, Whitefield, Manchester",M45 7FD,01617662662,,Bury,E08000002,-2.295201,53.553233
Pendleton Medical Centre,General Practice,"Pendleton Gateway, 1 Broadwalk, Salford",M6 5FX,01612117420,http://www.pendletonmedicalcentre.nhs.uk,Salford,E08000006,-2.284742,53.488361
Cornishway Group Practice,General Practice,"Forum Health, Simonsway, Wythenshawe, Manchester",M22 5RX,01614902293,http://www.cornishwaygp.co.uk,Manchester,E08000003,-2.265017,53.379925
St Mary's Medical Centre,General Practice,"Rock Street, Oldham",OL1 3UL,01616206667,http://www.stmarymc.co.uk,Oldham,E08000004,-2.108554,53.543625
Tregenna Group Practice,General Practice,"Portway, Woodhouse Park, Wythenshawe, Manchester",M22 0EP,01614993777,,Manchester,E08000003,-2.256528,53.370756
Beech Hill Medical Practice,General Practice,"278 Gidlow Lane, Beech Hill, Wigan",WN6 7PD,01942821899,http://www.beechhillmedical.co.uk,Wigan,E08000010,-2.644352,53.555654
The Dunstan Partnership,General Practice,"Breightmet Health Centre,, Breightmet Fold Lane, Breightmet,, Bolton",BL2 6NT,01204463777,http://www.thedunstanpartnership.co.uk,Bolton,E08000001,-2.384279,53.582354
The Lakes Medical Practice,General Practice,"The Lakes Medical Centre, 21 Chorley Road, Swinton, Manchester",M27 4AF,01617275241,http://www.thelakesmedicalcentre.co.uk,Salford,E08000006,-2.33372,53.509205
Marple Cottage Surgery,General Practice,"50 Church Street, Marple, Stockport",SK6 6BW,01614260011,http://www.marplecottage.co.uk,Stockport,E08000007,-2.061042,53.392725
Levenshulme Medical Practice,General Practice,"Levenshulme Health Centre, Dunstable Street, Levenshulme, Manchester",M19 3BX,01612254033,http://www.levenshulmemedicalpractice.co.uk,Manchester,E08000003,-2.188524,53.446352
Davyhulme Medical Centre,General Practice,"130 Broadway, Davyhulme, Urmston, Manchester",M41 7WJ,01617485559,http://www.davyhulmemedicalcentre.co.uk,Trafford,E08000009,-2.366782,53.459483
Marple Medical Practice,General Practice,"50 Stockport Road, Marple, Stockport",SK6 6AB,01614265375,http://www.marple.medicalpractice.co.uk,Stockport,E08000007,-2.064638,53.394852
Kildonan House,General Practice,"Ramsbottom Road, Horwich, Bolton",BL6 5NW,01204468161,,Bolton,E08000001,-2.545363,53.594788
Springfield House,General Practice,"275 Huddersfield Road, Oldham",OL4 2RJ,01616672480,http://www.springfieldhousemedicalcentre.nhs.uk,Oldham,E08000004,-2.082714,53.548913
Ladybarn Group Practice,General Practice,"54 Briarfield Road, Withington, Manchester",M20 4SS,01614484500,http://www.ladybarngp.co.uk,Manchester,E08000003,-2.213962,53.429923
Ordsall Health Surgery,General Practice,"118 Phoebe Street, Ordsall, Salford",M5 3PH,01612126600,http://www.ordsallhealthsurgery.nhs.uk,Salford,E08000006,-2.280971,53.473981
Manchester Medical,General Practice,"Moss Side Health Centre, Monton Street, Manchester",M14 4GP,01612267615,http://www.manchestermedical.org.uk,Manchester,E08000003,-2.23745,53.45875
Harwood Medical Centre,General Practice,"Harwood Medical Centre, Hough Fold Way, Harwood, Bolton",BL2 3HQ,01204300033,http://www.harwoodmedicalcentre.co.uk,Bolton,E08000001,-2.398153,53.604069
Mauldeth Medical Centre,General Practice,"112 Mauldeth Road, Fallowfield, Manchester",M14 6SQ,01614346678,http://www.mauldethmedicalcentre.co.uk,Manchester,E08000003,-2.213322,53.434812
Dr BN Macdonald & Partners,General Practice,"68 Barrington Road, Altrincham",WA14 1JB,01619289621,,Trafford,E08000009,-2.35098,53.395191
The Dicconson Group Practice,General Practice,"Boston House,, Frog Lane,, Wigan",WN6 7LB,01942482000,http://www.thedicconsongrouppracticewigan.nhs.uk,Wigan,E08000010,-2.644891,53.549467
Stable Fold Surgery,General Practice,"119 Church Street, Westhoughton, Bolton",BL5 3SF,01942813678,,Bolton,E08000001,-2.52343,53.552405
Oldham Family Practice,General Practice,"Integrated Care Centre, New Radcliffe Street, Oldham",OL1 1NL,01616213456,,Oldham,E08000004,-2.116945,53.543824
Dr Ellis and Kreppel,General Practice,"Mesnes View Surgery, Mesnes Street, Wigan",WN1 1ST,01942242350,http://www.mesnesviewsurgery.co.uk,Wigan,E08000010,-2.633048,53.550807
Yorkshire Street Surgery,General Practice,"188-190 Yorkshire Street, Rochdale",OL16 2DN,01706390243,,Rochdale,E08000005,-2.152215,53.620446
Five Oaks Family Practice,General Practice,"47 Graham Street, Beswick, Manchester",M11 3BB,08444778670,http://www.fiveoaksfamilypractice.co.uk,Manchester,E08000003,-2.19447,53.47569
Dr Carmel Morris and Partners,General Practice,"Finney Lane, Heald Green, Cheadle",SK8 3JD,01614269020,http://www.healdgreenhealthcentre.nhs.uk,Stockport,E08000007,-2.229276,53.369878
Brookmill Medical Centre,General Practice,"College Street, Leigh",WN7 2RB,01942681880,http://www.brookmillmedical.co.uk,Wigan,E08000010,-2.50958,53.496441
Grosvenor Medical Centre,General Practice,"62 Grosvenor Street, Stalybridge",SK15 1RZ,01613034313,http://www.grosvenormedicalcentrestalybridge.nhs.uk,Tameside,E08000008,-2.059105,53.481452
Drs Joseph Borg-Costanzi/Ian Gilani/Brian Rhodes,General Practice,"Monton Medical Centre, Canal Side, Monton Green, Eccles, Manchester",M30 8AR,08448151147,,Salford,E08000006,-2.356978,53.491862
Flixton Road Medical Centre,General Practice,"132 Flixton Road, Urmston, Manchester",M41 5BG,01617482021,,Trafford,E08000009,-2.362664,53.448267
The Royton and Crompton Family Practice,General Practice,"Royton Health Wellbeing Centre, Park Street, Royton, Oldham",OL2 6QW,01613624003,http://www.roytonandcromptonfamilypractice.co.uk,Oldham,E08000004,-2.121594,53.566109
Didsbury Medical Centre,General Practice,"645 Wilmslow Road, Didsbury, Manchester",M20 6BA,01614451957,http://www.didsburymedicalcentre.co.uk,Manchester,E08000003,-2.231819,53.420371
The Smithy Surgery,General Practice,"4 Market Street, Hollingworth, Hyde",SK14 8LN,01457767123,,Tameside,E08000008,-1.994509,53.461818
West Point Medical Centre,General Practice,"167 Slade Lane, Manchester",M19 2AF,01612485100,http://www.westpoint-gp.nhs.uk,Manchester,E08000003,-2.197586,53.445978
Saxena Bowden Saxena,General Practice,"Minden Family Practices, Moorgate Primary Care Centre, 22 Derby Way, Bury",BL9 0NJ,01614478283,http://www.mindenfamilypractices.co.uk,Bury,E08000002,-2.288591,53.59553
The Park Medical Centre,General Practice,"434 Altrincham Road, Baguley, Wythenshaw, Manchester",M23 9AB,01619985538,,Manchester,E08000003,-2.28807,53.40104
Edenfield Road Surgery,General Practice,"Cutgate Precinct, Rochdale",OL11 5AQ,01706344125,,Rochdale,E08000005,-2.188671,53.622297
Healey Surgery,General Practice,"Whitworth Road, Rochdale",OL12 0SN,01706868468,http://www.healeysurgery.co.uk,Rochdale,E08000005,-2.162786,53.633087
The Avenue Medical Centre,General Practice,"51-53 Victoria Avenue, Blackley, Manchester",M9 6BA,01617209441,http://www.theavenuemcblackley.nhs.uk,Manchester,E08000003,-2.211676,53.533178
West Timperley Medical Centre,General Practice,"21 Dawson Road, West Timperley, Altrincham",WA14 5PF,01619291515,http://www.westtimperleymedicalcentre.co.uk,Trafford,E08000009,-2.353117,53.402699
Pennine Medical Centre,General Practice,"193 Manchester Road, Mossley, Ashton Under Lyne",OL5 9AJ,01457832590,http://www.penninemedicalcentre.nhs.uk,Tameside,E08000008,-2.040966,53.515337
Dr Venkatachalum Raj,General Practice,"37 Orient Road, Salford",M6 8LE,01617893029,http://www.orientroadmedicalpractice.co.uk,Salford,E08000006,-2.325434,53.494182
Peel GPs,General Practice,"Townside Primary Care Centre, Knowsley Place, 1 Knowsley Place, Knowsley Street, Bury",BL9 0SN,01617621515,http://www.peelgps.nhs.uk,Bury,E08000002,-2.29898,53.59031
Dr AK and N Atrey,General Practice,"Nelson Street, Atherton, Manchester",M46 0LE,01942481060,http://www.meadowviewsurgery.co.uk,Wigan,E08000010,-2.500811,53.527489
Wellfield Health Centre,General Practice,"116 Oldham Road, Rochdale",OL11 1AD,01706397600,http://www.wellfieldhealthcentre.co.uk,Rochdale,E08000005,-2.147616,53.607039
Ramsbottom Medical Practice,General Practice,"Ramsbottom Health Centre, Carr Street, Ramsbottom, Bury",BL0 9DD,01706824413,http://www.ramsbottomhc.nhs.uk,Bury,E08000002,-2.319287,53.64878
Brinnington Surgery,General Practice,"Brinnington Health Centre, Brinnington Road, Brinnington, Stockport",SK5 8BS,01614063300,http://www.brinningtonsurgeries.nhs.uk,Stockport,E08000007,-2.132367,53.427651
Pennygate Medical Centre,General Practice,"109 Ladies Lane, Hindley, Wigan",WN2 2QG,01942807500,http://www.pennygatemedical.org.uk,Wigan,E08000010,-2.576271,53.540002
The Junction Alkrington Surgery,General Practice,"346 Grimshaw Lane, Middleton Junction, Middleton, Manchester",M24 2AU,01616557478,,Rochdale,E08000005,-2.174915,53.541857
Aspull Surgery,General Practice,"The Surgery, Haigh Road, Aspull, Wigan",WN2 1XH,01942831263,http://www.aspullsurgery.co.uk,Wigan,E08000010,-2.586036,53.569599
Sorrel Bank Medical Practice,General Practice,"23 Bolton Road, Salford",M6 7HL,01617361616,http://www.thesorrelgrouppractice.co.uk,Salford,E08000006,-2.294815,53.493344
Tonge Fold Health Centre,General Practice,"Hilton Street, Tonge Fold, Bolton",BL2 6DY,01204521574,http://www.drlowe.co.uk,Bolton,E08000001,-2.405772,53.579119
Middleton Bank Dental,Dentist,"1 Long Street, Middleton, Manchester",M24 6TE,,,Rochdale,E08000005,-2.198281,53.550142
Dr Artatran Mohanty & Dr A Khurana,General Practice,"Featherstall Road South, Oldham",OL9 7AY,01616822512,,Oldham,E08000004,-2.130534,53.53731
Dr Sivakumar and Dr Gude,General Practice,"The Surgery, 1 Coldalhurst Lane, Astley, Tyldesley, Manchester",M29 7BS,01942878711,http://www.thesurgeryastley.co.uk,Wigan,E08000010,-2.455594,53.500102
Corkland Road Medical Practice,General Practice,"9 Corkland Road, Chorlton-Cum-Hardy, Manchester",M21 8UP,01618816223,,Manchester,E08000003,-2.273878,53.441827
Greenbank Medical Practice,General Practice,"Barley Clough Medical Centre, Nugget Street, Oldham",OL4 1BN,01619098370,http://www.glodwickmp.co.uk,Oldham,E08000004,-2.096166,53.537929
Clarity Dental Clinic,Dentist,"7 Sandy Lane, Chorlton-Cum-Hardy, Manchester",M21 8TL,01618816560,http://www.claritydentalclinic.co.uk,Manchester,E08000003,-2.273708,53.438763
Halliwell Surgery 2,General Practice,"The Halliwell Surgery, Lindfield Drive, Halliwell, Bolton",BL1 3RG,01204523813,http://www.halliwellsurgery.co.uk,Bolton,E08000001,-2.431738,53.588322
Brandlesholme Road Dental Practice,Dentist,"400 Brandlesholme Road, Bury",BL8 1HP,01617052882,,Bury,E08000002,-2.314626,53.6099
The Range Medical Centre,General Practice,"121 Withington Road, Whalley Range, Manchester",M16 8EE,08444996977,http://www.therangemedicalcentre.co.uk,Manchester,E08000003,-2.257066,53.452309
Dr JD Seabrook and Dr H L Chambers,General Practice,"The Surgery, 1 Wrightington Street, Wigan",WN1 2AZ,01942231965,http://www.wrightingtonstreetsurgery.co.uk,Wigan,E08000010,-2.632499,53.55143
Hope Dental Practice,Dentist,"146 Eccles Old Road, Salford",M6 8QQ,08448565546,http://www.hopedentalpractice.co.uk,Salford,E08000006,-2.309912,53.49256
Dr Cunningham and Partners,General Practice,"The Vallance Centre, Brunswick Street, Manchester",M13 9UJ,01612729616,,Manchester,E08000003,-2.224542,53.469786
"Drs. Liversedge, McCurdie and Wong",General Practice,"Egerton/Dunscar Health Centre, Darwen Road, Bromley Cross, Bolton",BL7 9RG,01204463232,http://www.bolton.nhs.uk/gp/liversedge,Bolton,E08000001,-2.426383,53.617589
Bowland Medical Practice,General Practice,"52 Bowland Road, Baguley, Manchester",M23 1JX,01619982014,http://www.bowlandmedicalpractice.co.uk,Manchester,E08000003,-2.285144,53.393146
"Drs Dickie, Pontefract & Saksena Joye",General Practice,"306 Gorton Road, Stockport",SK5 6RN,01614321235,http://www.familysurgeryreddish.nhs.uk,Stockport,E08000007,-2.157026,53.446056
Bolton General Practice,General Practice,"2-4  Moor Lane, Bolton",BL1 4TH,01942510468,http://www.ssphealth.com,Bolton,E08000001,-2.434876,53.57765
Churchgate Surgery,General Practice,"119 Manchester Road, Denton, Manchester",M34 3RA,01613362114,http://www.millgatehealthcare.nhs.uk,Tameside,E08000008,-2.120468,53.456085
Gorse Hill Medical Centre,General Practice,"879 Chester Road, Stretford, Manchester",M32 0RN,01618642496,http://www.ghmcars.co.uk,Trafford,E08000009,-2.296647,53.455651
Adshall Road Medical Practice,General Practice,"97 Adshall Road, Cheadle",SK8 2JN,01614912292,http://www.adshallroadmedicalpractice.co.uk,Stockport,E08000007,-2.191072,53.390044
Pemberton Surgery,General Practice,"Pemberton Pcrc, Sherwood Drive, Pemberton, Wigan",WN5 9QX,01942367199,http://www.pembertonsurgery.co.uk,Wigan,E08000010,-2.669697,53.538479
Heaton Norris Health Centre 1,General Practice,"Heaton Norris Health Centre, Cheviot Close, Heaton Norris, Stockport",SK4 1JX,01614751600,http://www.drmarshallandpartners.co.uk,Stockport,E08000007,-2.16793,53.416532
West End Medical Centre,General Practice,"98-102 Stockport Road, Ashton Under Lyne",OL7 0LH,01613395488,http://www.westendmedicalcentre.co.uk,Tameside,E08000008,-2.107504,53.480771
Kapur Family Care,General Practice,"Werneth Primary Care Centre, Featherstall Road South, Oldham",OL9 7AY,01614841414,http://www.kapurfamilycare.nhs.uk,Oldham,E08000004,-2.130534,53.53731
Irlam Medical Practice 2,General Practice,"Irlam Medical Centre, Macdonald Road, Irlam, Manchester",M44 5LH,01617752760,,Salford,E08000006,-2.432258,53.437925
HR Healthcare Ltd,General Practice,"Unit 18, Waters Meeting, Britannia Way, Bolton",BL2 2HH,,,Bolton,E08000001,-2.420907,53.593131
Heaton Norris Health Centre 2,General Practice,"Heaton Norris Health Centre, Cheviot Close, Heaton Norris, Stockport",SK4 1JX,01614802366,http://www.DrSen-HeatonNorris.nhs.uk,Stockport,E08000007,-2.16793,53.416532
"Dr Rubina Shahmalak, Dr Asif Javid and Dr Pirzada Anwer",General Practice,"357-359 Dickenson Road, Longsight, Manchester",M13 0WQ,0161225537,,Manchester,E08000003,-2.200961,53.455985
Dr Abid Hamid,General Practice,"2nd Floor Nye Bevan House, Maclure Road, Rochdale",OL11 1DN,01706261888,http://www.drhamidspractice.co.uk,Rochdale,E08000005,-2.154239,53.611617
Parkside Medical Centre,General Practice,"187 Northmoor Road, Longsight, Manchester",M12 5RU,01612573338,,Manchester,E08000003,-2.190843,53.453189
Pike View Medical Centre,General Practice,"Albert Street, Horwich, Bolton",BL6 7AN,08443879793,,Bolton,E08000001,-2.550853,53.602151
Benchill Medical Practice,General Practice,"171 Brownley Road, Manchester",M22 9UH,01614939101,http://www.benchillmedicalpractice.co.uk,Manchester,E08000003,-2.255632,53.386597
Blackfriars Medical Practice,General Practice,"Fresh Towers, 138 Chapel Street, Salford, Manchester",M3 6AF,01618194790,http://www.blackfriarsmedicalpractice.co.uk,Salford,E08000006,-2.254244,53.484135
Cornbrook Medical Practice,General Practice,"204 City Road, Hulme, Manchester",M15 4EA,01612279785,http://www.boundarymedicalpractice.co.uk,Manchester,E08000003,-2.259873,53.468141
Dr D T Brazier & Dr D York,General Practice,"22 Winton Street, Littleborough",OL15 8AR,01706378476,,Rochdale,E08000005,-2.0994,53.642442
Little Lever Health Centre 1,General Practice,"Mytham Road, Little Lever, Bolton",BL3 1JF,01204462640,,Bolton,E08000001,-2.370624,53.559818
The Alexandra Practice,General Practice,"365 Wilbraham Road, Manchester",M16 8NG,01618604400,,Manchester,E08000003,-2.255745,53.443126
Dr Counsell and Partners,General Practice,"The Pikes Lane Centre, Deane Road, Bolton",BL3 5HP,01204463636,http://www.drgreenhalghandpartners.co.uk,Bolton,E08000001,-2.446348,53.572728
Eastlands Medical Practice,General Practice,"89 North Road, Manchester",M11 4EJ,01612239229,http://www.eastlandsmedicalpractice.nhs.uk,Manchester,E08000003,-2.184157,53.484308
The Alastair Ross Medical Practice,General Practice,"Breightmet Health Centre,, Breightmet Fold Lane, Breightmet,, Bolton",BL2 6NT,01204463800,,Bolton,E08000001,-2.384279,53.582354
Tottington Medical Practice,General Practice,"16 Market Street, Tottington, Bury",BL8 4AD,01204885106,http://www.tottingtonmp.nhs.uk,Bury,E08000002,-2.341432,53.614725
Heady Hill Surgery,General Practice,"114 Bury New Road, Heywood",OL10 4RG,01706622600,,Rochdale,E08000005,-2.241622,53.593657
Lostock Medical Centre,General Practice,"431 Barton Road, Stretford, Manchester",M32 9PA,01618651100,,Trafford,E08000009,-2.328128,53.45458
Atherton Dental Centre,Dentist,"52 Market Street, Atherton, Manchester",M46 0DP,01942889931,,Wigan,E08000010,-2.494505,53.523613
The Christie Private Care,General Practice,"550 Wilmslow Road, Manchester",M20 4BX,01614467538,http://www.thechristieprivatecare.com,Manchester,E08000003,-2.230125,53.429767
BMI The Alexandra Hospital,General Practice,"The Alexandra Hospital, Mill Lane, Cheadle",SK8 2PX,01614283656,http://www.bmihealthcare.co.uk,Stockport,E08000007,-2.215828,53.397264
Burnage Healthcare Practice,General Practice,"Burnage Health Care Centre, 347 Burnage Lane, Manchester",M19 1EW,01614321404,,Manchester,E08000003,-2.200433,53.43018
Cavendish Dental Surgery,Dentist,"117 Chester Road, Hazel Grove, Stockport",SK7 6HG,01625878750,,Stockport,E08000007,-2.123103,53.372713
Heaton Medical Centre,General Practice,"2 Lucy Street, Bolton",BL1 5PU,01204843677,http://www.boltongp.co.uk,Bolton,E08000001,-2.469348,53.587999
North Trafford Group Practice,General Practice,"864 866 Chester Road, Stretford, Manchester",M32 0PA,01618655556,http://www.chesterroadsurgery.co.uk,Trafford,E08000009,-2.299481,53.453882
The Olive Family Practice Ltd,General Practice,"The Pikes Lane Centre, Deane Road, Bolton",BL3 5HP,01204462299,http://www.theolivefamilypractice.nhs.uk,Bolton,E08000001,-2.446348,53.572728
Dr Karim & Dr James-Authe,General Practice,"46 Wyresdale Road, Bolton",BL1 4DN,01204494133,http://www.ehealthservice.co.uk/bolton/singh,Bolton,E08000001,-2.452196,53.581577
Pendlebury Dental Centre,Dentist,"Dental Surgery, 661 Bolton Road, Pendlebury, Swinton, Manchester",M27 4EJ,01617943540,http://www.smartdentalcare.co.uk,Salford,E08000006,-2.330335,53.517691
Astley Dental Centre,Dentist,"396 Manchester Road, Astley, Tyldesley, Manchester",M29 7DY,01942882070,http://www.smartdentalcare.co.uk,Wigan,E08000010,-2.460604,53.499157
Trafford Dental Centre,Dentist,"86 Davyhulme Road East, Stretford, Manchester",M32 0DJ,01618654629,http://www.smartdentalcare.co.uk,Trafford,E08000009,-2.309059,53.451988
Mr Tariq Idrees - Carisbrook,Dentist,"6 Knowsley Road, Whitefield, Manchester",M45 6BF,01617664906,http://www.carisbrookdental.co.uk,Bury,E08000002,-2.293374,53.546541
Chapel Medical Centre,General Practice,"220 Liverpool Road, Irlam, Manchester",M44 6FE,01617757373,,Salford,E08000006,-2.418293,53.449094
Waters Meeting,General Practice,"95 Waters Meeting Road, Bolton",BL1 8TT,01204546124,,Bolton,E08000001,-2.431389,53.595818
The Heaton Mersey Dental Practice,Dentist,"418 Didsbury Road, Stockport",SK4 3BY,01614426869,,Stockport,E08000007,-2.202232,53.412883
Tyldesley Dental Centre,Dentist,"219 Elliott Street, Tyldesley, Manchester",M29 8DG,01942882151,,Wigan,E08000010,-2.463798,53.514191
7 Brooks Medical Centre,General Practice,"21 Church Street, Atherton, Manchester",M46 9DE,01942483252,,Wigan,E08000010,-2.489022,53.524185
1 Burton Place,General Practice,"1 Burton Place, Manchester",M15 4PT,01618651141,,Manchester,E08000003,-2.261644,53.472244
Winifred Kettle,General Practice,"Washacre, Westhoughton, Bolton",BL5 2NG,01204335040,http://www.boltongpfederation.co.uk,Bolton,E08000001,-2.51652,53.542738
Shanti Medical Centre,General Practice,"160 St. Helens Road, Bolton",BL3 3PH,01204546124,http://www.shantimedicalcentre.nhs.uk,Bolton,E08000001,-2.451458,53.563369
Wilfred Geere House,General Practice,"310 Highfield Road, Farnworth, Bolton",BL4 0NP,01204546124,http://www.boltongpfederation.co.uk,Bolton,E08000001,-2.434417,53.547586
Hopwood House Medical Practice,General Practice,"Lees Road, Oldham",OL4 1JN,01616283628,,Oldham,E08000004,-2.095467,53.542109
Sanctum Healthcare,General Practice,"Bridge House, 1 Stuart Road, Bredbury Park Industrial Estate, Bredbury, Stockport",SK6 2SR,01613020577,http://www.sanctumhealthcare.co.uk,Stockport,E08000007,-2.123407,53.431569
Turncroft Dental Practice,Dentist,"30 Turncroft Lane, Offerton, Stockport",SK1 4AB,01614803822,,Stockport,E08000007,-2.146163,53.408974
Better Dental Ltd,Dentist,"758 Manchester Road, Rochdale",OL11 3AW,01706352348,,Rochdale,E08000005,-2.180229,53.592559
Synergy Dental Clinic,Dentist,"274 Blackburn Road, Bolton",BL1 8DT,01204522090,,Bolton,E08000001,-2.430727,53.592919
Dr Esa Surgery Limited,General Practice,"Leigh Health Centre, The Avenue, Leigh",WN7 1HR,01942483488,http://www.grasmeresurgery.co.uk,Wigan,E08000010,-2.511455,53.503236
Face Medical Clinic,General Practice,"15 Hornby Street, Heywood",OL10 1AA,01706691683,,Rochdale,E08000005,-2.216685,53.592114
Kirkholt Dental Centre,Dentist,"6-7 The Strand, Kirkholt, Rochdale",OL11 2JG,01706352319,,Rochdale,E08000005,-2.156245,53.593988
Mydentist - St.Marys Place - Bury,Dentist,"2 St. Marys Place, Bury",BL9 0DZ,01617644151,http://www.mydentist.co.uk,Bury,E08000002,-2.300288,53.591547
MyDentist - Ripponden Road - Oldham,Dentist,"177 Littlemoor Lane, Oldham",OL4 2SF,01616248551,http://www.mydentist.co.uk,Oldham,E08000004,-2.085195,53.552093
MyDentist - Atherton Road - Hindley,Dentist,"51 Atherton Road, Hindley, Wigan",WN2 3EA,01942258888,http://www.mydentist.co.uk,Wigan,E08000010,-2.57969,53.532885
MyDentist - Crab Tree Lane - Manchester,Dentist,"17 Crab Tree Lane, Atherton, Manchester",M46 0AU,01942883103,http://www.mydentist.co.uk,Wigan,E08000010,-2.491323,53.52235
Mydentist -Advanced Oral Health Care - Red Rose - Wigan,Dentist,"50 New Market Street, Wigan",WN1 1SJ,01942242632,http://www.mydentist.co.uk,Wigan,E08000010,-2.631877,53.550202
Mydentist - Moor Road - Orrell,Dentist,"7 Moor Road, Orrell, Wigan",WN5 8ND,01942215091,http://www.mydentist.co.uk,Wigan,E08000010,-2.704943,53.53925
Mydentist - Manchester Road - Oldham,Dentist,"580 Manchester Road, Oldham",OL9 7LS,01616811022,http://www.mydentist.co.uk,Oldham,E08000004,-2.143803,53.520731
The Doc's Surgery,General Practice,"55-59 Bloom Street, Manchester",M1 3LY,01612379490,http://www.thedocsmanchester.co.uk,Manchester,E08000003,-2.238064,53.476932
Gatley Park Dental Practice,Dentist,"7 Northenden Road, Gatley, Cheadle",SK8 4EN,01614283484,,Stockport,E08000007,-2.235639,53.39267
Didsbury Dental Practice,Dentist,"90 Barlow Moor Road, Manchester",M20 2PN,01614450005,http://www.emergencydentistmanchester.com,Manchester,E08000003,-2.242719,53.421347
Mydentist - Lees Road - Oldham,Dentist,"341 Lees Road, Oldham",OL4 1LR,01616247817,,Oldham,E08000004,-2.088612,53.540163
Dr Robert Mathewson,General Practice,"The Village Green, High Lane, Stockport",SK6 8DR,01663762222,,Stockport,E08000007,-2.075293,53.364978
Hill Top Surgery,General Practice,"Fitton Hill Neighbourhood Centre, Fircroft Road, Oldham",OL8 2QD,01616222760,http://www.hilltopsurgery.org,Oldham,E08000004,-2.100756,53.52011
Croft Shifa Dental Practice,Dentist,"Croft Shifa Health Centre, Belfield Road, Rochdale",OL16 2UY,01706764738,,Rochdale,E08000005,-2.138254,53.622746
Long Lane Dental Practice,Dentist,"176 Wilmslow Road, Heald Green, Cheadle",SK8 3BG,01614371594,,Stockport,E08000007,-2.217195,53.370521
Talking Teeth Dental Practice,Dentist,"56 Ince Green Lane, Ince, Wigan",WN2 2AR,01942323058,,Wigan,E08000010,-2.606525,53.542178
Goose Green Dental,Dentist,"5 Goose Green, Altrincham",WA14 1DW,01619284882,,Trafford,E08000009,-2.350554,53.385457
Fusion Dental Practice,Dentist,"98 Mauldeth Road West, Withington, Manchester",M20 1AB,01614346239,,Manchester,E08000003,-2.232612,53.438724
Roch Valley Dental,Dentist,"23 Roch Valley Way, Rochdale",OL11 4PZ,01706524469,,Rochdale,E08000005,-2.173938,53.605199
Fogg & Whittingham Dental Surgeons,Dentist,"Dental Surgery, 117 Long Street, Middleton, Manchester",M24 6DL,01616432176,,Rochdale,E08000005,-2.197033,53.554038
Brooks Bar Dental Practice,Dentist,"176 Chorlton Road, Manchester",M16 7WW,01612262841,,Trafford,E08000009,-2.258524,53.459478
Stretford Road Dental Practice,Dentist,"13 Stretford Road, Urmston, Manchester",M41 9JY,01617475375,,Trafford,E08000009,-2.351459,53.445957
The Poplars Medical Centre,General Practice,"202 Partington Lane, Swinton, Manchester",M27 0NA,01617946237,http://www.thepoplersmedicalcentre.co.uk,Salford,E08000006,-2.34171,53.510603
The Broadway Dental Practice,Dentist,"449 Broadway, Chadderton, Oldham",OL9 8AP,01616811187,,Oldham,E08000004,-2.157195,53.528606
Talking Teeth Dental Practice,Dentist,"6 Scot Lane, Aspull, Wigan",WN2 1YX,01942833595,,Wigan,E08000010,-2.58361,53.570015
Bamford Dental Practice,Dentist,"Norden Road, Bamford, Rochdale",OL11 5PT,01706860831,http://www.bamforddental.co.uk,Rochdale,E08000005,-2.206315,53.615745
High Street Smiles - Golborne,Dentist,"107-109 High Street, Golborne, Warrington",WA3 3BZ,01942726983,http://www.highstreetsmiles.com,Wigan,E08000010,-2.596079,53.477399
Dental Hospital Manchester,Dentist,"University Dental Hospital Of Manchester, Higher Cambridge Street, Manchester",M15 6FH,01613937730,http://www.cmft.nhs.uk,Manchester,E08000003,-2.236704,53.465385
Wythenshawe Hospital,Dentist,"Southmoor Road, Manchester",M23 9LT,01619987070,http://www.uhsm.nhs.uk/,Manchester,E08000003,-2.293183,53.387922
The Cornerstone Centre,Dentist,"Dental Department, 2 Graham Street, Manchester",M11 3AA,01612302200,http://www.cmft.nhs.uk,Manchester,E08000003,-2.195097,53.474422
Longsight Health Centre,Dentist,"Dental Department, 526-528 Stockport Road, Manchester",M13 0RR,01612259274,http://www.cmft.nhs.uk,Manchester,E08000003,-2.201887,53.457584
Moss Side Health Centre,Dentist,"Dental Department, Monton Street, Manchester",M14 4GP,01612265031,http://www.cmft.nhs.uk,Manchester,E08000003,-2.23745,53.45875
Withington Community Clinic,Dentist,"Dental Department, 535 Wilmslow Road, Manchester",M20 4BA,01614451555,http://www.cmft.nhs.uk,Manchester,E08000003,-2.228386,53.431029
Wythenshawe Forum,Dentist,"Dental Department, Forum Square, Wythenshawe, Manchester",M22 5RX,01614353695,http://www.cmft.nhs.uk,Manchester,E08000003,-2.265017,53.379925
Newton Heath Health Centre,Dentist,"Dental Department, 2 Old Church Street, Manchester",M40 2JF,01616811353,http://www.cmft.nhs.uk,Manchester,E08000003,-2.181199,53.500995
Harpurhey Health Clinic,Dentist,"Dental Department, 1 Church Lane, Manchester",M9 4BE,01618614200,http://www.cmft.nhs.uk,Manchester,E08000003,-2.213622,53.512042
Brownley Green Health Centre,Dentist,"Dental Department, Brownley Road, Manchester",M22 4GA,01612092600,http://www.cmft.nhs.uk,Manchester,E08000003,-2.256686,53.391916
Plant Hill Clinic,Dentist,"Dental Department, Plant Hill Road, Manchester",M9 8LX,01617408004,http://www.cmft.nhs.uk,Manchester,E08000003,-2.225566,53.526885
Pendleton Gateway,Dentist,"1 Broadwalk, Salford",M6 5FX,,,Salford,E08000006,-2.284742,53.488361
Walkden Gateway,Dentist,"2 Smith Street, Walkden, Salford",M28 3EZ,,http://www.srht.nhs.uk,Salford,E08000006,-2.398541,53.524898
Eccles Gateway,Dentist,"28 Barton Lane, Eccles, Manchester",M30 0TU,,http://www.srht.nhs.uk,Salford,E08000006,-2.339314,53.48253
Little Hulton Health Centre,General Practice,"Haysbrook Avenue, Worsley, Manchester",M28 0AY,,http://www.srht.nhs.uk,Salford,E08000006,-2.423902,53.529872
Pendleton House,General Practice,"Back of Pendleton House, off Broughton Road, Salford",M6 6LS,,http://www.srht.nhs.uk,Salford,E08000006,-2.283855,53.493074
Sandringham House,General Practice,"Castle Courts, Windsor Street, Salford",M5 4DG,,http://www.srht.nhs.uk,Salford,E08000006,-2.279832,53.47952
Barton Moss Secure Childrens Home,Dentist,"Barton Moss Secure Care Centre, Barton Moss Road, Chat Moss, Eccles, Manchester",M30 7RL,01616865900,http://www.srft.nhs.uk,Salford,E08000006,-2.39687,53.468834
Community Dental Department,Dentist,"1st Floor, Orsdall Health Surgery, 118 Phoebe Street, Salford",M5 3PH,01612124755,,Salford,E08000006,-2.280971,53.473981
Walk in Centre,Dentist,"Levers Chambers Centre for Health, Ashburner Street, Bolton",BL1 1SQ,01204462787,http://www.boltonhospitals.nhs.uk,Bolton,E08000001,-2.431198,53.576864
Moorgate Primary Care Centre,Dentist,"22 Derby Way, Bury",BL9 0NJ,01616043000,http://www.penninecare.nhs.uk,Bury,E08000002,-2.288591,53.59553
Radcliffe Primary Care Centre,Dentist,"69 Church Street West, Radcliffe, Manchester",M26 2SP,01614479866,,Bury,E08000002,-2.323706,53.560143
Integrated Care Centre,Dentist,"New Radcliffe Street, Oldham",OL1 1NL,,,Oldham,E08000004,-2.116945,53.543824
Nye Bevan House,Dentist,"Nye Bevan, Maclure Road, Rochdale",OL11 1DN,01706261830,,Rochdale,E08000005,-2.154239,53.611617
Phoenix Centre,Dentist,"Church Street, Heywood",OL10 1LR,01706261952,,Rochdale,E08000005,-2.218662,53.592207
Whitehall Street Clinic,Dentist,"Whitehall Street, Rochdale",OL12 0ND,01706764766,,Rochdale,E08000005,-2.158351,53.623808
HMP Buckley Hall,Dentist,"Buckley Hall Road, Rochdale",OL12 9DP,01706514300,,Rochdale,E08000005,-2.145054,53.634962
Stepping Hill Hospital,General Practice,"Poplar Grove, Stockport",SK2 7JE,01614831010,http://www.stockport.nhs.uk,Stockport,E08000007,-2.13202,53.383778
Bridgewater CHCFT Leigh Walk In Centre,Dentist,"Leigh Health Centre, The Avenue, Leigh",WN7 1HR,01942483453,,Wigan,E08000010,-2.511455,53.503236
Bridgewater CHCFT Bevan House,Dentist,"17 Beecham Court, Pemberton Business Park, Smithy Brook Road, Wigan",WN3 6PR,01942482630,,Wigan,E08000010,-2.658337,53.528915
Bridgewater CHCFT Prestwich Dental Clinic,Dentist,"Prestwich Hospital, Bury New Road, Prestwich, Manchester",M25 3BL,01617723879,,Bury,E08000002,-2.291465,53.536749
Bridgewater CHCFT HMP/YOI Hindley,Dentist,"Gibson Street, Bickershaw, Wigan",WN2 5TH,,,Wigan,E08000010,-2.576949,53.517752
Bridgewater CHCFT Barton Moss Secure Home,General Practice,"Barton Moss Road, Chat Moss, Eccles",M30 7RL,,,Salford,E08000006,-2.39687,53.468834
